name,idealogy_icon,city,state,statewide,headquarters,lat,long,splc_group,splc_ideology
Knights of the Ku Klux Klan,kkk,Harrison,Arkansas,0,1,36.22,-93.1,"<a href=""https://edit.splcenter.org/fighting-hate/extremist-files/group/knights-ku-klux-klan"">Knights of the Ku Klux Klan</a>","<a href=""https://edit.splcenter.org/fighting-hate/extremist-files/ideology/ku-klux-klan"">Ku Klux Klan</a>"
America First Committee,neo-nazi,Lyons,Illinois,0,0,41.82,-87.81,,"<a href=""https://edit.splcenter.org/fighting-hate/extremist-files/ideology/neo-nazi"">Neo-Nazi</a>"
Church of Israel,christian-identity,Schell City,Missouri,0,1,38.02,-94.11,,"<a href=""https://edit.splcenter.org/fighting-hate/extremist-files/ideology/christian-identity"">Christian Identity</a>"
Nation of Islam,black-separatist,Chicago,Illinois,0,1,41.759792,-87.564304,,"<a href=""https://edit.splcenter.org/fighting-hate/extremist-files/ideology/black-separatist"">Black Separatist</a>"
Campaign for Radical Truth in History,holocaust-denial,Coeur d'Alene,Idaho,0,1,47.671935,-116.707675,,"<a href=""https://edit.splcenter.org/fighting-hate/extremist-files/ideology/holocaust-denial"">Holocaust Denial</a>"
Institute for Historical Review,holocaust-denial,Newport Beach,California,0,1,33.62,-117.92,"<a href=""https://edit.splcenter.org/fighting-hate/extremist-files/group/institute-historical-review"">Institute for Historical Review</a>","<a href=""https://edit.splcenter.org/fighting-hate/extremist-files/ideology/holocaust-denial"">Holocaust Denial</a>"
Scriptures for America Ministries,christian-identity,Laporte,Colorado,0,1,40.62,-105.13,,"<a href=""https://edit.splcenter.org/fighting-hate/extremist-files/ideology/christian-identity"">Christian Identity</a>"
White Aryan Resistance,neo-nazi,Warsaw,Indiana,0,1,41.23,-85.85,,"<a href=""https://edit.splcenter.org/fighting-hate/extremist-files/ideology/neo-nazi"">Neo-Nazi</a>"
Confederate White Knights of the Ku Klux Klan,kkk,Walterboro,South Carolina,0,0,32.9,-80.66,,"<a href=""https://edit.splcenter.org/fighting-hate/extremist-files/ideology/ku-klux-klan"">Ku Klux Klan</a>"
Mission to Israel,christian-identity,Scottsbluff,Nebraska,0,1,41.866533,-103.661168,,"<a href=""https://edit.splcenter.org/fighting-hate/extremist-files/ideology/christian-identity"">Christian Identity</a>"
Northern Hammerskins,racist-skinhead,Detroit,Michigan,0,0,42.33,-83.04,,"<a href=""https://edit.splcenter.org/fighting-hate/extremist-files/ideology/racist-skinhead"">Racist Skinhead</a>"
National Socialist German Workers Party,neo-nazi,Lincoln,Nebraska,0,1,40.818579,-96.711272,,"<a href=""https://edit.splcenter.org/fighting-hate/extremist-files/ideology/neo-nazi"">Neo-Nazi</a>"
New Order,neo-nazi,Milwaukee,Wisconsin,0,1,42.99,-88.04,,"<a href=""https://edit.splcenter.org/fighting-hate/extremist-files/ideology/neo-nazi"">Neo-Nazi</a>"
Kingdom Identity Ministries,christian-identity,Harrison,Arkansas,0,1,36.229999,-93.11,"<a href=""https://edit.splcenter.org/fighting-hate/extremist-files/group/kingdom-identity-ministries"">Kingdom Identity Ministries </a>","<a href=""https://edit.splcenter.org/fighting-hate/extremist-files/ideology/christian-identity"">Christian Identity</a>"
Nation of Islam,black-separatist,Los Angeles,California,0,0,33.94,-118.29,"<a href=""https://edit.splcenter.org/fighting-hate/extremist-files/group/nation-islam"">Nation of Islam</a>","<a href=""https://edit.splcenter.org/fighting-hate/extremist-files/ideology/black-separatist"">Black Separatist</a>"
America's Promise Ministries,christian-identity,Sandpoint,Idaho,0,1,48.27,-116.55,"<a href=""https://edit.splcenter.org/fighting-hate/extremist-files/group/americas-promise-ministries"">America&#039;s Promise Ministries</a>","<a href=""https://edit.splcenter.org/fighting-hate/extremist-files/ideology/christian-identity"">Christian Identity</a>"
Council of Conservative Citizens,white-nationalist,St. Louis,Missouri,0,1,38.578783,-90.421944,"<a href=""https://edit.splcenter.org/fighting-hate/extremist-files/group/council-conservative-citizens"">Council of Conservative Citizens</a>","<a href=""https://edit.splcenter.org/fighting-hate/extremist-files/ideology/white-nationalist"">White Nationalist</a>"
Sacto Skins,racist-skinhead,Sacramento,California,0,1,38.581571,-121.494399,,"<a href=""https://edit.splcenter.org/fighting-hate/extremist-files/ideology/racist-skinhead"">Racist Skinhead</a>"
National Alliance,neo-nazi,Hillsboro,West Virginia,0,0,38.135397,-80.213126,"<a href=""https://edit.splcenter.org/fighting-hate/extremist-files/group/national-alliance"">National Alliance</a>","<a href=""https://edit.splcenter.org/fighting-hate/extremist-files/ideology/neo-nazi"">Neo-Nazi</a>"
Nation of Islam,black-separatist,Durham,North Carolina,0,0,35.96,-78.8,"<a href=""https://edit.splcenter.org/fighting-hate/extremist-files/group/nation-islam"">Nation of Islam</a>","<a href=""https://edit.splcenter.org/fighting-hate/extremist-files/ideology/black-separatist"">Black Separatist</a>"
National Socialist Movement,neo-nazi,Detroit,Michigan,0,1,42.401041,-82.998534,"<a href=""https://edit.splcenter.org/fighting-hate/extremist-files/group/national-socialist-movement"">National Socialist Movement</a>","<a href=""https://edit.splcenter.org/fighting-hate/extremist-files/ideology/neo-nazi"">Neo-Nazi</a>"
Confederate Hammerskins,racist-skinhead,,Georgia,1,0,32.16,-82.9,,"<a href=""https://edit.splcenter.org/fighting-hate/extremist-files/ideology/racist-skinhead"">Racist Skinhead</a>"
Nation of Islam,black-separatist,Atlanta,Georgia,0,0,33.689184,-84.50818,"<a href=""https://edit.splcenter.org/fighting-hate/extremist-files/group/nation-islam"">Nation of Islam</a>","<a href=""https://edit.splcenter.org/fighting-hate/extremist-files/ideology/black-separatist"">Black Separatist</a>"
Resistance Records,racist-music,Chicago,Illinois,0,1,41.87,-87.62,,"<a href=""https://edit.splcenter.org/fighting-hate/extremist-files/ideology/hate-music"">Hate Music</a>"
Council of Conservative Citizens,white-nationalist,Franklin,Tennessee,0,0,35.925063,-86.868889,"<a href=""https://edit.splcenter.org/fighting-hate/extremist-files/group/council-conservative-citizens"">Council of Conservative Citizens</a>","<a href=""https://edit.splcenter.org/fighting-hate/extremist-files/ideology/white-nationalist"">White Nationalist</a>"
MSR Productions,racist-music,Wheat Ridge,Colorado,0,1,39.77,-105.08,,"<a href=""https://edit.splcenter.org/fighting-hate/extremist-files/ideology/hate-music"">Hate Music</a>"
American Renaissance/New Century Foundation,white-nationalist,Oakton,Virginia,0,1,38.892351,-77.326699,"<a href=""https://edit.splcenter.org/fighting-hate/extremist-files/group/american-renaissance"">American Renaissance</a>","<a href=""https://edit.splcenter.org/fighting-hate/extremist-files/ideology/white-nationalist"">White Nationalist</a>"
Stormfront,white-nationalist,West Palm Beach,Florida,0,1,26.665499,-80.05908,"<a href=""https://edit.splcenter.org/fighting-hate/extremist-files/group/stormfront"">Stormfront</a>","<a href=""https://edit.splcenter.org/fighting-hate/extremist-files/ideology/white-nationalist"">White Nationalist</a>"
Sacred Truth Publishing & Ministries,christian-identity,Mountain City,Tennessee,0,1,36.47,-81.8,,"<a href=""https://edit.splcenter.org/fighting-hate/extremist-files/ideology/christian-identity"">Christian Identity</a>"
Nation of Islam,black-separatist,Boston,Massachusetts,0,0,42.3,-71.08,"<a href=""https://edit.splcenter.org/fighting-hate/extremist-files/group/nation-islam"">Nation of Islam</a>","<a href=""https://edit.splcenter.org/fighting-hate/extremist-files/ideology/black-separatist"">Black Separatist</a>"
Nation of Islam,black-separatist,Miami,Florida,0,0,25.82,-80.2,"<a href=""https://edit.splcenter.org/fighting-hate/extremist-files/group/nation-islam"">Nation of Islam</a>","<a href=""https://edit.splcenter.org/fighting-hate/extremist-files/ideology/black-separatist"">Black Separatist</a>"
American Immigration Control Foundation/Americans for Immigration Control,anti-immigrant,Monterey,Virginia,0,1,38.41,-79.58,,"<a href=""https://edit.splcenter.org/fighting-hate/extremist-files/ideology/anti-immigrant"">Anti-Immigrant</a>"
American Freedom Union,white-nationalist,Hampton Township,Pennsylvania,0,1,40.59,-79.97,,"<a href=""https://edit.splcenter.org/fighting-hate/extremist-files/ideology/white-nationalist"">White Nationalist</a>"
New Black Panther Party,black-separatist,Dallas,Texas,0,0,32.76,-96.76,"<a href=""https://edit.splcenter.org/fighting-hate/extremist-files/group/new-black-panther-party"">New Black Panther Party</a>","<a href=""https://edit.splcenter.org/fighting-hate/extremist-files/ideology/black-separatist"">Black Separatist</a>"
Nation of Islam,black-separatist,Philadelphia,Pennsylvania,0,0,39.99,-75.15,"<a href=""https://edit.splcenter.org/fighting-hate/extremist-files/group/nation-islam"">Nation of Islam</a>","<a href=""https://edit.splcenter.org/fighting-hate/extremist-files/ideology/black-separatist"">Black Separatist</a>"
Westboro Baptist Church,anti-lgbt,Topeka,Kansas,0,1,39.040155,-95.724716,"<a href=""https://edit.splcenter.org/fighting-hate/extremist-files/group/westboro-baptist-church"">Westboro Baptist Church</a>","<a href=""https://edit.splcenter.org/fighting-hate/extremist-files/ideology/anti-lgbt"">Anti-LGBT</a>"
Council of Conservative Citizens,white-nationalist,New York,New York,0,0,40.715133,-74.010995,"<a href=""https://edit.splcenter.org/fighting-hate/extremist-files/group/council-conservative-citizens"">Council of Conservative Citizens</a>","<a href=""https://edit.splcenter.org/fighting-hate/extremist-files/ideology/white-nationalist"">White Nationalist</a>"
Fellowship of God's Covenant People,christian-identity,Union,Kentucky,0,1,38.945895,-84.680501,,"<a href=""https://edit.splcenter.org/fighting-hate/extremist-files/ideology/christian-identity"">Christian Identity</a>"
Virginia Publishing Company,christian-identity,Lynchburg,Virginia,0,1,37.409999,-79.14,,"<a href=""https://edit.splcenter.org/fighting-hate/extremist-files/ideology/christian-identity"">Christian Identity</a>"
"Conservative Citizens Foundation, Inc.",white-nationalist,Bridgeton,Missouri,0,1,38.76,-90.44,"<a href=""https://edit.splcenter.org/fighting-hate/extremist-files/group/council-conservative-citizens"">Council of Conservative Citizens</a>","<a href=""https://edit.splcenter.org/fighting-hate/extremist-files/ideology/white-nationalist"">White Nationalist</a>"
Nation of Islam,black-separatist,Birmingham,Alabama,0,0,33.44,-86.86,"<a href=""https://edit.splcenter.org/fighting-hate/extremist-files/group/nation-islam"">Nation of Islam</a>","<a href=""https://edit.splcenter.org/fighting-hate/extremist-files/ideology/black-separatist"">Black Separatist</a>"
Nation of Islam,black-separatist,Columbus,Ohio,0,0,39.97,-82.96,"<a href=""https://edit.splcenter.org/fighting-hate/extremist-files/group/nation-islam"">Nation of Islam</a>","<a href=""https://edit.splcenter.org/fighting-hate/extremist-files/ideology/black-separatist"">Black Separatist</a>"
Nation of Islam,black-separatist,Harlem,New York,0,0,40.81,-73.95,"<a href=""https://edit.splcenter.org/fighting-hate/extremist-files/group/nation-islam"">Nation of Islam</a>","<a href=""https://edit.splcenter.org/fighting-hate/extremist-files/ideology/black-separatist"">Black Separatist</a>"
Nation of Islam,black-separatist,Milwaukee,Wisconsin,0,0,43.127225,-87.943283,"<a href=""https://edit.splcenter.org/fighting-hate/extremist-files/group/nation-islam"">Nation of Islam</a>","<a href=""https://edit.splcenter.org/fighting-hate/extremist-files/ideology/black-separatist"">Black Separatist</a>"
Nation of Islam,black-separatist,Memphis,Tennessee,0,0,35.133211,-90.032478,"<a href=""https://edit.splcenter.org/fighting-hate/extremist-files/group/nation-islam"">Nation of Islam</a>","<a href=""https://edit.splcenter.org/fighting-hate/extremist-files/ideology/black-separatist"">Black Separatist</a>"
Nation of Islam,black-separatist,San Diego,California,0,0,32.698055,-117.120592,"<a href=""https://edit.splcenter.org/fighting-hate/extremist-files/group/nation-islam"">Nation of Islam</a>","<a href=""https://edit.splcenter.org/fighting-hate/extremist-files/ideology/black-separatist"">Black Separatist</a>"
Nation of Islam,black-separatist,Detroit,Michigan,0,0,42.399173,-83.159108,"<a href=""https://edit.splcenter.org/fighting-hate/extremist-files/group/nation-islam"">Nation of Islam</a>","<a href=""https://edit.splcenter.org/fighting-hate/extremist-files/ideology/black-separatist"">Black Separatist</a>"
Nation of Islam,black-separatist,Phoenix,Arizona,0,0,33.405164,-112.070017,"<a href=""https://edit.splcenter.org/fighting-hate/extremist-files/group/nation-islam"">Nation of Islam</a>","<a href=""https://edit.splcenter.org/fighting-hate/extremist-files/ideology/black-separatist"">Black Separatist</a>"
Nation of Islam,black-separatist,Washington,District of Columbia,0,0,38.869829,-76.960766,"<a href=""https://edit.splcenter.org/fighting-hate/extremist-files/group/nation-islam"">Nation of Islam</a>","<a href=""https://edit.splcenter.org/fighting-hate/extremist-files/ideology/black-separatist"">Black Separatist</a>"
Nation of Islam,black-separatist,Baltimore,Maryland,0,0,39.326912,-76.682834,"<a href=""https://edit.splcenter.org/fighting-hate/extremist-files/group/nation-islam"">Nation of Islam</a>","<a href=""https://edit.splcenter.org/fighting-hate/extremist-files/ideology/black-separatist"">Black Separatist</a>"
Nation of Islam,black-separatist,Springfield,Massachusetts,0,0,42.110021,-72.567583,"<a href=""https://edit.splcenter.org/fighting-hate/extremist-files/group/nation-islam"">Nation of Islam</a>","<a href=""https://edit.splcenter.org/fighting-hate/extremist-files/ideology/black-separatist"">Black Separatist</a>"
Nation of Islam,black-separatist,Houston,Texas,0,0,29.698225,-95.357319,"<a href=""https://edit.splcenter.org/fighting-hate/extremist-files/group/nation-islam"">Nation of Islam</a>","<a href=""https://edit.splcenter.org/fighting-hate/extremist-files/ideology/black-separatist"">Black Separatist</a>"
Nation of Islam,black-separatist,Plainfield,New Jersey,0,0,40.61,-74.42,"<a href=""https://edit.splcenter.org/fighting-hate/extremist-files/group/nation-islam"">Nation of Islam</a>","<a href=""https://edit.splcenter.org/fighting-hate/extremist-files/ideology/black-separatist"">Black Separatist</a>"
Power of Prophecy,other,Austin,Texas,0,1,30.300618,-97.874408,,"<a href=""https://edit.splcenter.org/fighting-hate/extremist-files/ideology/general-hate"">General Hate</a>"
American Nazi Party,neo-nazi,Westland,Michigan,0,1,42.335811,-83.38428,,"<a href=""https://edit.splcenter.org/fighting-hate/extremist-files/ideology/neo-nazi"">Neo-Nazi</a>"
Federation for American Immigration Reform,anti-immigrant,Washington,District of Columbia,0,1,38.9163,-77.0452,"<a href=""https://edit.splcenter.org/fighting-hate/extremist-files/group/federation-american-immigration-reform"">Federation for American Immigration Reform</a>","<a href=""https://edit.splcenter.org/fighting-hate/extremist-files/ideology/anti-immigrant"">Anti-Immigrant</a>"
League of the South,neo-confederate,Tuscaloosa,Alabama,0,0,33.2,-87.56,"<a href=""https://edit.splcenter.org/fighting-hate/extremist-files/group/league-south"">League of the South</a>","<a href=""https://edit.splcenter.org/fighting-hate/extremist-files/ideology/neo-confederate"">Neo-Confederate</a>"
League of the South,neo-confederate,Conroe,Texas,0,0,30.16,-95.42,"<a href=""https://edit.splcenter.org/fighting-hate/extremist-files/group/league-south"">League of the South</a>","<a href=""https://edit.splcenter.org/fighting-hate/extremist-files/ideology/neo-confederate"">Neo-Confederate</a>"
League of the South,neo-confederate,La Porte,Texas,0,0,29.652277,-95.02727,"<a href=""https://edit.splcenter.org/fighting-hate/extremist-files/group/league-south"">League of the South</a>","<a href=""https://edit.splcenter.org/fighting-hate/extremist-files/ideology/neo-confederate"">Neo-Confederate</a>"
Nation of Islam,black-separatist,Dallas,Texas,0,0,32.766133,-96.772526,"<a href=""https://edit.splcenter.org/fighting-hate/extremist-files/group/nation-islam"">Nation of Islam</a>","<a href=""https://edit.splcenter.org/fighting-hate/extremist-files/ideology/black-separatist"">Black Separatist</a>"
Nation of Islam,black-separatist,Fort Lauderdale,Florida,0,0,26.12,-80.16,"<a href=""https://edit.splcenter.org/fighting-hate/extremist-files/group/nation-islam"">Nation of Islam</a>","<a href=""https://edit.splcenter.org/fighting-hate/extremist-files/ideology/black-separatist"">Black Separatist</a>"
Nation of Islam,black-separatist,Richmond,Virginia,0,0,37.54,-77.44,"<a href=""https://edit.splcenter.org/fighting-hate/extremist-files/group/nation-islam"">Nation of Islam</a>","<a href=""https://edit.splcenter.org/fighting-hate/extremist-files/ideology/black-separatist"">Black Separatist</a>"
Nation of Islam,black-separatist,Oakland,California,0,0,37.77,-122.2,"<a href=""https://edit.splcenter.org/fighting-hate/extremist-files/group/nation-islam"">Nation of Islam</a>","<a href=""https://edit.splcenter.org/fighting-hate/extremist-files/ideology/black-separatist"">Black Separatist</a>"
Nation of Islam,black-separatist,Newark,New Jersey,0,0,40.74,-74.19,"<a href=""https://edit.splcenter.org/fighting-hate/extremist-files/group/nation-islam"">Nation of Islam</a>","<a href=""https://edit.splcenter.org/fighting-hate/extremist-files/ideology/black-separatist"">Black Separatist</a>"
Nation of Islam,black-separatist,St. Louis,Missouri,0,0,38.7,-90.25,"<a href=""https://edit.splcenter.org/fighting-hate/extremist-files/group/nation-islam"">Nation of Islam</a>","<a href=""https://edit.splcenter.org/fighting-hate/extremist-files/ideology/black-separatist"">Black Separatist</a>"
Nation of Islam,black-separatist,New Orleans,Louisiana,0,0,30.013167,-90.020895,"<a href=""https://edit.splcenter.org/fighting-hate/extremist-files/group/nation-islam"">Nation of Islam</a>","<a href=""https://edit.splcenter.org/fighting-hate/extremist-files/ideology/black-separatist"">Black Separatist</a>"
Nation of Islam,black-separatist,Charlotte,North Carolina,0,0,35.268007,-80.882107,"<a href=""https://edit.splcenter.org/fighting-hate/extremist-files/group/nation-islam"">Nation of Islam</a>","<a href=""https://edit.splcenter.org/fighting-hate/extremist-files/ideology/black-separatist"">Black Separatist</a>"
New Black Panther Party,black-separatist,Newark,New Jersey,0,0,40.74,-74.19,"<a href=""https://edit.splcenter.org/fighting-hate/extremist-files/group/new-black-panther-party"">New Black Panther Party</a>","<a href=""https://edit.splcenter.org/fighting-hate/extremist-files/ideology/black-separatist"">Black Separatist</a>"
New Black Panther Party,black-separatist,Atlanta,Georgia,0,0,33.76,-84.39,"<a href=""https://edit.splcenter.org/fighting-hate/extremist-files/group/new-black-panther-party"">New Black Panther Party</a>","<a href=""https://edit.splcenter.org/fighting-hate/extremist-files/ideology/black-separatist"">Black Separatist</a>"
New Black Panther Party,black-separatist,Tomball,Texas,0,0,30.09,-95.62,"<a href=""https://edit.splcenter.org/fighting-hate/extremist-files/group/new-black-panther-party"">New Black Panther Party</a>","<a href=""https://edit.splcenter.org/fighting-hate/extremist-files/ideology/black-separatist"">Black Separatist</a>"
New Black Panther Party,black-separatist,Washington,District of Columbia,0,0,38.956829,-77.013344,"<a href=""https://edit.splcenter.org/fighting-hate/extremist-files/group/new-black-panther-party"">New Black Panther Party</a>","<a href=""https://edit.splcenter.org/fighting-hate/extremist-files/ideology/black-separatist"">Black Separatist</a>"
Social Contract Press,white-nationalist,Petoskey,Michigan,0,1,45.373342,-84.955329,"<a href=""https://edit.splcenter.org/fighting-hate/extremist-files/group/social-contract-press"">The Social Contract Press</a>","<a href=""https://edit.splcenter.org/fighting-hate/extremist-files/ideology/white-nationalist"">White Nationalist</a>"
Weisman Publications,christian-identity,Apple Valley,Minnesota,0,1,44.73,-93.21,,"<a href=""https://edit.splcenter.org/fighting-hate/extremist-files/ideology/christian-identity"">Christian Identity</a>"
Nation of Islam,black-separatist,Compton,California,0,0,33.88,-118.2,"<a href=""https://edit.splcenter.org/fighting-hate/extremist-files/group/nation-islam"">Nation of Islam</a>","<a href=""https://edit.splcenter.org/fighting-hate/extremist-files/ideology/black-separatist"">Black Separatist</a>"
League of the South,neo-confederate,Wilmington,North Carolina,0,0,34.237859,-77.947639,"<a href=""https://edit.splcenter.org/fighting-hate/extremist-files/group/league-south"">League of the South</a>","<a href=""https://edit.splcenter.org/fighting-hate/extremist-files/ideology/neo-confederate"">Neo-Confederate</a>"
Nation of Islam,black-separatist,Charleston,South Carolina,0,0,32.86,-79.97,"<a href=""https://edit.splcenter.org/fighting-hate/extremist-files/group/nation-islam"">Nation of Islam</a>","<a href=""https://edit.splcenter.org/fighting-hate/extremist-files/ideology/black-separatist"">Black Separatist</a>"
Kinsman Redeemer Ministries,christian-identity,Alexandria,Kentucky,0,1,38.959507,-84.387994,,"<a href=""https://edit.splcenter.org/fighting-hate/extremist-files/ideology/christian-identity"">Christian Identity</a>"
League of the South,neo-confederate,Waxahachie,Texas,0,0,32.386531,-96.848331,"<a href=""https://edit.splcenter.org/fighting-hate/extremist-files/group/league-south"">League of the South</a>","<a href=""https://edit.splcenter.org/fighting-hate/extremist-files/ideology/neo-confederate"">Neo-Confederate</a>"
Jewish Defense League,other,Los Angeles,California,0,1,34.07,-118.37,,"<a href=""https://edit.splcenter.org/fighting-hate/extremist-files/ideology/general-hate"">General Hate</a>"
Keystone State Skinheads,racist-skinhead,Harrisburg,Pennsylvania,0,1,40.27,-76.88,"<a href=""https://edit.splcenter.org/fighting-hate/extremist-files/group/keystone-united"">Keystone United</a>","<a href=""https://edit.splcenter.org/fighting-hate/extremist-files/ideology/racist-skinhead"">Racist Skinhead</a>"
American Free Press,other,Washington,District of Columbia,0,1,38.884552,-76.996886,,"<a href=""https://edit.splcenter.org/fighting-hate/extremist-files/ideology/general-hate"">General Hate</a>"
Confederate Hammerskins,racist-skinhead,,Florida,1,0,27.66,-81.51,,"<a href=""https://edit.splcenter.org/fighting-hate/extremist-files/ideology/racist-skinhead"">Racist Skinhead</a>"
League of the South,neo-confederate,Wetumpka,Alabama,0,0,32.59,-86.21,"<a href=""https://edit.splcenter.org/fighting-hate/extremist-files/group/league-south"">League of the South</a>","<a href=""https://edit.splcenter.org/fighting-hate/extremist-files/ideology/neo-confederate"">Neo-Confederate</a>"
Midland Hammerskins,racist-skinhead,Wichita,Kansas,0,0,37.696628,-97.341321,,"<a href=""https://edit.splcenter.org/fighting-hate/extremist-files/ideology/racist-skinhead"">Racist Skinhead</a>"
Nation of Islam,black-separatist,Greensboro,North Carolina,0,0,36.019649,-79.762417,"<a href=""https://edit.splcenter.org/fighting-hate/extremist-files/group/nation-islam"">Nation of Islam</a>","<a href=""https://edit.splcenter.org/fighting-hate/extremist-files/ideology/black-separatist"">Black Separatist</a>"
Nation of Islam,black-separatist,Buffalo,New York,0,0,42.9,-78.82,"<a href=""https://edit.splcenter.org/fighting-hate/extremist-files/group/nation-islam"">Nation of Islam</a>","<a href=""https://edit.splcenter.org/fighting-hate/extremist-files/ideology/black-separatist"">Black Separatist</a>"
"Barnes Review/Foundation for Economic Liberty, Inc.",holocaust-denial,Upper Marlboro,Maryland,0,1,38.81,-76.74,"<a href=""https://edit.splcenter.org/fighting-hate/extremist-files/group/barnes-review"">Barnes Review</a>","<a href=""https://edit.splcenter.org/fighting-hate/extremist-files/ideology/holocaust-denial"">Holocaust Denial</a>"
Occidental Quarterly/Charles Martel Society,white-nationalist,Atlanta,Georgia,0,1,33.75,-84.39,"<a href=""https://edit.splcenter.org/fighting-hate/extremist-files/group/occidental-quarterly"">Occidental Quarterly</a>","<a href=""https://edit.splcenter.org/fighting-hate/extremist-files/ideology/white-nationalist"">White Nationalist</a>"
Nation of Islam,black-separatist,Raleigh,North Carolina,0,0,35.75,-78.63,"<a href=""https://edit.splcenter.org/fighting-hate/extremist-files/group/nation-islam"">Nation of Islam</a>","<a href=""https://edit.splcenter.org/fighting-hate/extremist-files/ideology/black-separatist"">Black Separatist</a>"
Micetrap Distribution,racist-music,Maple Shade Township,New Jersey,0,1,39.952612,-74.992391,,"<a href=""https://edit.splcenter.org/fighting-hate/extremist-files/ideology/hate-music"">Hate Music</a>"
Nation of Islam,black-separatist,Huntsville,Alabama,0,0,34.73,-86.58,"<a href=""https://edit.splcenter.org/fighting-hate/extremist-files/group/nation-islam"">Nation of Islam</a>","<a href=""https://edit.splcenter.org/fighting-hate/extremist-files/ideology/black-separatist"">Black Separatist</a>"
Nation of Islam,black-separatist,Rialto,California,0,0,34.12,-117.36,"<a href=""https://edit.splcenter.org/fighting-hate/extremist-files/group/nation-islam"">Nation of Islam</a>","<a href=""https://edit.splcenter.org/fighting-hate/extremist-files/ideology/black-separatist"">Black Separatist</a>"
National Coalition for Immigration Reform (formerly CCIR),anti-immigrant,Huntington Beach,California,0,1,33.72,-118.02,,"<a href=""https://edit.splcenter.org/fighting-hate/extremist-files/ideology/anti-immigrant"">Anti-Immigrant</a>"
Nation of Islam,black-separatist,Kansas City,Missouri,0,0,39.09,-94.57,"<a href=""https://edit.splcenter.org/fighting-hate/extremist-files/group/nation-islam"">Nation of Islam</a>","<a href=""https://edit.splcenter.org/fighting-hate/extremist-files/ideology/black-separatist"">Black Separatist</a>"
Nation of Islam,black-separatist,Indianapolis,Indiana,0,0,39.802988,-86.103918,"<a href=""https://edit.splcenter.org/fighting-hate/extremist-files/group/nation-islam"">Nation of Islam</a>","<a href=""https://edit.splcenter.org/fighting-hate/extremist-files/ideology/black-separatist"">Black Separatist</a>"
Nation of Islam,black-separatist,Cleveland,Ohio,0,0,41.45,-81.59,"<a href=""https://edit.splcenter.org/fighting-hate/extremist-files/group/nation-islam"">Nation of Islam</a>","<a href=""https://edit.splcenter.org/fighting-hate/extremist-files/ideology/black-separatist"">Black Separatist</a>"
Nation of Islam,black-separatist,Denver,Colorado,0,0,39.73,-104.9,"<a href=""https://edit.splcenter.org/fighting-hate/extremist-files/group/nation-islam"">Nation of Islam</a>","<a href=""https://edit.splcenter.org/fighting-hate/extremist-files/ideology/black-separatist"">Black Separatist</a>"
Nation of Islam,black-separatist,Baton Rouge,Louisiana,0,0,30.47,-91.16,"<a href=""https://edit.splcenter.org/fighting-hate/extremist-files/group/nation-islam"">Nation of Islam</a>","<a href=""https://edit.splcenter.org/fighting-hate/extremist-files/ideology/black-separatist"">Black Separatist</a>"
Nation of Islam,black-separatist,Tulsa,Oklahoma,0,0,36.2,-95.98,"<a href=""https://edit.splcenter.org/fighting-hate/extremist-files/group/nation-islam"">Nation of Islam</a>","<a href=""https://edit.splcenter.org/fighting-hate/extremist-files/ideology/black-separatist"">Black Separatist</a>"
Nation of Islam,black-separatist,Pensacola,Florida,0,0,30.431374,-87.246235,"<a href=""https://edit.splcenter.org/fighting-hate/extremist-files/group/nation-islam"">Nation of Islam</a>","<a href=""https://edit.splcenter.org/fighting-hate/extremist-files/ideology/black-separatist"">Black Separatist</a>"
Nation of Islam,black-separatist,Monroe,Louisiana,0,0,32.5,-92.11,"<a href=""https://edit.splcenter.org/fighting-hate/extremist-files/group/nation-islam"">Nation of Islam</a>","<a href=""https://edit.splcenter.org/fighting-hate/extremist-files/ideology/black-separatist"">Black Separatist</a>"
Nation of Islam,black-separatist,Wilmington,Delaware,0,0,39.760071,-75.533492,"<a href=""https://edit.splcenter.org/fighting-hate/extremist-files/group/nation-islam"">Nation of Islam</a>","<a href=""https://edit.splcenter.org/fighting-hate/extremist-files/ideology/black-separatist"">Black Separatist</a>"
Nation of Islam,black-separatist,Mobile,Alabama,0,0,30.69,-88.05,"<a href=""https://edit.splcenter.org/fighting-hate/extremist-files/group/nation-islam"">Nation of Islam</a>","<a href=""https://edit.splcenter.org/fighting-hate/extremist-files/ideology/black-separatist"">Black Separatist</a>"
Nation of Islam,black-separatist,Camden,New Jersey,0,0,39.93,-75.11,"<a href=""https://edit.splcenter.org/fighting-hate/extremist-files/group/nation-islam"">Nation of Islam</a>","<a href=""https://edit.splcenter.org/fighting-hate/extremist-files/ideology/black-separatist"">Black Separatist</a>"
Nation of Islam,black-separatist,Columbia,South Carolina,0,0,34.05,-81,"<a href=""https://edit.splcenter.org/fighting-hate/extremist-files/group/nation-islam"">Nation of Islam</a>","<a href=""https://edit.splcenter.org/fighting-hate/extremist-files/ideology/black-separatist"">Black Separatist</a>"
Nation of Islam,black-separatist,Holly Springs,Mississippi,0,0,34.77,-89.44,"<a href=""https://edit.splcenter.org/fighting-hate/extremist-files/group/nation-islam"">Nation of Islam</a>","<a href=""https://edit.splcenter.org/fighting-hate/extremist-files/ideology/black-separatist"">Black Separatist</a>"
Nation of Islam,black-separatist,Chattanooga,Tennessee,0,0,35,-85.31,"<a href=""https://edit.splcenter.org/fighting-hate/extremist-files/group/nation-islam"">Nation of Islam</a>","<a href=""https://edit.splcenter.org/fighting-hate/extremist-files/ideology/black-separatist"">Black Separatist</a>"
Nation of Islam,black-separatist,Columbus,Georgia,0,0,32.46,-84.95,"<a href=""https://edit.splcenter.org/fighting-hate/extremist-files/group/nation-islam"">Nation of Islam</a>","<a href=""https://edit.splcenter.org/fighting-hate/extremist-files/ideology/black-separatist"">Black Separatist</a>"
Nation of Islam,black-separatist,Tampa,Florida,0,0,27.95,-82.45,"<a href=""https://edit.splcenter.org/fighting-hate/extremist-files/group/nation-islam"">Nation of Islam</a>","<a href=""https://edit.splcenter.org/fighting-hate/extremist-files/ideology/black-separatist"">Black Separatist</a>"
League of the South,neo-confederate,Killen,Alabama,0,1,34.862863,-87.537525,"<a href=""https://edit.splcenter.org/fighting-hate/extremist-files/group/league-south"">League of the South</a>","<a href=""https://edit.splcenter.org/fighting-hate/extremist-files/ideology/neo-confederate"">Neo-Confederate</a>"
Keystone State Skinheads,racist-skinhead,Philadelphia,Pennsylvania,0,0,39.95,-75.16,"<a href=""https://edit.splcenter.org/fighting-hate/extremist-files/group/keystone-united"">Keystone United</a>","<a href=""https://edit.splcenter.org/fighting-hate/extremist-files/ideology/racist-skinhead"">Racist Skinhead</a>"
Heritage and Destiny,white-nationalist,Silver Spring,Maryland,0,1,39,-77.03,,"<a href=""https://edit.splcenter.org/fighting-hate/extremist-files/ideology/white-nationalist"">White Nationalist</a>"
League of the South,neo-confederate,Aiken,South Carolina,0,0,33.560416,-81.719553,"<a href=""https://edit.splcenter.org/fighting-hate/extremist-files/group/league-south"">League of the South</a>","<a href=""https://edit.splcenter.org/fighting-hate/extremist-files/ideology/neo-confederate"">Neo-Confederate</a>"
League of the South,neo-confederate,Jacksonville,Florida,0,0,30.312149,-81.737552,"<a href=""https://edit.splcenter.org/fighting-hate/extremist-files/group/league-south"">League of the South</a>","<a href=""https://edit.splcenter.org/fighting-hate/extremist-files/ideology/neo-confederate"">Neo-Confederate</a>"
VDARE Foundation,white-nationalist,Warrenton,Virginia,0,1,38.713451,-77.795271,"<a href=""https://edit.splcenter.org/fighting-hate/extremist-files/group/vdare"">VDARE</a>","<a href=""https://edit.splcenter.org/fighting-hate/extremist-files/ideology/white-nationalist"">White Nationalist</a>"
FreeMississippi,neo-confederate,Perkinston,Mississippi,0,1,30.78,-89.14,,"<a href=""https://edit.splcenter.org/fighting-hate/extremist-files/ideology/neo-confederate"">Neo-Confederate</a>"
New Black Panther Party,black-separatist,Los Angeles,California,0,0,34.06,-118.24,"<a href=""https://edit.splcenter.org/fighting-hate/extremist-files/group/new-black-panther-party"">New Black Panther Party</a>","<a href=""https://edit.splcenter.org/fighting-hate/extremist-files/ideology/black-separatist"">Black Separatist</a>"
New Black Panther Party,black-separatist,St. Louis,Missouri,0,0,38.629185,-90.217431,"<a href=""https://edit.splcenter.org/fighting-hate/extremist-files/group/new-black-panther-party"">New Black Panther Party</a>","<a href=""https://edit.splcenter.org/fighting-hate/extremist-files/ideology/black-separatist"">Black Separatist</a>"
AC Skins,racist-skinhead,Atlantic City,New Jersey,0,0,39.36,-74.42,,"<a href=""https://edit.splcenter.org/fighting-hate/extremist-files/ideology/racist-skinhead"">Racist Skinhead</a>"
Yahweh's Truth,christian-identity,Linwood,Michigan,0,1,43.742369,-84.069596,,"<a href=""https://edit.splcenter.org/fighting-hate/extremist-files/ideology/christian-identity"">Christian Identity</a>"
Vinlanders Social Club,racist-skinhead,,Indiana,1,1,40.26,-86.13,"<a href=""https://edit.splcenter.org/fighting-hate/extremist-files/group/vinlanders-social-club"">Vinlanders Social Club</a>","<a href=""https://edit.splcenter.org/fighting-hate/extremist-files/ideology/racist-skinhead"">Racist Skinhead</a>"
Nation of Islam,black-separatist,Norfolk,Virginia,0,0,36.885412,-76.26529,"<a href=""https://edit.splcenter.org/fighting-hate/extremist-files/group/nation-islam"">Nation of Islam</a>","<a href=""https://edit.splcenter.org/fighting-hate/extremist-files/ideology/black-separatist"">Black Separatist</a>"
Maryland State Skinheads,racist-skinhead,Baltimore,Maryland,0,1,39.29,-76.61,,"<a href=""https://edit.splcenter.org/fighting-hate/extremist-files/ideology/racist-skinhead"">Racist Skinhead</a>"
Nation of Islam,black-separatist,Fort Worth,Texas,0,0,32.72,-97.31,"<a href=""https://edit.splcenter.org/fighting-hate/extremist-files/group/nation-islam"">Nation of Islam</a>","<a href=""https://edit.splcenter.org/fighting-hate/extremist-files/ideology/black-separatist"">Black Separatist</a>"
Council of Conservative Citizens,white-nationalist,Silver Spring,Maryland,0,0,39.00415,-77.039175,"<a href=""https://edit.splcenter.org/fighting-hate/extremist-files/group/council-conservative-citizens"">Council of Conservative Citizens</a>","<a href=""https://edit.splcenter.org/fighting-hate/extremist-files/ideology/white-nationalist"">White Nationalist</a>"
Fundamentalist Latter Day Saints,other,Hildale,Utah,0,1,37,-112.97,,"<a href=""https://edit.splcenter.org/fighting-hate/extremist-files/ideology/general-hate"">General Hate</a>"
Fundamentalist Latter Day Saints,other,Colorado City,Arizona,0,0,36.990262,-112.97577,"<a href=""https://edit.splcenter.org/fighting-hate/extremist-files/group/fundamentalist-church-jesus-christ-latter-day-saints"">Fundamentalist Church of Jesus Christ of Latter-Day Saints</a>","<a href=""https://edit.splcenter.org/fighting-hate/extremist-files/ideology/general-hate"">General Hate</a>"
Chalcedon Foundation,anti-lgbt,Vallecito,California,0,1,38.09,-120.47,,"<a href=""https://edit.splcenter.org/fighting-hate/extremist-files/ideology/anti-lgbt"">Anti-LGBT</a>"
American Vision,anti-lgbt,Powder Springs,Georgia,0,1,33.859549,-84.683824,,"<a href=""https://edit.splcenter.org/fighting-hate/extremist-files/ideology/anti-lgbt"">Anti-LGBT</a>"
Family Research Institute,anti-lgbt,Colorado Springs,Colorado,0,1,39.00922,-104.70047,,"<a href=""https://edit.splcenter.org/fighting-hate/extremist-files/ideology/anti-lgbt"">Anti-LGBT</a>"
ISD Records,racist-music,Denison,Texas,0,1,33.75,-96.53,,"<a href=""https://edit.splcenter.org/fighting-hate/extremist-files/ideology/hate-music"">Hate Music</a>"
Nation of Islam,black-separatist,Texarkana,Texas,0,0,33.43,-94.07,"<a href=""https://edit.splcenter.org/fighting-hate/extremist-files/group/nation-islam"">Nation of Islam</a>","<a href=""https://edit.splcenter.org/fighting-hate/extremist-files/ideology/black-separatist"">Black Separatist</a>"
Nation of Islam,black-separatist,Shreveport,Louisiana,0,0,32.45,-93.76,"<a href=""https://edit.splcenter.org/fighting-hate/extremist-files/group/nation-islam"">Nation of Islam</a>","<a href=""https://edit.splcenter.org/fighting-hate/extremist-files/ideology/black-separatist"">Black Separatist</a>"
American Border Patrol,anti-immigrant,Sierra Vista,Arizona,0,1,31.588871,-110.211737,,"<a href=""https://edit.splcenter.org/fighting-hate/extremist-files/ideology/anti-immigrant"">Anti-Immigrant</a>"
Center for Perpetual Diversity,white-nationalist,Arlington,Virginia,0,1,38.87,-77.1,,"<a href=""https://edit.splcenter.org/fighting-hate/extremist-files/ideology/white-nationalist"">White Nationalist</a>"
National Policy Institute,white-nationalist,Whitefish,Montana,0,1,48.40856,-114.308856,,"<a href=""https://edit.splcenter.org/fighting-hate/extremist-files/ideology/white-nationalist"">White Nationalist</a>"
League of the South,neo-confederate,West Plains,Missouri,0,0,36.728115,-91.852371,"<a href=""https://edit.splcenter.org/fighting-hate/extremist-files/group/league-south"">League of the South</a>","<a href=""https://edit.splcenter.org/fighting-hate/extremist-files/ideology/neo-confederate"">Neo-Confederate</a>"
National Socialist Movement,neo-nazi,,Maryland,1,0,39.04,-76.64,"<a href=""https://edit.splcenter.org/fighting-hate/extremist-files/group/national-socialist-movement"">National Socialist Movement</a>","<a href=""https://edit.splcenter.org/fighting-hate/extremist-files/ideology/neo-nazi"">Neo-Nazi</a>"
United Northern and Southern Knights of the Ku Klux Klan,kkk,East Ellijay,Georgia,0,1,34.68,-84.47,,"<a href=""https://edit.splcenter.org/fighting-hate/extremist-files/ideology/ku-klux-klan"">Ku Klux Klan</a>"
Nation of Islam,black-separatist,Greenville,South Carolina,0,0,34.85,-82.37,"<a href=""https://edit.splcenter.org/fighting-hate/extremist-files/group/nation-islam"">Nation of Islam</a>","<a href=""https://edit.splcenter.org/fighting-hate/extremist-files/ideology/black-separatist"">Black Separatist</a>"
League of the South,neo-confederate,Tupelo,Mississippi,0,0,34.25,-88.7,"<a href=""https://edit.splcenter.org/fighting-hate/extremist-files/group/league-south"">League of the South</a>","<a href=""https://edit.splcenter.org/fighting-hate/extremist-files/ideology/neo-confederate"">Neo-Confederate</a>"
Confederate White Knights of the Ku Klux Klan,kkk,Richmond,Virginia,0,0,37.54,-77.43,,"<a href=""https://edit.splcenter.org/fighting-hate/extremist-files/ideology/ku-klux-klan"">Ku Klux Klan</a>"
Traditional Values Coalition,anti-lgbt,Anaheim,California,0,0,33.827605,-117.907324,"<a href=""https://edit.splcenter.org/fighting-hate/extremist-files/group/traditional-values-coalition"">Traditional Values Coalition</a>","<a href=""https://edit.splcenter.org/fighting-hate/extremist-files/ideology/anti-lgbt"">Anti-LGBT</a>"
Traditional Values Coalition,anti-lgbt,Washington,District of Columbia,0,1,38.883137,-76.990227,"<a href=""https://edit.splcenter.org/fighting-hate/extremist-files/group/traditional-values-coalition"">Traditional Values Coalition</a>","<a href=""https://edit.splcenter.org/fighting-hate/extremist-files/ideology/anti-lgbt"">Anti-LGBT</a>"
Vinlanders Social Club,racist-skinhead,,Arizona,1,0,34.04,-111.09,"<a href=""https://edit.splcenter.org/fighting-hate/extremist-files/group/vinlanders-social-club"">Vinlanders Social Club</a>","<a href=""https://edit.splcenter.org/fighting-hate/extremist-files/ideology/racist-skinhead"">Racist Skinhead</a>"
National Socialist Movement,neo-nazi,,Alabama,1,0,32.31,-86.9,"<a href=""https://edit.splcenter.org/fighting-hate/extremist-files/group/national-socialist-movement"">National Socialist Movement</a>","<a href=""https://edit.splcenter.org/fighting-hate/extremist-files/ideology/neo-nazi"">Neo-Nazi</a>"
ProEnglish,anti-immigrant,Arlington,Virginia,0,1,38.89,-77.06,,"<a href=""https://edit.splcenter.org/fighting-hate/extremist-files/ideology/anti-immigrant"">Anti-Immigrant</a>"
Californians for Population Stabilization,anti-immigrant,Santa Barbara,California,0,1,34.42,-119.7,,"<a href=""https://edit.splcenter.org/fighting-hate/extremist-files/ideology/anti-immigrant"">Anti-Immigrant</a>"
Golden State Skinheads,racist-skinhead,Southern,California,0,0,36.77,-119.41,,"<a href=""https://edit.splcenter.org/fighting-hate/extremist-files/ideology/racist-skinhead"">Racist Skinhead</a>"
Israelite School of Universal Practical Knowledge,black-separatist,Baltimore,Maryland,0,1,39.29,-76.61,,"<a href=""https://edit.splcenter.org/fighting-hate/extremist-files/ideology/black-separatist"">Black Separatist</a>"
Robert Sungenis,rad-trad-catholicism,State Line,Pennsylvania,0,1,39.722976,-77.724641,,"<a href=""https://edit.splcenter.org/fighting-hate/extremist-files/ideology/radical-traditional-catholicism"">Radical Traditional Catholicism</a>"
Catholic Counterpoint,rad-trad-catholicism,Broomall,Pennsylvania,0,1,39.971667,-75.354722,,"<a href=""https://edit.splcenter.org/fighting-hate/extremist-files/ideology/radical-traditional-catholicism"">Radical Traditional Catholicism</a>"
"Catholic Family News/Catholic Family Ministries, Inc.",rad-trad-catholicism,Niagara Falls,New York,0,1,43.086335,-79.059163,,"<a href=""https://edit.splcenter.org/fighting-hate/extremist-files/ideology/radical-traditional-catholicism"">Radical Traditional Catholicism</a>"
Culture Wars/Fidelity Press,rad-trad-catholicism,South Bend,Indiana,0,1,41.689403,-86.252357,,"<a href=""https://edit.splcenter.org/fighting-hate/extremist-files/ideology/radical-traditional-catholicism"">Radical Traditional Catholicism</a>"
"Fatima Crusader, The/International Fatima Rosary Crusade",rad-trad-catholicism,Constable,New York,0,1,44.991376,-74.306598,,"<a href=""https://edit.splcenter.org/fighting-hate/extremist-files/ideology/radical-traditional-catholicism"">Radical Traditional Catholicism</a>"
IHS Press,rad-trad-catholicism,Norfolk,Virginia,0,1,36.896331,-76.305418,,"<a href=""https://edit.splcenter.org/fighting-hate/extremist-files/ideology/radical-traditional-catholicism"">Radical Traditional Catholicism</a>"
OMNI Christian Book Club,rad-trad-catholicism,Palmdale,California,0,1,34.35794,-118.065444,,"<a href=""https://edit.splcenter.org/fighting-hate/extremist-files/ideology/radical-traditional-catholicism"">Radical Traditional Catholicism</a>"
"Remnant, The/The Remnant Press",rad-trad-catholicism,Forest Lake,Minnesota,0,1,45.283142,-93.010751,,"<a href=""https://edit.splcenter.org/fighting-hate/extremist-files/ideology/radical-traditional-catholicism"">Radical Traditional Catholicism</a>"
Slaves of the Immaculate Heart of Mary,rad-trad-catholicism,Richmond,New Hampshire,0,1,42.748849,-72.22305,,"<a href=""https://edit.splcenter.org/fighting-hate/extremist-files/ideology/radical-traditional-catholicism"">Radical Traditional Catholicism</a>"
Tradition in Action,rad-trad-catholicism,Los Angeles,California,0,1,34.022447,-118.200027,,"<a href=""https://edit.splcenter.org/fighting-hate/extremist-files/ideology/radical-traditional-catholicism"">Radical Traditional Catholicism</a>"
Vinlanders Social Club,racist-skinhead,,Florida,1,0,27.66,-81.51,"<a href=""https://edit.splcenter.org/fighting-hate/extremist-files/group/vinlanders-social-club"">Vinlanders Social Club</a>","<a href=""https://edit.splcenter.org/fighting-hate/extremist-files/ideology/racist-skinhead"">Racist Skinhead</a>"
WTM Enterprises,white-nationalist,Roanoke,Indiana,0,1,40.962546,-85.373307,,"<a href=""https://edit.splcenter.org/fighting-hate/extremist-files/ideology/white-nationalist"">White Nationalist</a>"
California Skinheads,racist-skinhead,,California,1,1,36.77,-119.41,,"<a href=""https://edit.splcenter.org/fighting-hate/extremist-files/ideology/racist-skinhead"">Racist Skinhead</a>"
National Socialist Movement,neo-nazi,,Iowa,1,0,41.87,-93.09,"<a href=""https://edit.splcenter.org/fighting-hate/extremist-files/group/national-socialist-movement"">National Socialist Movement</a>","<a href=""https://edit.splcenter.org/fighting-hate/extremist-files/ideology/neo-nazi"">Neo-Nazi</a>"
National Prayer Network,other,Clackamas,Oregon,0,1,45.412015,-122.54578,,"<a href=""https://edit.splcenter.org/fighting-hate/extremist-files/ideology/general-hate"">General Hate</a>"
"Fitzgerald Griffin Foundation, The",white-nationalist,Vienna,Virginia,0,1,38.89,-77.25,,"<a href=""https://edit.splcenter.org/fighting-hate/extremist-files/ideology/white-nationalist"">White Nationalist</a>"
Nation of Islam,black-separatist,Pittsburgh,Pennsylvania,0,0,40.44,-79.87,"<a href=""https://edit.splcenter.org/fighting-hate/extremist-files/group/nation-islam"">Nation of Islam</a>","<a href=""https://edit.splcenter.org/fighting-hate/extremist-files/ideology/black-separatist"">Black Separatist</a>"
Nation of Islam,black-separatist,Winston-Salem,North Carolina,0,0,36.06,-80.27,"<a href=""https://edit.splcenter.org/fighting-hate/extremist-files/group/nation-islam"">Nation of Islam</a>","<a href=""https://edit.splcenter.org/fighting-hate/extremist-files/ideology/black-separatist"">Black Separatist</a>"
NS Publications,neo-nazi,Wyandotte,Michigan,0,1,42.214206,-83.149923,,"<a href=""https://edit.splcenter.org/fighting-hate/extremist-files/ideology/neo-nazi"">Neo-Nazi</a>"
Washington Summit Publishers,white-nationalist,Whitefish,Montana,0,1,48.410637,-114.335265,,"<a href=""https://edit.splcenter.org/fighting-hate/extremist-files/ideology/white-nationalist"">White Nationalist</a>"
Racial Nationalist Party of America,white-nationalist,Lockport,New York,0,1,43.172146,-78.683823,,"<a href=""https://edit.splcenter.org/fighting-hate/extremist-files/ideology/white-nationalist"">White Nationalist</a>"
Tony Alamo Christian Ministries,other,Fouke,Arkansas,0,1,33.261239,-93.885459,,"<a href=""https://edit.splcenter.org/fighting-hate/extremist-files/ideology/general-hate"">General Hate</a>"
Tony Alamo Christian Ministries,other,Fort Smith,Arkansas,0,0,35.37046,-94.413064,,"<a href=""https://edit.splcenter.org/fighting-hate/extremist-files/ideology/general-hate"">General Hate</a>"
Tony Alamo Christian Ministries,other,Canyon Country,California,0,0,34.438411,-118.457197,,"<a href=""https://edit.splcenter.org/fighting-hate/extremist-files/ideology/general-hate"">General Hate</a>"
In the Spirit of Chartres Committee,rad-trad-catholicism,Carrollton,Virginia,0,0,36.946815,-76.560507,,"<a href=""https://edit.splcenter.org/fighting-hate/extremist-files/ideology/radical-traditional-catholicism"">Radical Traditional Catholicism</a>"
Mass Resistance,anti-lgbt,Waltham,Massachusetts,0,1,42.397106,-71.259899,,"<a href=""https://edit.splcenter.org/fighting-hate/extremist-files/ideology/anti-lgbt"">Anti-LGBT</a>"
Chick Publications,other,Ontario,California,0,0,34.020485,-117.652468,,"<a href=""https://edit.splcenter.org/fighting-hate/extremist-files/ideology/general-hate"">General Hate</a>"
New Black Panther Party,black-separatist,Jacksonville,Florida,0,0,30.33,-81.65,"<a href=""https://edit.splcenter.org/fighting-hate/extremist-files/group/new-black-panther-party"">New Black Panther Party</a>","<a href=""https://edit.splcenter.org/fighting-hate/extremist-files/ideology/black-separatist"">Black Separatist</a>"
Abiding Truth Ministries,anti-lgbt,Springfield,Massachusetts,0,1,42.105667,-72.597745,,"<a href=""https://edit.splcenter.org/fighting-hate/extremist-files/ideology/anti-lgbt"">Anti-LGBT</a>"
"Political Cesspool, The",white-nationalist,Bartlett,Tennessee,0,1,35.15,-90.05,,"<a href=""https://edit.splcenter.org/fighting-hate/extremist-files/ideology/white-nationalist"">White Nationalist</a>"
Supreme White Alliance,racist-skinhead,,Missouri,1,0,37.96,-91.83,,"<a href=""https://edit.splcenter.org/fighting-hate/extremist-files/ideology/racist-skinhead"">Racist Skinhead</a>"
Nation of Islam,black-separatist,Saint Petersburg,Florida,0,0,27.75,-82.65,"<a href=""https://edit.splcenter.org/fighting-hate/extremist-files/group/nation-islam"">Nation of Islam</a>","<a href=""https://edit.splcenter.org/fighting-hate/extremist-files/ideology/black-separatist"">Black Separatist</a>"
Nation of Islam,black-separatist,Austin,Texas,0,0,30.3,-97.66,"<a href=""https://edit.splcenter.org/fighting-hate/extremist-files/group/nation-islam"">Nation of Islam</a>","<a href=""https://edit.splcenter.org/fighting-hate/extremist-files/ideology/black-separatist"">Black Separatist</a>"
"Israelite Church of God in Jesus Christ, The",black-separatist,Baltimore,Maryland,0,0,39.336349,-76.768277,,"<a href=""https://edit.splcenter.org/fighting-hate/extremist-files/ideology/black-separatist"">Black Separatist</a>"
"Israelite Church of God in Jesus Christ, The",black-separatist,New York,New York,0,1,40.794065,-73.927164,,"<a href=""https://edit.splcenter.org/fighting-hate/extremist-files/ideology/black-separatist"">Black Separatist</a>"
Israelite Church of God in Jesus Christ,black-separatist,Jersey City,New Jersey,0,0,40.700852,-74.088757,,"<a href=""https://edit.splcenter.org/fighting-hate/extremist-files/ideology/black-separatist"">Black Separatist</a>"
"Israelite Church of God in Jesus Christ, The",black-separatist,Allentown,Pennsylvania,0,0,40.607381,-75.478166,,"<a href=""https://edit.splcenter.org/fighting-hate/extremist-files/ideology/black-separatist"">Black Separatist</a>"
Israelite Church of God in Jesus Christ,black-separatist,Philadelphia,Pennsylvania,0,0,39.99,-75.11,,"<a href=""https://edit.splcenter.org/fighting-hate/extremist-files/ideology/black-separatist"">Black Separatist</a>"
"Israelite Church of God in Jesus Christ, The",black-separatist,Pittsburgh,Pennsylvania,0,0,40.44,-79.99,,"<a href=""https://edit.splcenter.org/fighting-hate/extremist-files/ideology/black-separatist"">Black Separatist</a>"
"Israelite Church of God in Jesus Christ, The",black-separatist,Fort Myers,Florida,0,0,26.64,-81.87,,"<a href=""https://edit.splcenter.org/fighting-hate/extremist-files/ideology/black-separatist"">Black Separatist</a>"
"Israelite Church of God in Jesus Christ, The",black-separatist,Miami,Florida,0,0,25.76,-80.19,,"<a href=""https://edit.splcenter.org/fighting-hate/extremist-files/ideology/black-separatist"">Black Separatist</a>"
"Israelite Church of God in Jesus Christ, The",black-separatist,Orlando,Florida,0,0,28.53,-81.37,,"<a href=""https://edit.splcenter.org/fighting-hate/extremist-files/ideology/black-separatist"">Black Separatist</a>"
"Israelite Church of God in Jesus Christ, The",black-separatist,West Palm Beach,Florida,0,0,26.71,-80.05,,"<a href=""https://edit.splcenter.org/fighting-hate/extremist-files/ideology/black-separatist"">Black Separatist</a>"
"Israelite Church of God in Jesus Christ, The",black-separatist,Minneapolis,Minnesota,0,0,44.97,-93.26,,"<a href=""https://edit.splcenter.org/fighting-hate/extremist-files/ideology/black-separatist"">Black Separatist</a>"
"Israelite Church of God in Jesus Christ, The",black-separatist,Omaha,Nebraska,0,0,41.25,-95.99,,"<a href=""https://edit.splcenter.org/fighting-hate/extremist-files/ideology/black-separatist"">Black Separatist</a>"
"Israelite Church of God in Jesus Christ, The",black-separatist,Oklahoma City,Oklahoma,0,0,35.46,-97.51,,"<a href=""https://edit.splcenter.org/fighting-hate/extremist-files/ideology/black-separatist"">Black Separatist</a>"
"Israelite Church of God in Jesus Christ, The",black-separatist,Portland,Oregon,0,0,45.57,-122.63,,"<a href=""https://edit.splcenter.org/fighting-hate/extremist-files/ideology/black-separatist"">Black Separatist</a>"
"Israelite Church of God in Jesus Christ, The",black-separatist,Washington,District of Columbia,0,0,38.9,-77.03,,"<a href=""https://edit.splcenter.org/fighting-hate/extremist-files/ideology/black-separatist"">Black Separatist</a>"
Nation of Islam,black-separatist,Rochester,New York,0,0,43.14,-77.62,"<a href=""https://edit.splcenter.org/fighting-hate/extremist-files/group/nation-islam"">Nation of Islam</a>","<a href=""https://edit.splcenter.org/fighting-hate/extremist-files/ideology/black-separatist"">Black Separatist</a>"
Nation of Islam,black-separatist,Montgomery,Alabama,0,0,32.33,-86.3,"<a href=""https://edit.splcenter.org/fighting-hate/extremist-files/group/nation-islam"">Nation of Islam</a>","<a href=""https://edit.splcenter.org/fighting-hate/extremist-files/ideology/black-separatist"">Black Separatist</a>"
Illinois Family Institute,anti-lgbt,Carol Stream,Illinois,0,1,41.92,-88.12,,"<a href=""https://edit.splcenter.org/fighting-hate/extremist-files/ideology/anti-lgbt"">Anti-LGBT</a>"
Heterosexuals Organized for a Moral Environment (H.O.M.E.),anti-lgbt,Downers Grove,Illinois,0,1,41.81329,-88.021633,,"<a href=""https://edit.splcenter.org/fighting-hate/extremist-files/ideology/anti-lgbt"">Anti-LGBT</a>"
Tony Alamo Christian Ministries,other,New York,New York,0,0,40.746584,-73.984531,,"<a href=""https://edit.splcenter.org/fighting-hate/extremist-files/ideology/general-hate"">General Hate</a>"
Concerned Citizens and Friends of Illegal Immigration Law Enforcement,other,Framingham,Massachusetts,0,0,42.324004,-71.453683,,"<a href=""https://edit.splcenter.org/fighting-hate/extremist-files/ideology/general-hate"">General Hate</a>"
White Boy Society,white-nationalist,,Illinois,1,1,40.63,-89.39,,"<a href=""https://edit.splcenter.org/fighting-hate/extremist-files/ideology/white-nationalist"">White Nationalist</a>"
White Boy Society,white-nationalist,,Missouri,1,0,37.96,-91.83,,"<a href=""https://edit.splcenter.org/fighting-hate/extremist-files/ideology/white-nationalist"">White Nationalist</a>"
Tightrope,racist-music,Calico Rock,Arkansas,0,1,36.119514,-92.135986,,"<a href=""https://edit.splcenter.org/fighting-hate/extremist-files/ideology/hate-music"">Hate Music</a>"
League of the South,neo-confederate,Anniston,Alabama,0,0,33.91,-85.54,"<a href=""https://edit.splcenter.org/fighting-hate/extremist-files/group/league-south"">League of the South</a>","<a href=""https://edit.splcenter.org/fighting-hate/extremist-files/ideology/neo-confederate"">Neo-Confederate</a>"
League of the South,neo-confederate,Lobelville,Tennessee,0,0,35.77201,-87.783912,"<a href=""https://edit.splcenter.org/fighting-hate/extremist-files/group/league-south"">League of the South</a>","<a href=""https://edit.splcenter.org/fighting-hate/extremist-files/ideology/neo-confederate"">Neo-Confederate</a>"
Traditionalist American Knights of the Ku Klux Klan,kkk,Park Hills,Missouri,0,1,37.85,-90.51,,"<a href=""https://edit.splcenter.org/fighting-hate/extremist-files/ideology/ku-klux-klan"">Ku Klux Klan</a>"
Nation of Islam,black-separatist,Grand Rapids,Michigan,0,0,42.92,-85.64,"<a href=""https://edit.splcenter.org/fighting-hate/extremist-files/group/nation-islam"">Nation of Islam</a>","<a href=""https://edit.splcenter.org/fighting-hate/extremist-files/ideology/black-separatist"">Black Separatist</a>"
Ozark Craft LC,other,Harrison,Arkansas,0,0,36.229793,-93.107676,,"<a href=""https://edit.splcenter.org/fighting-hate/extremist-files/ideology/general-hate"">General Hate</a>"
National Socialist Movement,neo-nazi,,Mississippi,1,0,32.35,-89.39,"<a href=""https://edit.splcenter.org/fighting-hate/extremist-files/group/national-socialist-movement"">National Socialist Movement</a>","<a href=""https://edit.splcenter.org/fighting-hate/extremist-files/ideology/neo-nazi"">Neo-Nazi</a>"
Nation of Islam,black-separatist,Rockford,Illinois,0,0,42.247361,-89.080022,"<a href=""https://edit.splcenter.org/fighting-hate/extremist-files/group/nation-islam"">Nation of Islam</a>","<a href=""https://edit.splcenter.org/fighting-hate/extremist-files/ideology/black-separatist"">Black Separatist</a>"
"Creativity Movement, The",neo-nazi,Bloomington,Illinois,0,1,40.48,-88.99,"<a href=""https://edit.splcenter.org/fighting-hate/extremist-files/group/creativity-movement"">The Creativity Movement</a>","<a href=""https://edit.splcenter.org/fighting-hate/extremist-files/ideology/neo-nazi"">Neo-Nazi</a>"
Northwest Front,white-nationalist,Bremerton,Washington,0,1,47.56,-122.63,,"<a href=""https://edit.splcenter.org/fighting-hate/extremist-files/ideology/white-nationalist"">White Nationalist</a>"
Nation of Islam,black-separatist,Dayton,Ohio,0,0,39.738371,-84.291075,"<a href=""https://edit.splcenter.org/fighting-hate/extremist-files/group/nation-islam"">Nation of Islam</a>","<a href=""https://edit.splcenter.org/fighting-hate/extremist-files/ideology/black-separatist"">Black Separatist</a>"
National Socialist Movement,neo-nazi,,Pennsylvania,1,0,41.2,-77.19,"<a href=""https://edit.splcenter.org/fighting-hate/extremist-files/group/national-socialist-movement"">National Socialist Movement</a>","<a href=""https://edit.splcenter.org/fighting-hate/extremist-files/ideology/neo-nazi"">Neo-Nazi</a>"
Crew 38,racist-skinhead,,Florida,1,0,27.66,-81.51,,"<a href=""https://edit.splcenter.org/fighting-hate/extremist-files/ideology/racist-skinhead"">Racist Skinhead</a>"
National Socialist Movement,neo-nazi,,Utah,1,0,39.32,-111.09,"<a href=""https://edit.splcenter.org/fighting-hate/extremist-files/group/national-socialist-movement"">National Socialist Movement</a>","<a href=""https://edit.splcenter.org/fighting-hate/extremist-files/ideology/neo-nazi"">Neo-Nazi</a>"
Nation of Islam,black-separatist,Benton Harbor,Michigan,0,0,42.11,-86.45,"<a href=""https://edit.splcenter.org/fighting-hate/extremist-files/group/nation-islam"">Nation of Islam</a>","<a href=""https://edit.splcenter.org/fighting-hate/extremist-files/ideology/black-separatist"">Black Separatist</a>"
Americans for Legal Immigration (ALIPAC),anti-immigrant,Raleigh,North Carolina,0,0,35.85,-78.69,,"<a href=""https://edit.splcenter.org/fighting-hate/extremist-files/ideology/anti-immigrant"">Anti-Immigrant</a>"
Patriotic Flags,white-nationalist,Charleston,South Carolina,0,1,32.996209,-80.184261,,"<a href=""https://edit.splcenter.org/fighting-hate/extremist-files/ideology/white-nationalist"">White Nationalist</a>"
Faithful Word Baptist Church,anti-lgbt,Tempe,Arizona,0,0,33.389757,-111.934363,,"<a href=""https://edit.splcenter.org/fighting-hate/extremist-files/ideology/anti-lgbt"">Anti-LGBT</a>"
Aryan Nations (Louisiana),neo-nazi,Converse,Louisiana,0,1,31.78,-93.69,"<a href=""https://edit.splcenter.org/fighting-hate/extremist-files/group/aryan-nations"">Aryan Nations</a>","<a href=""https://edit.splcenter.org/fighting-hate/extremist-files/ideology/neo-nazi"">Neo-Nazi</a>"
IHM Media,rad-trad-catholicism,Richmond,New Hampshire,0,0,42.736413,-72.232178,,"<a href=""https://edit.splcenter.org/fighting-hate/extremist-files/ideology/radical-traditional-catholicism"">Radical Traditional Catholicism</a>"
Free American,white-nationalist,Tucson,Arizona,0,1,32.24793,-110.920859,,"<a href=""https://edit.splcenter.org/fighting-hate/extremist-files/ideology/white-nationalist"">White Nationalist</a>"
Covenant People's Ministry,christian-identity,Brooks,Georgia,0,1,33.290951,-84.45937,,"<a href=""https://edit.splcenter.org/fighting-hate/extremist-files/ideology/christian-identity"">Christian Identity</a>"
New Black Panther Party,black-separatist,Louisville,Kentucky,0,0,38.24,-84.89,"<a href=""https://edit.splcenter.org/fighting-hate/extremist-files/group/new-black-panther-party"">New Black Panther Party</a>","<a href=""https://edit.splcenter.org/fighting-hate/extremist-files/ideology/black-separatist"">Black Separatist</a>"
Confederate Hammerskins,racist-skinhead,,North Carolina,1,0,35.75,-79.01,,"<a href=""https://edit.splcenter.org/fighting-hate/extremist-files/ideology/racist-skinhead"">Racist Skinhead</a>"
Vinlanders Social Club,racist-skinhead,,Minnesota,1,0,44.89,-93.1,"<a href=""https://edit.splcenter.org/fighting-hate/extremist-files/group/vinlanders-social-club"">Vinlanders Social Club</a>","<a href=""https://edit.splcenter.org/fighting-hate/extremist-files/ideology/racist-skinhead"">Racist Skinhead</a>"
American Freedom Party,white-nationalist,Los Angeles,California,0,1,34.05375,-118.255034,"<a href=""https://edit.splcenter.org/fighting-hate/extremist-files/group/american-freedom-party"">American Freedom Party</a>","<a href=""https://edit.splcenter.org/fighting-hate/extremist-files/ideology/white-nationalist"">White Nationalist</a>"
Cultural Studies Press,other,New York,New York,0,1,40.737341,-73.954804,,"<a href=""https://edit.splcenter.org/fighting-hate/extremist-files/ideology/general-hate"">General Hate</a>"
Nation of Islam,black-separatist,Louisville,Kentucky,0,0,38.23,-85.82,"<a href=""https://edit.splcenter.org/fighting-hate/extremist-files/group/nation-islam"">Nation of Islam</a>","<a href=""https://edit.splcenter.org/fighting-hate/extremist-files/ideology/black-separatist"">Black Separatist</a>"
Scott-Townsend Publishers,white-nationalist,Washington,District of Columbia,0,1,38.9,-77.03,,"<a href=""https://edit.splcenter.org/fighting-hate/extremist-files/ideology/white-nationalist"">White Nationalist</a>"
Dixie Republic,neo-confederate,Travelers Rest,South Carolina,0,0,34.967616,-82.443454,,"<a href=""https://edit.splcenter.org/fighting-hate/extremist-files/ideology/neo-confederate"">Neo-Confederate</a>"
Mary Noel Kershaw Foundation,neo-confederate,Lobelville,Tennessee,0,1,35.77,-87.78,,"<a href=""https://edit.splcenter.org/fighting-hate/extremist-files/ideology/neo-confederate"">Neo-Confederate</a>"
Northern Hammerskins,racist-skinhead,Chicago,Illinois,0,0,41.87,-87.62,,"<a href=""https://edit.splcenter.org/fighting-hate/extremist-files/ideology/racist-skinhead"">Racist Skinhead</a>"
a2z Publications,other,Las Vegas,Nevada,0,1,36.15,-115.21,,"<a href=""https://edit.splcenter.org/fighting-hate/extremist-files/ideology/general-hate"">General Hate</a>"
Holy Nation of Odin,other,Kingsburg,California,0,1,36.513839,-119.554017,,"<a href=""https://edit.splcenter.org/fighting-hate/extremist-files/ideology/general-hate"">General Hate</a>"
Firm 22,racist-skinhead,,Indiana,1,0,40.26,-86.13,,"<a href=""https://edit.splcenter.org/fighting-hate/extremist-files/ideology/racist-skinhead"">Racist Skinhead</a>"
Original Knight Riders Knights of the Ku Klux Klan,kkk,Beckley,West Virginia,0,1,37.77,-81.18,,"<a href=""https://edit.splcenter.org/fighting-hate/extremist-files/ideology/ku-klux-klan"">Ku Klux Klan</a>"
Nation of Islam,black-separatist,Akron,Ohio,0,0,41.08,-81.51,"<a href=""https://edit.splcenter.org/fighting-hate/extremist-files/group/nation-islam"">Nation of Islam</a>","<a href=""https://edit.splcenter.org/fighting-hate/extremist-files/ideology/black-separatist"">Black Separatist</a>"
Nation of Islam,black-separatist,Pine Bluff,Arkansas,0,0,34.21,-91.98,"<a href=""https://edit.splcenter.org/fighting-hate/extremist-files/group/nation-islam"">Nation of Islam</a>","<a href=""https://edit.splcenter.org/fighting-hate/extremist-files/ideology/black-separatist"">Black Separatist</a>"
Nation of Islam,black-separatist,Stockton,California,0,0,37.95,-121.28,"<a href=""https://edit.splcenter.org/fighting-hate/extremist-files/group/nation-islam"">Nation of Islam</a>","<a href=""https://edit.splcenter.org/fighting-hate/extremist-files/ideology/black-separatist"">Black Separatist</a>"
Nation of Islam,black-separatist,Pine Hills,Florida,0,0,28.57,-81.45,"<a href=""https://edit.splcenter.org/fighting-hate/extremist-files/group/nation-islam"">Nation of Islam</a>","<a href=""https://edit.splcenter.org/fighting-hate/extremist-files/ideology/black-separatist"">Black Separatist</a>"
Occidental Dissent,white-nationalist,Eufaula,Alabama,0,1,31.969345,-85.168674,,"<a href=""https://edit.splcenter.org/fighting-hate/extremist-files/ideology/white-nationalist"">White Nationalist</a>"
Nation of Islam,black-separatist,Willingboro,New Jersey,0,0,40.02,-74.88,"<a href=""https://edit.splcenter.org/fighting-hate/extremist-files/group/nation-islam"">Nation of Islam</a>","<a href=""https://edit.splcenter.org/fighting-hate/extremist-files/ideology/black-separatist"">Black Separatist</a>"
Invictus Books,other,Wentzville,Missouri,0,1,38.815492,-90.873918,,"<a href=""https://edit.splcenter.org/fighting-hate/extremist-files/ideology/general-hate"">General Hate</a>"
American Family Association,anti-lgbt,Tupelo,Mississippi,0,1,34.25653,-88.724929,,"<a href=""https://edit.splcenter.org/fighting-hate/extremist-files/ideology/anti-lgbt"">Anti-LGBT</a>"
Americans for Truth About Homosexuality,anti-lgbt,Naperville,Illinois,0,1,41.774855,-88.148077,,"<a href=""https://edit.splcenter.org/fighting-hate/extremist-files/ideology/anti-lgbt"">Anti-LGBT</a>"
Family Research Council,anti-lgbt,Washington,District of Columbia,0,1,38.912068,-77.019022,"<a href=""https://edit.splcenter.org/fighting-hate/extremist-files/group/family-research-council"">Family Research Council</a>","<a href=""https://edit.splcenter.org/fighting-hate/extremist-files/ideology/anti-lgbt"">Anti-LGBT</a>"
Poker Face,racist-music,Allentown,Pennsylvania,0,1,40.6,-75.47,,"<a href=""https://edit.splcenter.org/fighting-hate/extremist-files/ideology/hate-music"">Hate Music</a>"
Bill Keller Ministries,other,St. Petersburg,Florida,0,1,27.813325,-82.729217,,"<a href=""https://edit.splcenter.org/fighting-hate/extremist-files/ideology/general-hate"">General Hate</a>"
US Border Guard,anti-immigrant,Mesa,Arizona,0,1,33.41,-111.83,,"<a href=""https://edit.splcenter.org/fighting-hate/extremist-files/ideology/anti-immigrant"">Anti-Immigrant</a>"
National Socialist Movement,neo-nazi,,Oregon,1,0,43.8,-120.55,"<a href=""https://edit.splcenter.org/fighting-hate/extremist-files/group/national-socialist-movement"">National Socialist Movement</a>","<a href=""https://edit.splcenter.org/fighting-hate/extremist-files/ideology/neo-nazi"">Neo-Nazi</a>"
National Socialist Movement,neo-nazi,,Tennessee,1,0,35.51,-86.58,"<a href=""https://edit.splcenter.org/fighting-hate/extremist-files/group/national-socialist-movement"">National Socialist Movement</a>","<a href=""https://edit.splcenter.org/fighting-hate/extremist-files/ideology/neo-nazi"">Neo-Nazi</a>"
National Socialist Movement,neo-nazi,,Wyoming,1,0,43.07,-107.29,"<a href=""https://edit.splcenter.org/fighting-hate/extremist-files/group/national-socialist-movement"">National Socialist Movement</a>","<a href=""https://edit.splcenter.org/fighting-hate/extremist-files/ideology/neo-nazi"">Neo-Nazi</a>"
Jewish Task Force,other,Fresh Meadows,New York,0,1,40.742194,-73.788968,,"<a href=""https://edit.splcenter.org/fighting-hate/extremist-files/ideology/general-hate"">General Hate</a>"
Crew 38,racist-skinhead,,Virginia,1,0,37.43,-78.65,,"<a href=""https://edit.splcenter.org/fighting-hate/extremist-files/ideology/racist-skinhead"">Racist Skinhead</a>"
Crew 38,racist-skinhead,,North Carolina,1,0,35.75,-79.01,,"<a href=""https://edit.splcenter.org/fighting-hate/extremist-files/ideology/racist-skinhead"">Racist Skinhead</a>"
Nation of Islam,black-separatist,Brooklyn,New York,0,0,40.67,-73.94,"<a href=""https://edit.splcenter.org/fighting-hate/extremist-files/group/nation-islam"">Nation of Islam</a>","<a href=""https://edit.splcenter.org/fighting-hate/extremist-files/ideology/black-separatist"">Black Separatist</a>"
Non-Universal Teaching Ministries,christian-identity,Fostoria,Ohio,0,1,41.156998,-83.41687,,"<a href=""https://edit.splcenter.org/fighting-hate/extremist-files/ideology/christian-identity"">Christian Identity</a>"
Gallows Tree Wotansvolk Alliance,neo-nazi,Grand Rapids,Michigan,0,1,42.96,-85.66,,"<a href=""https://edit.splcenter.org/fighting-hate/extremist-files/ideology/neo-nazi"">Neo-Nazi</a>"
Most Holy Family Monastery,rad-trad-catholicism,Fillmore,New York,0,1,42.438091,-77.985067,,"<a href=""https://edit.splcenter.org/fighting-hate/extremist-files/ideology/radical-traditional-catholicism"">Radical Traditional Catholicism</a>"
Ku Klos Knights of the Ku Klux Klan,kkk,Church Hill,Tennessee,0,1,36.52,-82.71,,"<a href=""https://edit.splcenter.org/fighting-hate/extremist-files/ideology/ku-klux-klan"">Ku Klux Klan</a>"
League of the South,neo-confederate,Logansport,Louisiana,0,0,31.975445,-93.997967,"<a href=""https://edit.splcenter.org/fighting-hate/extremist-files/group/league-south"">League of the South</a>","<a href=""https://edit.splcenter.org/fighting-hate/extremist-files/ideology/neo-confederate"">Neo-Confederate</a>"
League of the South,neo-confederate,Clements,Maryland,0,0,38.326544,-76.727526,"<a href=""https://edit.splcenter.org/fighting-hate/extremist-files/group/league-south"">League of the South</a>","<a href=""https://edit.splcenter.org/fighting-hate/extremist-files/ideology/neo-confederate"">Neo-Confederate</a>"
New Black Panther Party,black-separatist,Miami,Florida,0,0,25.75,-80.13,"<a href=""https://edit.splcenter.org/fighting-hate/extremist-files/group/new-black-panther-party"">New Black Panther Party</a>","<a href=""https://edit.splcenter.org/fighting-hate/extremist-files/ideology/black-separatist"">Black Separatist</a>"
International Keystone Knights of the Ku Klux Klan,kkk,Cedartown,Georgia,0,0,34.01,-85.25,,"<a href=""https://edit.splcenter.org/fighting-hate/extremist-files/ideology/ku-klux-klan"">Ku Klux Klan</a>"
New Black Panther Party,black-separatist,Tampa,Florida,0,0,27.95,-82.45,"<a href=""https://edit.splcenter.org/fighting-hate/extremist-files/group/new-black-panther-party"">New Black Panther Party</a>","<a href=""https://edit.splcenter.org/fighting-hate/extremist-files/ideology/black-separatist"">Black Separatist</a>"
All Eyes On Egypt Bookstore,black-separatist,Macon,Georgia,0,0,32.84,-83.63,,"<a href=""https://edit.splcenter.org/fighting-hate/extremist-files/ideology/black-separatist"">Black Separatist</a>"
All Eyes On Egipt Bookstore,black-separatist,Chicago,Illinois,0,0,41.75,-87.58,,"<a href=""https://edit.splcenter.org/fighting-hate/extremist-files/ideology/black-separatist"">Black Separatist</a>"
Tom Brown Ministries,anti-lgbt,El Paso,Texas,0,1,31.781896,-106.459373,,"<a href=""https://edit.splcenter.org/fighting-hate/extremist-files/ideology/anti-lgbt"">Anti-LGBT</a>"
Public Advocate of the United States,anti-lgbt,Falls Church,Virginia,0,1,38.848531,-77.139887,,"<a href=""https://edit.splcenter.org/fighting-hate/extremist-files/ideology/anti-lgbt"">Anti-LGBT</a>"
Counter-Currents Publishing,white-nationalist,San Francisco,California,0,1,37.75,-122.47,,"<a href=""https://edit.splcenter.org/fighting-hate/extremist-files/ideology/white-nationalist"">White Nationalist</a>"
Nation of Islam,black-separatist,New Brunswick,New Jersey,0,0,40.48,-74.45,"<a href=""https://edit.splcenter.org/fighting-hate/extremist-files/group/nation-islam"">Nation of Islam</a>","<a href=""https://edit.splcenter.org/fighting-hate/extremist-files/ideology/black-separatist"">Black Separatist</a>"
Nation of Islam,black-separatist,Southaven,Mississippi,0,0,34.99,-90.01,"<a href=""https://edit.splcenter.org/fighting-hate/extremist-files/group/nation-islam"">Nation of Islam</a>","<a href=""https://edit.splcenter.org/fighting-hate/extremist-files/ideology/black-separatist"">Black Separatist</a>"
Faith Baptist Church (formerly Sons of Thundr),anti-lgbt,Greenville,Georgia,0,1,33.14,-84.75,,"<a href=""https://edit.splcenter.org/fighting-hate/extremist-files/ideology/anti-lgbt"">Anti-LGBT</a>"
Political Islam,anti-muslim,Nashville,Tennessee,0,1,36.159543,-86.790958,,"<a href=""https://edit.splcenter.org/fighting-hate/extremist-files/ideology/anti-muslim"">Anti-Muslim</a>"
Mission: America,anti-lgbt,Columbus,Ohio,0,1,39.955692,-82.934021,,"<a href=""https://edit.splcenter.org/fighting-hate/extremist-files/ideology/anti-lgbt"">Anti-LGBT</a>"
Sons of Liberty Media (formerly You Can Run But You Cannot Hide),other,Annandale,Minnesota,0,1,45.261111,-94.124166,,"<a href=""https://edit.splcenter.org/fighting-hate/extremist-files/ideology/general-hate"">General Hate</a>"
"United West, The",anti-muslim,Lake Worth,Florida,0,1,26.616755,-80.068447,,"<a href=""https://edit.splcenter.org/fighting-hate/extremist-files/ideology/anti-muslim"">Anti-Muslim</a>"
Official Street Preachers,other,Los Angeles,California,0,1,34.079616,-118.258509,,"<a href=""https://edit.splcenter.org/fighting-hate/extremist-files/ideology/general-hate"">General Hate</a>"
Aggressive Christianity,other,Fence Lake,New Mexico,0,1,34.653454,-108.677664,,"<a href=""https://edit.splcenter.org/fighting-hate/extremist-files/ideology/general-hate"">General Hate</a>"
Aggressive Christianity,other,Berino,New Mexico,0,0,32.03808,-106.45479,,"<a href=""https://edit.splcenter.org/fighting-hate/extremist-files/ideology/general-hate"">General Hate</a>"
American Freedom Party,white-nationalist,Grand Forks,North Dakota,0,0,47.892095,-97.062818,"<a href=""https://edit.splcenter.org/fighting-hate/extremist-files/group/american-freedom-party"">American Freedom Party</a>","<a href=""https://edit.splcenter.org/fighting-hate/extremist-files/ideology/white-nationalist"">White Nationalist</a>"
American Freedom Party,white-nationalist,,Indiana,0,0,40.26,-86.13,"<a href=""https://edit.splcenter.org/fighting-hate/extremist-files/group/american-freedom-party"">American Freedom Party</a>","<a href=""https://edit.splcenter.org/fighting-hate/extremist-files/ideology/white-nationalist"">White Nationalist</a>"
American Freedom Party,white-nationalist,New York,New York,0,0,40.79,-73.96,"<a href=""https://edit.splcenter.org/fighting-hate/extremist-files/group/american-freedom-party"">American Freedom Party</a>","<a href=""https://edit.splcenter.org/fighting-hate/extremist-files/ideology/white-nationalist"">White Nationalist</a>"
National Socialist Movement,neo-nazi,,Louisiana,1,0,30.98,-91.96,"<a href=""https://edit.splcenter.org/fighting-hate/extremist-files/group/national-socialist-movement"">National Socialist Movement</a>","<a href=""https://edit.splcenter.org/fighting-hate/extremist-files/ideology/neo-nazi"">Neo-Nazi</a>"
Christ or Chaos,rad-trad-catholicism,West Chester,Ohio,0,1,39.328237,-84.553667,,"<a href=""https://edit.splcenter.org/fighting-hate/extremist-files/ideology/radical-traditional-catholicism"">Radical Traditional Catholicism</a>"
Irving Books,holocaust-denial,Key West,Florida,0,1,24.556163,-81.804721,,"<a href=""https://edit.splcenter.org/fighting-hate/extremist-files/ideology/holocaust-denial"">Holocaust Denial</a>"
Ku Klos Knights of the Ku Klux Klan,kkk,Kokomo,Indiana,0,0,40.48,-86.13,,"<a href=""https://edit.splcenter.org/fighting-hate/extremist-files/ideology/ku-klux-klan"">Ku Klux Klan</a>"
National Socialist Movement,neo-nazi,,Texas,1,0,31.96,-99.9,"<a href=""https://edit.splcenter.org/fighting-hate/extremist-files/group/national-socialist-movement"">National Socialist Movement</a>","<a href=""https://edit.splcenter.org/fighting-hate/extremist-files/ideology/neo-nazi"">Neo-Nazi</a>"
Masjid al Islam,other,Oakland,California,0,0,37.793681,-122.146219,,"<a href=""https://edit.splcenter.org/fighting-hate/extremist-files/ideology/general-hate"">General Hate</a>"
As-Sabiqun,other,Washington,District of Columbia,0,1,38.9,-77.03,,"<a href=""https://edit.splcenter.org/fighting-hate/extremist-files/ideology/general-hate"">General Hate</a>"
Pace Confederate Depot,neo-confederate,Baldwyn,Mississippi,0,1,34.509544,-88.635331,,"<a href=""https://edit.splcenter.org/fighting-hate/extremist-files/ideology/neo-confederate"">Neo-Confederate</a>"
As-Sabiqun,other,Oakland,California,0,0,37.794409,-122.245536,,"<a href=""https://edit.splcenter.org/fighting-hate/extremist-files/ideology/general-hate"">General Hate</a>"
As-Sabiqun,other,Philadelphia,Pennsylvania,0,0,39.959811,-75.16074,,"<a href=""https://edit.splcenter.org/fighting-hate/extremist-files/ideology/general-hate"">General Hate</a>"
As-Sabiqun,other,Los Angeles,California,0,0,34.065562,-118.309664,,"<a href=""https://edit.splcenter.org/fighting-hate/extremist-files/ideology/general-hate"">General Hate</a>"
As-Sabiqun,other,San Diego,California,0,0,32.734895,-117.097059,,"<a href=""https://edit.splcenter.org/fighting-hate/extremist-files/ideology/general-hate"">General Hate</a>"
As-Sabiqun,other,Sacramento,California,0,0,38.479999,-121.44,,"<a href=""https://edit.splcenter.org/fighting-hate/extremist-files/ideology/general-hate"">General Hate</a>"
Jamaat al-Muslimeen,other,Baltimore,Maryland,0,1,39.305668,-76.635495,,"<a href=""https://edit.splcenter.org/fighting-hate/extremist-files/ideology/general-hate"">General Hate</a>"
Alternative Right,white-nationalist,Atlanta,Georgia,0,1,33.74,-84.38,,"<a href=""https://edit.splcenter.org/fighting-hate/extremist-files/ideology/white-nationalist"">White Nationalist</a>"
Reformation-Bible Puritan-Baptist Church/Vatican Assassins,other,Newmanstown,Pennsylvania,0,1,40.349536,-76.213282,,"<a href=""https://edit.splcenter.org/fighting-hate/extremist-files/ideology/general-hate"">General Hate</a>"
Confederate Hammerskins,racist-skinhead,Nashville,Tennessee,0,0,36.16,-86.78,,"<a href=""https://edit.splcenter.org/fighting-hate/extremist-files/ideology/racist-skinhead"">Racist Skinhead</a>"
Supreme White Alliance,racist-skinhead,,Florida,1,0,27.66,-81.51,,"<a href=""https://edit.splcenter.org/fighting-hate/extremist-files/ideology/racist-skinhead"">Racist Skinhead</a>"
American Nazi Party,neo-nazi,,California,1,0,36.77,-119.41,,"<a href=""https://edit.splcenter.org/fighting-hate/extremist-files/ideology/neo-nazi"">Neo-Nazi</a>"
Third Reich Books,neo-nazi,Fairbury,Nebraska,0,1,40.14,-97.17,,"<a href=""https://edit.splcenter.org/fighting-hate/extremist-files/ideology/neo-nazi"">Neo-Nazi</a>"
South Africa Project,white-nationalist,Converse,Louisiana,0,1,31.78,-93.69,,"<a href=""https://edit.splcenter.org/fighting-hate/extremist-files/ideology/white-nationalist"">White Nationalist</a>"
H.L. Mencken Club,white-nationalist,Elizabethtown,Pennsylvania,0,1,40.152871,-76.602745,,"<a href=""https://edit.splcenter.org/fighting-hate/extremist-files/ideology/white-nationalist"">White Nationalist</a>"
Pioneer Little Europe Kalispell Montana,white-nationalist,Kalispell,Montana,0,1,48.197778,-114.316111,,"<a href=""https://edit.splcenter.org/fighting-hate/extremist-files/ideology/white-nationalist"">White Nationalist</a>"
Midland hammerskins,racist-skinhead,,South Dakota,1,0,43.96,-99.9,,"<a href=""https://edit.splcenter.org/fighting-hate/extremist-files/ideology/racist-skinhead"">Racist Skinhead</a>"
Northwest Hammerskins,racist-skinhead,,Idaho,1,0,44.06,-114.74,,"<a href=""https://edit.splcenter.org/fighting-hate/extremist-files/ideology/racist-skinhead"">Racist Skinhead</a>"
Faith Freedom,anti-muslim,Bellevue,Washington,0,1,47.615043,-122.171757,,"<a href=""https://edit.splcenter.org/fighting-hate/extremist-files/ideology/anti-muslim"">Anti-Muslim</a>"
Radio Jihad/Global Patriot Radio,anti-muslim,,New York,1,1,43.29,-74.21,,"<a href=""https://edit.splcenter.org/fighting-hate/extremist-files/ideology/anti-muslim"">Anti-Muslim</a>"
Religious Awareness Network,anti-muslim,Washington,District of Columbia,0,1,38.9,-77.03,,"<a href=""https://edit.splcenter.org/fighting-hate/extremist-files/ideology/anti-muslim"">Anti-Muslim</a>"
Jihad Watch,anti-muslim,Sherman Oaks,California,0,1,34.2,-118.47,,"<a href=""https://edit.splcenter.org/fighting-hate/extremist-files/ideology/anti-muslim"">Anti-Muslim</a>"
Save California,anti-lgbt,Sacramento,California,0,1,38.58,-121.49,,"<a href=""https://edit.splcenter.org/fighting-hate/extremist-files/ideology/anti-lgbt"">Anti-LGBT</a>"
Sultan Knish a blog by Daniel Greenfield,anti-muslim,New York,New York,0,1,40.721786,-74.009447,,"<a href=""https://edit.splcenter.org/fighting-hate/extremist-files/ideology/anti-muslim"">Anti-Muslim</a>"
Windsor Hills Baptist Church,anti-lgbt,Oklahoma City,Oklahoma,0,1,35.481198,-97.660236,,"<a href=""https://edit.splcenter.org/fighting-hate/extremist-files/ideology/anti-lgbt"">Anti-LGBT</a>"
True Light Pentecost Church,anti-lgbt,Spartanburg,South Carolina,0,1,34.949567,-81.932048,,"<a href=""https://edit.splcenter.org/fighting-hate/extremist-files/ideology/anti-lgbt"">Anti-LGBT</a>"
Citizen Warrior,anti-muslim,Nashville,Tennessee,0,1,36.17,-86.78,,"<a href=""https://edit.splcenter.org/fighting-hate/extremist-files/ideology/anti-muslim"">Anti-Muslim</a>"
Christian Action Network,anti-muslim,Forest,Virginia,0,1,37.36,-79.28,,"<a href=""https://edit.splcenter.org/fighting-hate/extremist-files/ideology/anti-muslim"">Anti-Muslim</a>"
Bare Naked Islam,anti-muslim,Marina del Rey,California,0,1,33.980289,-118.451744,,"<a href=""https://edit.splcenter.org/fighting-hate/extremist-files/ideology/anti-muslim"">Anti-Muslim</a>"
American Clarion,other,Rapid City,South Dakota,0,1,44.060017,-103.139148,,"<a href=""https://edit.splcenter.org/fighting-hate/extremist-files/ideology/general-hate"">General Hate</a>"
Silver Bullet Gun Oil,anti-muslim,Courtland,Virginia,0,1,36.716261,-77.068019,,"<a href=""https://edit.splcenter.org/fighting-hate/extremist-files/ideology/anti-muslim"">Anti-Muslim</a>"
United Families International,anti-lgbt,Gilbert,Arizona,0,1,33.345996,-111.755609,,"<a href=""https://edit.splcenter.org/fighting-hate/extremist-files/ideology/anti-lgbt"">Anti-LGBT</a>"
Insight USA,other,Longwood,Florida,0,1,28.690591,-81.408321,,"<a href=""https://edit.splcenter.org/fighting-hate/extremist-files/ideology/general-hate"">General Hate</a>"
Lordship Church,other,Coeur d'Alene,Idaho,0,1,47.67,-116.78,,"<a href=""https://edit.splcenter.org/fighting-hate/extremist-files/ideology/general-hate"">General Hate</a>"
Christian Anti-Defamation Commission,other,Vista,California,0,1,33.221773,-117.226056,,"<a href=""https://edit.splcenter.org/fighting-hate/extremist-files/ideology/general-hate"">General Hate</a>"
Loyal White Knights of the Ku Klux Klan,kkk,Pelham,North Carolina,0,1,36.51,-79.47,,"<a href=""https://edit.splcenter.org/fighting-hate/extremist-files/ideology/ku-klux-klan"">Ku Klux Klan</a>"
American Freedom Party,white-nationalist,Lakewood Ranch,Florida,0,0,27.446686,-82.377733,"<a href=""https://edit.splcenter.org/fighting-hate/extremist-files/group/american-freedom-party"">American Freedom Party</a>","<a href=""https://edit.splcenter.org/fighting-hate/extremist-files/ideology/white-nationalist"">White Nationalist</a>"
Nation of Islam,black-separatist,East Saint Louis,Illinois,0,0,38.62,-90.15,"<a href=""https://edit.splcenter.org/fighting-hate/extremist-files/group/nation-islam"">Nation of Islam</a>","<a href=""https://edit.splcenter.org/fighting-hate/extremist-files/ideology/black-separatist"">Black Separatist</a>"
Nation of Islam,black-separatist,Harrisburg,Pennsylvania,0,0,40.276554,-76.869213,"<a href=""https://edit.splcenter.org/fighting-hate/extremist-files/group/nation-islam"">Nation of Islam</a>","<a href=""https://edit.splcenter.org/fighting-hate/extremist-files/ideology/black-separatist"">Black Separatist</a>"
Loyal White Knights of the Ku Klux Klan,kkk,Cullman,Alabama,0,0,34.17,-86.84,,"<a href=""https://edit.splcenter.org/fighting-hate/extremist-files/ideology/ku-klux-klan"">Ku Klux Klan</a>"
Loyal White Knights of the Ku Klux Klan,kkk,Clay City,Illinois,0,0,38.68,-88.35,,"<a href=""https://edit.splcenter.org/fighting-hate/extremist-files/ideology/ku-klux-klan"">Ku Klux Klan</a>"
Loyal White Knights of the Ku Klux Klan,kkk,,South Carolina,1,0,33.83,-81.16,,"<a href=""https://edit.splcenter.org/fighting-hate/extremist-files/ideology/ku-klux-klan"">Ku Klux Klan</a>"
Loyal White Knights of the Ku Klux Klan,kkk,Baton Rouge,Louisiana,0,0,30.45,-91.14,,"<a href=""https://edit.splcenter.org/fighting-hate/extremist-files/ideology/ku-klux-klan"">Ku Klux Klan</a>"
European-American Evangelistic Crusades,other,Sheridan,California,0,1,38.97,-121.37,,"<a href=""https://edit.splcenter.org/fighting-hate/extremist-files/ideology/general-hate"">General Hate</a>"
National Socialist Movement,neo-nazi,,Kentucky,1,0,37.83,-84.27,"<a href=""https://edit.splcenter.org/fighting-hate/extremist-files/group/national-socialist-movement"">National Socialist Movement</a>","<a href=""https://edit.splcenter.org/fighting-hate/extremist-files/ideology/neo-nazi"">Neo-Nazi</a>"
Citizens for National Security,anti-muslim,Boca Raton,Florida,0,1,26.360597,-80.174669,,"<a href=""https://edit.splcenter.org/fighting-hate/extremist-files/ideology/anti-muslim"">Anti-Muslim</a>"
Nation of Islam,black-separatist,Augusta,Georgia,0,0,33.46,-82,"<a href=""https://edit.splcenter.org/fighting-hate/extremist-files/group/nation-islam"">Nation of Islam</a>","<a href=""https://edit.splcenter.org/fighting-hate/extremist-files/ideology/black-separatist"">Black Separatist</a>"
Crew 38,racist-skinhead,Chicago,Illinois,0,0,41.85,-87.65,,"<a href=""https://edit.splcenter.org/fighting-hate/extremist-files/ideology/racist-skinhead"">Racist Skinhead</a>"
Crew 38,racist-skinhead,,New Hampshire,1,0,43.19,-71.57,,"<a href=""https://edit.splcenter.org/fighting-hate/extremist-files/ideology/racist-skinhead"">Racist Skinhead</a>"
Crew 38,racist-skinhead,Wichita,Kansas,0,0,37.68,-97.33,,"<a href=""https://edit.splcenter.org/fighting-hate/extremist-files/ideology/racist-skinhead"">Racist Skinhead</a>"
Golden Dawn,neo-nazi,Astoria,New York,0,0,40.763372,-73.910997,,"<a href=""https://edit.splcenter.org/fighting-hate/extremist-files/ideology/neo-nazi"">Neo-Nazi</a>"
Samanta Roy Institute of Science and Technology,other,Shawano,Wisconsin,0,1,44.78,-88.6,,"<a href=""https://edit.splcenter.org/fighting-hate/extremist-files/ideology/general-hate"">General Hate</a>"
War On The Horizon,black-separatist,Washington,District of Columbia,0,1,38.837233,-77.016143,,"<a href=""https://edit.splcenter.org/fighting-hate/extremist-files/ideology/black-separatist"">Black Separatist</a>"
European American Action Coalition,white-nationalist,Pittston,Pennsylvania,0,1,41.325913,-75.78936,,"<a href=""https://edit.splcenter.org/fighting-hate/extremist-files/ideology/white-nationalist"">White Nationalist</a>"
New Yorkers for Immigration Control and Enforcement (NYICE),anti-immigrant,New York,New York,0,1,40.741366,-73.998448,,"<a href=""https://edit.splcenter.org/fighting-hate/extremist-files/ideology/anti-immigrant"">Anti-Immigrant</a>"
American Family Association,anti-lgbt,Franklin,Pennsylvania,0,0,41.397835,-79.831443,"<a href=""https://edit.splcenter.org/fighting-hate/extremist-files/group/american-family-association"">American Family Association</a>","<a href=""https://edit.splcenter.org/fighting-hate/extremist-files/ideology/anti-lgbt"">Anti-LGBT</a>"
Faith and Heritage,white-nationalist,Killeen,Texas,0,1,31.11,-97.72,,"<a href=""https://edit.splcenter.org/fighting-hate/extremist-files/ideology/white-nationalist"">White Nationalist</a>"
Islamthreat.com,anti-muslim,WalnutCreek,California,0,0,37.6,-122.11,,"<a href=""https://edit.splcenter.org/fighting-hate/extremist-files/ideology/anti-muslim"">Anti-Muslim</a>"
Pilgrims Covenant Church,anti-lgbt,Monroe,Wisconsin,0,1,42.601119,-89.638453,,"<a href=""https://edit.splcenter.org/fighting-hate/extremist-files/ideology/anti-lgbt"">Anti-LGBT</a>"
Family Watch International,anti-lgbt,Gilbert,Arizona,0,1,33.345996,-111.755609,,"<a href=""https://edit.splcenter.org/fighting-hate/extremist-files/ideology/anti-lgbt"">Anti-LGBT</a>"
TC Family (Traverse City Family),anti-lgbt,Traverse City,Michigan,0,1,44.763056,-85.620631,,"<a href=""https://edit.splcenter.org/fighting-hate/extremist-files/ideology/anti-lgbt"">Anti-LGBT</a>"
Providence Road Baptist Church,anti-lgbt,Maiden,North Carolina,0,1,35.575688,-81.211747,,"<a href=""https://edit.splcenter.org/fighting-hate/extremist-files/ideology/anti-lgbt"">Anti-LGBT</a>"
"Pray in Jesus Name Project, The",anti-lgbt,Colorado Springs,Colorado,0,1,38.83,-104.819999,,"<a href=""https://edit.splcenter.org/fighting-hate/extremist-files/ideology/anti-lgbt"">Anti-LGBT</a>"
Gallows Tree Wotansvolk Alliance,neo-nazi,,Rhode Island,1,0,41.58,-71.47,,"<a href=""https://edit.splcenter.org/fighting-hate/extremist-files/ideology/neo-nazi"">Neo-Nazi</a>"
Gallows Tree Wotansvolk Alliance,neo-nazi,,Indiana,1,0,40.26,-86.13,,"<a href=""https://edit.splcenter.org/fighting-hate/extremist-files/ideology/neo-nazi"">Neo-Nazi</a>"
United Klans of America,kkk,Ashland,Alabama,0,1,33.27,-85.83,,"<a href=""https://edit.splcenter.org/fighting-hate/extremist-files/ideology/ku-klux-klan"">Ku Klux Klan</a>"
American College of Pediatricians,anti-lgbt,Gainesville,Florida,0,1,29.71,-82.4,,"<a href=""https://edit.splcenter.org/fighting-hate/extremist-files/ideology/anti-lgbt"">Anti-LGBT</a>"
D. James Kennedy Ministries (formerly Truth in Action),anti-lgbt,Fort Lauderdale,Florida,0,1,26.119336,-80.12908,,"<a href=""https://edit.splcenter.org/fighting-hate/extremist-files/ideology/anti-lgbt"">Anti-LGBT</a>"
American Freedom Defense Initiative,anti-muslim,New York,New York,0,1,40.776905,-73.980064,,"<a href=""https://edit.splcenter.org/fighting-hate/extremist-files/ideology/anti-muslim"">Anti-Muslim</a>"
Our Place Fellowship,christian-identity,Colville,Washington,0,1,48.544997,-117.900954,,"<a href=""https://edit.splcenter.org/fighting-hate/extremist-files/ideology/christian-identity"">Christian Identity</a>"
Label 56,racist-music,Nottingham,Maryland,0,1,39.38775,-76.488118,,"<a href=""https://edit.splcenter.org/fighting-hate/extremist-files/ideology/hate-music"">Hate Music</a>"
Confederate White Knights of the Ku Klux Klan,kkk,Rosedale,Maryland,0,1,39.32,-76.51,,"<a href=""https://edit.splcenter.org/fighting-hate/extremist-files/ideology/ku-klux-klan"">Ku Klux Klan</a>"
Ku Klos Knights of the Ku Klux Klan,kkk,Lexington,Tennessee,0,0,35.65,-88.39,,"<a href=""https://edit.splcenter.org/fighting-hate/extremist-files/ideology/ku-klux-klan"">Ku Klux Klan</a>"
Ku Klos Knights of the Ku Klux Klan,kkk,Memphis,Tennessee,0,0,35.14,-90.04,,"<a href=""https://edit.splcenter.org/fighting-hate/extremist-files/ideology/ku-klux-klan"">Ku Klux Klan</a>"
Ku Klos Knights of the Ku Klux Klan,kkk,Gatesville,Texas,0,0,31.43,-97.74,,"<a href=""https://edit.splcenter.org/fighting-hate/extremist-files/ideology/ku-klux-klan"">Ku Klux Klan</a>"
Ku Klos Knights of the Ku Klux Klan,kkk,Oil City,Pennsylvania,0,0,41.43,-79.7,,"<a href=""https://edit.splcenter.org/fighting-hate/extremist-files/ideology/ku-klux-klan"">Ku Klux Klan</a>"
Nation of Islam,black-separatist,Lexington,Kentucky,0,0,38.046818,-84.494687,"<a href=""https://edit.splcenter.org/fighting-hate/extremist-files/group/nation-islam"">Nation of Islam</a>","<a href=""https://edit.splcenter.org/fighting-hate/extremist-files/ideology/black-separatist"">Black Separatist</a>"
American Freedom Party,white-nationalist,Granbury,Texas,0,0,32.432289,-97.782932,"<a href=""https://edit.splcenter.org/fighting-hate/extremist-files/group/american-freedom-party"">American Freedom Party</a>","<a href=""https://edit.splcenter.org/fighting-hate/extremist-files/ideology/white-nationalist"">White Nationalist</a>"
Ku Klos Knights of the Ku Klux Klan,kkk,Cape Coral,Florida,0,0,26.56,-81.94,,"<a href=""https://edit.splcenter.org/fighting-hate/extremist-files/ideology/ku-klux-klan"">Ku Klux Klan</a>"
Traditionalist Youth Network,white-nationalist,Paoli,Indiana,0,1,38.54,-86.45,,"<a href=""https://edit.splcenter.org/fighting-hate/extremist-files/ideology/white-nationalist"">White Nationalist</a>"
East Coast Knights Of The True Invisible Empire,kkk,Venus,Texas,0,1,32.43,-97.1,,"<a href=""https://edit.splcenter.org/fighting-hate/extremist-files/ideology/ku-klux-klan"">Ku Klux Klan</a>"
"Brother Nathanael Foundation, The",other,Frisco,Colorado,0,1,39.57443,-106.09752,,"<a href=""https://edit.splcenter.org/fighting-hate/extremist-files/ideology/general-hate"">General Hate</a>"
Committee for Open Debate on the Holocaust,holocaust-denial,San Diego,California,0,1,32.55,-117.04,,"<a href=""https://edit.splcenter.org/fighting-hate/extremist-files/ideology/holocaust-denial"">Holocaust Denial</a>"
Counter Jihadist Coalition of Southern California,anti-muslim,Santa Monica,California,0,1,34.01,-118.49,,"<a href=""https://edit.splcenter.org/fighting-hate/extremist-files/ideology/anti-muslim"">Anti-Muslim</a>"
White Rabbit Radio,white-nationalist,Dearborn Heights,Michigan,0,1,42.277306,-83.263981,,"<a href=""https://edit.splcenter.org/fighting-hate/extremist-files/ideology/white-nationalist"">White Nationalist</a>"
Bob's Underground Graduate Seminar/BUGS,white-nationalist,Columbia,South Carolina,0,1,34.029122,-81.003682,,"<a href=""https://edit.splcenter.org/fighting-hate/extremist-files/ideology/white-nationalist"">White Nationalist</a>"
Sharkhunters International,other,Hernando,Florida,0,1,28.899981,-82.37454,,"<a href=""https://edit.splcenter.org/fighting-hate/extremist-files/ideology/general-hate"">General Hate</a>"
Southern National Congress,neo-confederate,Wetumpka,Alabama,0,0,32.543744,-86.211912,,"<a href=""https://edit.splcenter.org/fighting-hate/extremist-files/ideology/neo-confederate"">Neo-Confederate</a>"
Southern National Congress,neo-confederate,Jacksonville,Florida,0,0,30.306572,-81.72947,,"<a href=""https://edit.splcenter.org/fighting-hate/extremist-files/ideology/neo-confederate"">Neo-Confederate</a>"
Southern National Congress,neo-confederate,Morganton,Georgia,0,0,34.876667,-84.245556,,"<a href=""https://edit.splcenter.org/fighting-hate/extremist-files/ideology/neo-confederate"">Neo-Confederate</a>"
Southern National Congress,neo-confederate,Fruit Hill,Kentucky,0,0,37,-87.36,,"<a href=""https://edit.splcenter.org/fighting-hate/extremist-files/ideology/neo-confederate"">Neo-Confederate</a>"
Southern National Congress,neo-confederate,West Plains,Missouri,0,0,36.72,-91.85,,"<a href=""https://edit.splcenter.org/fighting-hate/extremist-files/ideology/neo-confederate"">Neo-Confederate</a>"
Southern National Congress,neo-confederate,Travelers Rest,South Carolina,0,0,34.967616,-82.443454,,"<a href=""https://edit.splcenter.org/fighting-hate/extremist-files/ideology/neo-confederate"">Neo-Confederate</a>"
Southern National Congress,neo-confederate,,Maryland,0,0,39.2,-76.83,,"<a href=""https://edit.splcenter.org/fighting-hate/extremist-files/ideology/neo-confederate"">Neo-Confederate</a>"
Southern National Congress,neo-confederate,,Mississippi,0,0,32.8,-89.47,,"<a href=""https://edit.splcenter.org/fighting-hate/extremist-files/ideology/neo-confederate"">Neo-Confederate</a>"
Southern National Congress,neo-confederate,,North Carolina,0,0,35.4,-79.13,,"<a href=""https://edit.splcenter.org/fighting-hate/extremist-files/ideology/neo-confederate"">Neo-Confederate</a>"
Southern National Congress,neo-confederate,,Tennessee,1,0,35.89,-86.96,,"<a href=""https://edit.splcenter.org/fighting-hate/extremist-files/ideology/neo-confederate"">Neo-Confederate</a>"
Southern National Congress,neo-confederate,,Texas,0,0,30.54,-97.62,,"<a href=""https://edit.splcenter.org/fighting-hate/extremist-files/ideology/neo-confederate"">Neo-Confederate</a>"
Southern National Congress,neo-confederate,Alexandria,Virginia,0,1,38.799972,-77.050689,,"<a href=""https://edit.splcenter.org/fighting-hate/extremist-files/ideology/neo-confederate"">Neo-Confederate</a>"
National Socialist Movement,neo-nazi,Tucson,Arizona,0,0,32.22,-110.92,"<a href=""https://edit.splcenter.org/fighting-hate/extremist-files/group/national-socialist-movement"">National Socialist Movement</a>","<a href=""https://edit.splcenter.org/fighting-hate/extremist-files/ideology/neo-nazi"">Neo-Nazi</a>"
Generations With Vision,anti-lgbt,Elizabeth,Colorado,0,1,39.360266,-104.596915,,"<a href=""https://edit.splcenter.org/fighting-hate/extremist-files/ideology/anti-lgbt"">Anti-LGBT</a>"
Black Riders Liberation Party,black-separatist,Oakland,California,0,0,37.77,-122.21,,"<a href=""https://edit.splcenter.org/fighting-hate/extremist-files/ideology/black-separatist"">Black Separatist</a>"
Black Riders Liberation Party,black-separatist,Los Angeles,California,0,1,34.008323,-118.349116,,"<a href=""https://edit.splcenter.org/fighting-hate/extremist-files/ideology/black-separatist"">Black Separatist</a>"
Center for Family and Human Rights (C-FAM),anti-lgbt,New York,New York,0,0,40.751984,-73.969779,,"<a href=""https://edit.splcenter.org/fighting-hate/extremist-files/ideology/anti-lgbt"">Anti-LGBT</a>"
Center for Family and Human Rights (C-FAM),anti-lgbt,Washington,District of Columbia,0,0,38.908078,-77.040614,,"<a href=""https://edit.splcenter.org/fighting-hate/extremist-files/ideology/anti-lgbt"">Anti-LGBT</a>"
Aryan Nations Sadistic Souls MC,neo-nazi,,Wisconsin,1,0,43.78,-88.78,,"<a href=""https://edit.splcenter.org/fighting-hate/extremist-files/ideology/neo-nazi"">Neo-Nazi</a>"
Vinlanders Social Club,racist-skinhead,,Texas,1,0,31.96,-99.9,"<a href=""https://edit.splcenter.org/fighting-hate/extremist-files/group/vinlanders-social-club"">Vinlanders Social Club</a>","<a href=""https://edit.splcenter.org/fighting-hate/extremist-files/ideology/racist-skinhead"">Racist Skinhead</a>"
"World Congress of Families/Howard Center for Family, Religion, and Society",anti-lgbt,Rockford,Illinois,0,1,42.341,-89.084794,,"<a href=""https://edit.splcenter.org/fighting-hate/extremist-files/ideology/anti-lgbt"">Anti-LGBT</a>"
Ruth Institute,anti-lgbt,San Marcos,California,0,1,33.115866,-117.185294,,"<a href=""https://edit.splcenter.org/fighting-hate/extremist-files/ideology/anti-lgbt"">Anti-LGBT</a>"
Pacific Justice Institute,anti-lgbt,Sacramento,California,0,1,38.554403,-121.325568,,"<a href=""https://edit.splcenter.org/fighting-hate/extremist-files/ideology/anti-lgbt"">Anti-LGBT</a>"
carolynyeager.net,holocaust-denial,Kerrville,Texas,0,1,30.045417,-99.151591,,"<a href=""https://edit.splcenter.org/fighting-hate/extremist-files/ideology/holocaust-denial"">Holocaust Denial</a>"
Liberty Counsel,anti-lgbt,Orlando,Florida,0,1,28.566655,-81.389314,"<a href=""https://edit.splcenter.org/fighting-hate/extremist-files/group/liberty-counsel"">Liberty Counsel</a>","<a href=""https://edit.splcenter.org/fighting-hate/extremist-files/ideology/anti-lgbt"">Anti-LGBT</a>"
American Nazi Party,neo-nazi,,West Virginia,1,0,38.31,-81.48,,"<a href=""https://edit.splcenter.org/fighting-hate/extremist-files/ideology/neo-nazi"">Neo-Nazi</a>"
Aryan Strikeforce,racist-skinhead,Phillipsburg,New Jersey,0,1,40.69,-75.19,,"<a href=""https://edit.splcenter.org/fighting-hate/extremist-files/ideology/racist-skinhead"">Racist Skinhead</a>"
Aryan Strikeforce,racist-skinhead,,Kentucky,1,0,37.83,-84.27,,"<a href=""https://edit.splcenter.org/fighting-hate/extremist-files/ideology/racist-skinhead"">Racist Skinhead</a>"
Aryan Strikeforce,racist-skinhead,,Ohio,1,0,40.41,-82.9,,"<a href=""https://edit.splcenter.org/fighting-hate/extremist-files/ideology/racist-skinhead"">Racist Skinhead</a>"
Aryan Strikeforce,racist-skinhead,,New York,1,0,43.29,-74.21,,"<a href=""https://edit.splcenter.org/fighting-hate/extremist-files/ideology/racist-skinhead"">Racist Skinhead</a>"
Aryan Strikeforce,racist-skinhead,,Pennsylvania,1,0,41.2,-77.19,,"<a href=""https://edit.splcenter.org/fighting-hate/extremist-files/ideology/racist-skinhead"">Racist Skinhead</a>"
National Alliance Reform and Restoration Group,neo-nazi,Carson City,Nevada,0,1,39.175925,-119.766876,"<a href=""https://edit.splcenter.org/fighting-hate/extremist-files/group/national-alliance"">National Alliance</a>","<a href=""https://edit.splcenter.org/fighting-hate/extremist-files/ideology/neo-nazi"">Neo-Nazi</a>"
Council of Conservative Citizens,white-nationalist,Eufaula,Alabama,0,0,31.96,-85.16,"<a href=""https://edit.splcenter.org/fighting-hate/extremist-files/group/council-conservative-citizens"">Council of Conservative Citizens</a>","<a href=""https://edit.splcenter.org/fighting-hate/extremist-files/ideology/white-nationalist"">White Nationalist</a>"
American Freedom Party,white-nationalist,,Montana,1,0,46.87,-110.36,"<a href=""https://edit.splcenter.org/fighting-hate/extremist-files/group/american-freedom-party"">American Freedom Party</a>","<a href=""https://edit.splcenter.org/fighting-hate/extremist-files/ideology/white-nationalist"">White Nationalist</a>"
Ku Klos Knights of the Ku Klux Klan,kkk,Butler,Tennessee,0,0,36.35,-82.03,,"<a href=""https://edit.splcenter.org/fighting-hate/extremist-files/ideology/ku-klux-klan"">Ku Klux Klan</a>"
The Daily Stormer,neo-nazi,Worthington,Ohio,0,1,40.1,-83.01,,"<a href=""https://edit.splcenter.org/fighting-hate/extremist-files/ideology/neo-nazi"">Neo-Nazi</a>"
Ku Klos Knights of the Ku Klux Klan,kkk,Knoxville,Tennessee,0,0,35.96,-83.92,,"<a href=""https://edit.splcenter.org/fighting-hate/extremist-files/ideology/ku-klux-klan"">Ku Klux Klan</a>"
League of the South,neo-confederate,Macon,Georgia,0,0,32.840694,-83.632402,"<a href=""https://edit.splcenter.org/fighting-hate/extremist-files/group/league-south"">League of the South</a>","<a href=""https://edit.splcenter.org/fighting-hate/extremist-files/ideology/neo-confederate"">Neo-Confederate</a>"
League of the South,neo-confederate,Winchester,Virginia,0,0,37.43,-78.65,"<a href=""https://edit.splcenter.org/fighting-hate/extremist-files/group/league-south"">League of the South</a>","<a href=""https://edit.splcenter.org/fighting-hate/extremist-files/ideology/neo-confederate"">Neo-Confederate</a>"
Southern National Congress,neo-confederate,,Arkansas,0,0,35.2,-91.83,,"<a href=""https://edit.splcenter.org/fighting-hate/extremist-files/ideology/neo-confederate"">Neo-Confederate</a>"
Southern National Congress,neo-confederate,,Louisiana,0,0,30.98,-91.96,,"<a href=""https://edit.splcenter.org/fighting-hate/extremist-files/ideology/neo-confederate"">Neo-Confederate</a>"
ATLAH World Missionary Church (All The Land Anointed Holy),anti-lgbt,New York,New York,0,1,40.813891,-73.962432,,"<a href=""https://edit.splcenter.org/fighting-hate/extremist-files/ideology/anti-lgbt"">Anti-LGBT</a>"
Probe Ministries,anti-lgbt,Plano,Texas,0,1,33.020871,-96.738694,,"<a href=""https://edit.splcenter.org/fighting-hate/extremist-files/ideology/anti-lgbt"">Anti-LGBT</a>"
Pass the Salt Ministries,anti-lgbt,Hebron,Ohio,0,1,39.96,-82.49,,"<a href=""https://edit.splcenter.org/fighting-hate/extremist-files/ideology/anti-lgbt"">Anti-LGBT</a>"
United Dixie White Knights of the Ku Klux Klan,kkk,Leakesville,Mississippi,0,1,31.15,-88.55,,"<a href=""https://edit.splcenter.org/fighting-hate/extremist-files/ideology/ku-klux-klan"">Ku Klux Klan</a>"
Black Riders Liberation Party,black-separatist,New York,New York,0,0,40.71,-74,,"<a href=""https://edit.splcenter.org/fighting-hate/extremist-files/ideology/black-separatist"">Black Separatist</a>"
Stedfast Baptist Church,anti-lgbt,Fort Worth,Texas,0,1,32.775951,-97.400287,,"<a href=""https://edit.splcenter.org/fighting-hate/extremist-files/ideology/anti-lgbt"">Anti-LGBT</a>"
Aryan Strikeforce,racist-skinhead,,Massachusetts,1,0,42.4,-71.38,,"<a href=""https://edit.splcenter.org/fighting-hate/extremist-files/ideology/racist-skinhead"">Racist Skinhead</a>"
Aryan Strikeforce,racist-skinhead,,Colorado,1,0,39.55,-105.78,,"<a href=""https://edit.splcenter.org/fighting-hate/extremist-files/ideology/racist-skinhead"">Racist Skinhead</a>"
Aryan Strikeforce,racist-skinhead,,Missouri,1,0,37.96,-91.83,,"<a href=""https://edit.splcenter.org/fighting-hate/extremist-files/ideology/racist-skinhead"">Racist Skinhead</a>"
Aryan Strikeforce,racist-skinhead,,Virginia,1,0,37.43,-78.65,,"<a href=""https://edit.splcenter.org/fighting-hate/extremist-files/ideology/racist-skinhead"">Racist Skinhead</a>"
National Socialist Movement,neo-nazi,,Connecticut,1,0,41.6,-73.08,"<a href=""https://edit.splcenter.org/fighting-hate/extremist-files/group/national-socialist-movement"">National Socialist Movement</a>","<a href=""https://edit.splcenter.org/fighting-hate/extremist-files/ideology/neo-nazi"">Neo-Nazi</a>"
National Socialist Movement,neo-nazi,,Delaware,1,0,39.15,-75.52,"<a href=""https://edit.splcenter.org/fighting-hate/extremist-files/group/national-socialist-movement"">National Socialist Movement</a>","<a href=""https://edit.splcenter.org/fighting-hate/extremist-files/ideology/neo-nazi"">Neo-Nazi</a>"
National Socialist Movement,neo-nazi,,Florida,1,0,28.53,-81.37,"<a href=""https://edit.splcenter.org/fighting-hate/extremist-files/group/national-socialist-movement"">National Socialist Movement</a>","<a href=""https://edit.splcenter.org/fighting-hate/extremist-files/ideology/neo-nazi"">Neo-Nazi</a>"
National Socialist Movement,neo-nazi,,New York,1,0,43.29,-74.21,"<a href=""https://edit.splcenter.org/fighting-hate/extremist-files/group/national-socialist-movement"">National Socialist Movement</a>","<a href=""https://edit.splcenter.org/fighting-hate/extremist-files/ideology/neo-nazi"">Neo-Nazi</a>"
Eastern Hammerskins,racist-skinhead,,New Hampshire,1,0,43.19,-71.57,,"<a href=""https://edit.splcenter.org/fighting-hate/extremist-files/ideology/racist-skinhead"">Racist Skinhead</a>"
Radix Journal,white-nationalist,Whitefish,Montana,0,1,48.41,-114.33,,"<a href=""https://edit.splcenter.org/fighting-hate/extremist-files/ideology/white-nationalist"">White Nationalist</a>"
Stahlhelm Records,racist-music,Milwaukee,Wisconsin,0,0,43.03,-87.9,,"<a href=""https://edit.splcenter.org/fighting-hate/extremist-files/ideology/hate-music"">Hate Music</a>"
National Alliance,neo-nazi,Laurel Bloomery,Tennessee,0,0,36.56,-81.75,"<a href=""https://edit.splcenter.org/fighting-hate/extremist-files/group/national-alliance"">National Alliance</a>","<a href=""https://edit.splcenter.org/fighting-hate/extremist-files/ideology/neo-nazi"">Neo-Nazi</a>"
White Boy Society,white-nationalist,,Wisconsin,1,0,43.78,-88.78,,"<a href=""https://edit.splcenter.org/fighting-hate/extremist-files/ideology/white-nationalist"">White Nationalist</a>"
American Vikings,racist-skinhead,Indianapolis,Indiana,0,0,39.75,-86.11,,"<a href=""https://edit.splcenter.org/fighting-hate/extremist-files/ideology/racist-skinhead"">Racist Skinhead</a>"
NSM88 Records,racist-music,Detroit,Michigan,0,0,42.33,-83.04,,"<a href=""https://edit.splcenter.org/fighting-hate/extremist-files/ideology/hate-music"">Hate Music</a>"
European American Front,white-nationalist,Baldwyn,Mississippi,0,1,34.5,-88.63,,"<a href=""https://edit.splcenter.org/fighting-hate/extremist-files/ideology/white-nationalist"">White Nationalist</a>"
All Eyes On Egipt Bookstore Brooklyn NY,black-separatist,Brooklyn,New York,0,1,40.69,-73.93,,"<a href=""https://edit.splcenter.org/fighting-hate/extremist-files/ideology/black-separatist"">Black Separatist</a>"
Divine International Church of the Web,christian-identity,Morton,Illinois,0,1,40.61,-89.45,,"<a href=""https://edit.splcenter.org/fighting-hate/extremist-files/ideology/christian-identity"">Christian Identity</a>"
Christian Revival Center,christian-identity,Harrison,Arkansas,0,1,36.22,-93.1,,"<a href=""https://edit.splcenter.org/fighting-hate/extremist-files/ideology/christian-identity"">Christian Identity</a>"
Bosch Fawstin,anti-muslim,New York,New York,0,0,40.71,-74,,"<a href=""https://edit.splcenter.org/fighting-hate/extremist-files/ideology/anti-muslim"">Anti-Muslim</a>"
Ku Klos Knights of the Ku Klux Klan,kkk,Muncie,Indiana,0,0,40.19,-85.38,,"<a href=""https://edit.splcenter.org/fighting-hate/extremist-files/ideology/ku-klux-klan"">Ku Klux Klan</a>"
Ku Klos Knights of the Ku Klux Klan,kkk,Harrodsburg,Kentucky,0,0,37.76,-84.84,,"<a href=""https://edit.splcenter.org/fighting-hate/extremist-files/ideology/ku-klux-klan"">Ku Klux Klan</a>"
Ku Klos Knights of the Ku Klux Klan,kkk,Springfield,Missouri,0,0,37.2,-93.29,,"<a href=""https://edit.splcenter.org/fighting-hate/extremist-files/ideology/ku-klux-klan"">Ku Klux Klan</a>"
Ku Klos Knights of the Ku Klux Klan,kkk,Hendersonville,Tennessee,0,0,36.3,-86.61,,"<a href=""https://edit.splcenter.org/fighting-hate/extremist-files/ideology/ku-klux-klan"">Ku Klux Klan</a>"
Militant Knights of the Ku Klux Klan,kkk,Dixonville,Pennsylvania,0,1,40.71,-79,,"<a href=""https://edit.splcenter.org/fighting-hate/extremist-files/ideology/ku-klux-klan"">Ku Klux Klan</a>"
Fundamentalist Latter Day Saints,other,,South Dakota,1,0,43.05,-103.74,"<a href=""https://edit.splcenter.org/fighting-hate/extremist-files/group/fundamentalist-church-jesus-christ-latter-day-saints"">Fundamentalist Church of Jesus Christ of Latter-Day Saints</a>","<a href=""https://edit.splcenter.org/fighting-hate/extremist-files/ideology/general-hate"">General Hate</a>"
Loyal White Knights of the Ku Klux Klan,kkk,Hampton Bays,New York,0,0,40.86,-72.51,,"<a href=""https://edit.splcenter.org/fighting-hate/extremist-files/ideology/ku-klux-klan"">Ku Klux Klan</a>"
Texas Rebel Knights of the Ku Klux Klan,kkk,Quinlan,Texas,0,1,32.91,-96.13,,"<a href=""https://edit.splcenter.org/fighting-hate/extremist-files/ideology/ku-klux-klan"">Ku Klux Klan</a>"
Nation of Islam,black-separatist,Brunswick,Georgia,0,0,31.14,-81.49,"<a href=""https://edit.splcenter.org/fighting-hate/extremist-files/group/nation-islam"">Nation of Islam</a>","<a href=""https://edit.splcenter.org/fighting-hate/extremist-files/ideology/black-separatist"">Black Separatist</a>"
New Black Panther Party,black-separatist,Hattiesburg,Mississippi,0,0,31.32,-89.29,"<a href=""https://edit.splcenter.org/fighting-hate/extremist-files/group/new-black-panther-party"">New Black Panther Party</a>","<a href=""https://edit.splcenter.org/fighting-hate/extremist-files/ideology/black-separatist"">Black Separatist</a>"
New Black Panther Party,black-separatist,Waycross,Georgia,0,0,31.21,-82.35,"<a href=""https://edit.splcenter.org/fighting-hate/extremist-files/group/new-black-panther-party"">New Black Panther Party</a>","<a href=""https://edit.splcenter.org/fighting-hate/extremist-files/ideology/black-separatist"">Black Separatist</a>"
Ku Klos Knights of the Ku Klux Klan,kkk,Hazel Green,Alabama,0,0,34.93,-86.57,,"<a href=""https://edit.splcenter.org/fighting-hate/extremist-files/ideology/ku-klux-klan"">Ku Klux Klan</a>"
Ku Klos Knights of the Ku Klux Klan,kkk,Hudson,Florida,0,0,28.36,-82.69,,"<a href=""https://edit.splcenter.org/fighting-hate/extremist-files/ideology/ku-klux-klan"">Ku Klux Klan</a>"
Ku Klos Knights of the Ku Klux Klan,kkk,Erwin,Tennessee,0,0,36.14,-82.41,,"<a href=""https://edit.splcenter.org/fighting-hate/extremist-files/ideology/ku-klux-klan"">Ku Klux Klan</a>"
New Black Panther Party,black-separatist,Augusta,Georgia,0,0,33.47,-82.01,"<a href=""https://edit.splcenter.org/fighting-hate/extremist-files/group/new-black-panther-party"">New Black Panther Party</a>","<a href=""https://edit.splcenter.org/fighting-hate/extremist-files/ideology/black-separatist"">Black Separatist</a>"
New Black Panther Party,black-separatist,Nashville,Tennessee,0,0,36.16,-86.78,"<a href=""https://edit.splcenter.org/fighting-hate/extremist-files/group/new-black-panther-party"">New Black Panther Party</a>","<a href=""https://edit.splcenter.org/fighting-hate/extremist-files/ideology/black-separatist"">Black Separatist</a>"
New Black Panther Party,black-separatist,Dayton,Ohio,0,0,39.75,-84.19,"<a href=""https://edit.splcenter.org/fighting-hate/extremist-files/group/new-black-panther-party"">New Black Panther Party</a>","<a href=""https://edit.splcenter.org/fighting-hate/extremist-files/ideology/black-separatist"">Black Separatist</a>"
New Black Panther Party,black-separatist,Tallahassee,Florida,0,0,30.43,-84.28,"<a href=""https://edit.splcenter.org/fighting-hate/extremist-files/group/new-black-panther-party"">New Black Panther Party</a>","<a href=""https://edit.splcenter.org/fighting-hate/extremist-files/ideology/black-separatist"">Black Separatist</a>"
International Keystone Knights of the Ku Klux Klan,kkk,,Mississippi,1,0,32.35,-89.39,,"<a href=""https://edit.splcenter.org/fighting-hate/extremist-files/ideology/ku-klux-klan"">Ku Klux Klan</a>"
Ku Klos Knights of the Ku Klux Klan,kkk,Vance,Alabama,0,0,33.17,-87.23,,"<a href=""https://edit.splcenter.org/fighting-hate/extremist-files/ideology/ku-klux-klan"">Ku Klux Klan</a>"
Ku Klos Knights of the Ku Klux Klan,kkk,Bally,Pennsylvania,0,0,40.4,-75.58,,"<a href=""https://edit.splcenter.org/fighting-hate/extremist-files/ideology/ku-klux-klan"">Ku Klux Klan</a>"
East Coast Knights of the True Invisible Empire,kkk,,North Carolina,1,0,35.75,-79.01,,"<a href=""https://edit.splcenter.org/fighting-hate/extremist-files/ideology/ku-klux-klan"">Ku Klux Klan</a>"
Nation of Islam,black-separatist,Gainesville,Florida,0,0,29.65,-82.32,"<a href=""https://edit.splcenter.org/fighting-hate/extremist-files/group/nation-islam"">Nation of Islam</a>","<a href=""https://edit.splcenter.org/fighting-hate/extremist-files/ideology/black-separatist"">Black Separatist</a>"
Black Riders Liberation Party,black-separatist,San Diego,California,0,0,32.71,-117.16,,"<a href=""https://edit.splcenter.org/fighting-hate/extremist-files/ideology/black-separatist"">Black Separatist</a>"
Black Riders Liberation Party,black-separatist,Detroit,Michigan,0,0,42.33,-83.04,,"<a href=""https://edit.splcenter.org/fighting-hate/extremist-files/ideology/black-separatist"">Black Separatist</a>"
Black Riders Liberation Party,black-separatist,,Virginia,1,0,37.43,-78.65,,"<a href=""https://edit.splcenter.org/fighting-hate/extremist-files/ideology/black-separatist"">Black Separatist</a>"
Black Riders Liberation Party,black-separatist,Chicago,Illinois,0,0,41.87,-87.62,,"<a href=""https://edit.splcenter.org/fighting-hate/extremist-files/ideology/black-separatist"">Black Separatist</a>"
Black Riders Liberation Party,black-separatist,Miami,Florida,0,0,25.76,-80.19,,"<a href=""https://edit.splcenter.org/fighting-hate/extremist-files/ideology/black-separatist"">Black Separatist</a>"
New Black Panther Party,black-separatist,Springfield,Illinois,0,0,39.78,-89.65,"<a href=""https://edit.splcenter.org/fighting-hate/extremist-files/group/new-black-panther-party"">New Black Panther Party</a>","<a href=""https://edit.splcenter.org/fighting-hate/extremist-files/ideology/black-separatist"">Black Separatist</a>"
New Black Panther Party,black-separatist,Virginia Beach,Virginia,0,0,36.85,-75.97,"<a href=""https://edit.splcenter.org/fighting-hate/extremist-files/group/new-black-panther-party"">New Black Panther Party</a>","<a href=""https://edit.splcenter.org/fighting-hate/extremist-files/ideology/black-separatist"">Black Separatist</a>"
Militant Knights of the Ku Klux Klan,kkk,,Maine,1,0,45.25,-69.44,,"<a href=""https://edit.splcenter.org/fighting-hate/extremist-files/ideology/ku-klux-klan"">Ku Klux Klan</a>"
Militant Knights of the Ku Klux Klan,kkk,,Ohio,1,0,40.41,-82.9,,"<a href=""https://edit.splcenter.org/fighting-hate/extremist-files/ideology/ku-klux-klan"">Ku Klux Klan</a>"
Militant Knights of the Ku Klux Klan,kkk,Minneapolis,Minnesota,0,0,44.97,-93.26,,"<a href=""https://edit.splcenter.org/fighting-hate/extremist-files/ideology/ku-klux-klan"">Ku Klux Klan</a>"
Militant Knights of the Ku Klux Klan,kkk,Gladeville,Tennessee,0,0,36.11,-86.41,,"<a href=""https://edit.splcenter.org/fighting-hate/extremist-files/ideology/ku-klux-klan"">Ku Klux Klan</a>"
Ku Klos Knights of the Ku Klux Klan,kkk,Hixson,Tennessee,0,0,35.13,-85.23,,"<a href=""https://edit.splcenter.org/fighting-hate/extremist-files/ideology/ku-klux-klan"">Ku Klux Klan</a>"
All Eyes on Egipt Bookstore,black-separatist,Monticello,Georgia,0,0,33.3,-83.68,,"<a href=""https://edit.splcenter.org/fighting-hate/extremist-files/ideology/black-separatist"">Black Separatist</a>"
All Eyes on Egipt Bookstore,black-separatist,Detroit,Michigan,0,0,42.43,-82.98,,"<a href=""https://edit.splcenter.org/fighting-hate/extremist-files/ideology/black-separatist"">Black Separatist</a>"
All Eyes on Egipt Bookstore,black-separatist,Dorchester,Massachusetts,0,0,42.36,-71.05,,"<a href=""https://edit.splcenter.org/fighting-hate/extremist-files/ideology/black-separatist"">Black Separatist</a>"
All Eyes on Egipt Bookstore,black-separatist,Orlando,Florida,0,0,28.57,-81.45,,"<a href=""https://edit.splcenter.org/fighting-hate/extremist-files/ideology/black-separatist"">Black Separatist</a>"
All Eyes on Egipt Bookstore,black-separatist,Cleveland,Ohio,0,0,41.52,-81.58,,"<a href=""https://edit.splcenter.org/fighting-hate/extremist-files/ideology/black-separatist"">Black Separatist</a>"
All Eyes on Egipt Bookstore,black-separatist,Decatur,Georgia,0,0,33.77,-84.29,,"<a href=""https://edit.splcenter.org/fighting-hate/extremist-files/ideology/black-separatist"">Black Separatist</a>"
Israelite School of Universal Practical Knowledge,black-separatist,New York,New York,0,0,40.71,-74,,"<a href=""https://edit.splcenter.org/fighting-hate/extremist-files/ideology/black-separatist"">Black Separatist</a>"
Israelite School of Universal Practical Knowledge,black-separatist,Philadelphia,Pennsylvania,0,0,39.95,-75.16,,"<a href=""https://edit.splcenter.org/fighting-hate/extremist-files/ideology/black-separatist"">Black Separatist</a>"
Israelite School of Universal Practical Knowledge,black-separatist,Washington,District of Columbia,0,0,38.9,-77.03,,"<a href=""https://edit.splcenter.org/fighting-hate/extremist-files/ideology/black-separatist"">Black Separatist</a>"
Israelite School of Universal Practical Knowledge,black-separatist,Chicago,Illinois,0,0,41.87,-87.62,,"<a href=""https://edit.splcenter.org/fighting-hate/extremist-files/ideology/black-separatist"">Black Separatist</a>"
Israelite School of Universal Practical Knowledge,black-separatist,Indianapolis,Indiana,0,0,39.76,-86.15,,"<a href=""https://edit.splcenter.org/fighting-hate/extremist-files/ideology/black-separatist"">Black Separatist</a>"
Israelite School of Universal Practical Knowledge,black-separatist,Atlanta,Georgia,0,0,33.74,-84.38,,"<a href=""https://edit.splcenter.org/fighting-hate/extremist-files/ideology/black-separatist"">Black Separatist</a>"
Israelite School of Universal Practical Knowledge,black-separatist,Syracuse,New York,0,0,43.04,-76.14,,"<a href=""https://edit.splcenter.org/fighting-hate/extremist-files/ideology/black-separatist"">Black Separatist</a>"
Israelite School of Universal Practical Knowledge,black-separatist,Los Angeles,California,0,0,32.71,-117.16,,"<a href=""https://edit.splcenter.org/fighting-hate/extremist-files/ideology/black-separatist"">Black Separatist</a>"
Israelite School of Universal Practical Knowledge,black-separatist,Portland,Oregon,0,0,45.52,-122.67,,"<a href=""https://edit.splcenter.org/fighting-hate/extremist-files/ideology/black-separatist"">Black Separatist</a>"
Golden State Skinheads,racist-skinhead,Northern,California,0,0,38.83,-120.89,,"<a href=""https://edit.splcenter.org/fighting-hate/extremist-files/ideology/racist-skinhead"">Racist Skinhead</a>"
Aryan Strikeforce,racist-skinhead,,Arkansas,1,0,35.2,-91.83,,"<a href=""https://edit.splcenter.org/fighting-hate/extremist-files/ideology/racist-skinhead"">Racist Skinhead</a>"
Militant Knights of the Ku Klux Klan,kkk,,Alabama,1,0,32.31,-86.9,,"<a href=""https://edit.splcenter.org/fighting-hate/extremist-files/ideology/ku-klux-klan"">Ku Klux Klan</a>"
Militant Knights of the Ku Klux Klan,kkk,,Mississippi,1,0,32.35,-89.39,,"<a href=""https://edit.splcenter.org/fighting-hate/extremist-files/ideology/ku-klux-klan"">Ku Klux Klan</a>"
Militant Knights of the Ku Klux Klan,kkk,,New Jersey,1,0,40.05,-74.4,,"<a href=""https://edit.splcenter.org/fighting-hate/extremist-files/ideology/ku-klux-klan"">Ku Klux Klan</a>"
Israel United In Christ,black-separatist,Birmingham,Alabama,0,0,33.41,-86.68,,"<a href=""https://edit.splcenter.org/fighting-hate/extremist-files/ideology/black-separatist"">Black Separatist</a>"
Israel United In Christ,black-separatist,Phoenix,Arizona,0,0,33.49,-112.12,,"<a href=""https://edit.splcenter.org/fighting-hate/extremist-files/ideology/black-separatist"">Black Separatist</a>"
Israel United In Christ,black-separatist,Los Angeles,California,0,0,34.05,-118.24,,"<a href=""https://edit.splcenter.org/fighting-hate/extremist-files/ideology/black-separatist"">Black Separatist</a>"
Israel United In Christ,black-separatist,Denver,Colorado,0,0,39.73,-104.99,,"<a href=""https://edit.splcenter.org/fighting-hate/extremist-files/ideology/black-separatist"">Black Separatist</a>"
Israel United In Christ,black-separatist,Orlando,Florida,0,0,28.53,-81.37,,"<a href=""https://edit.splcenter.org/fighting-hate/extremist-files/ideology/black-separatist"">Black Separatist</a>"
Israel United In Christ,black-separatist,Miami,Florida,0,0,25.76,-80.19,,"<a href=""https://edit.splcenter.org/fighting-hate/extremist-files/ideology/black-separatist"">Black Separatist</a>"
Israel United In Christ,black-separatist,Tallahassee,Florida,0,0,30.43,-84.28,,"<a href=""https://edit.splcenter.org/fighting-hate/extremist-files/ideology/black-separatist"">Black Separatist</a>"
Israel United In Christ,black-separatist,Atlanta,Georgia,0,0,33.61,-84.47,,"<a href=""https://edit.splcenter.org/fighting-hate/extremist-files/ideology/black-separatist"">Black Separatist</a>"
Israel United In Christ,black-separatist,Chicago,Illinois,0,0,41.87,-87.62,,"<a href=""https://edit.splcenter.org/fighting-hate/extremist-files/ideology/black-separatist"">Black Separatist</a>"
Israel United In Christ,black-separatist,Kansas City,Kansas,0,0,39.11,-94.62,,"<a href=""https://edit.splcenter.org/fighting-hate/extremist-files/ideology/black-separatist"">Black Separatist</a>"
Israel United In Christ,black-separatist,Louisville,Kentucky,0,0,38.25,-85.75,,"<a href=""https://edit.splcenter.org/fighting-hate/extremist-files/ideology/black-separatist"">Black Separatist</a>"
Israel United In Christ,black-separatist,New Orleans,Louisiana,0,0,29.95,-90.07,,"<a href=""https://edit.splcenter.org/fighting-hate/extremist-files/ideology/black-separatist"">Black Separatist</a>"
Vinlanders Social Club,racist-skinhead,,California,1,0,36.77,-119.41,"<a href=""https://edit.splcenter.org/fighting-hate/extremist-files/group/vinlanders-social-club"">Vinlanders Social Club</a>","<a href=""https://edit.splcenter.org/fighting-hate/extremist-files/ideology/racist-skinhead"">Racist Skinhead</a>"
Vinlanders Social Club,racist-skinhead,,North Carolina,1,0,35.75,-79.01,"<a href=""https://edit.splcenter.org/fighting-hate/extremist-files/group/vinlanders-social-club"">Vinlanders Social Club</a>","<a href=""https://edit.splcenter.org/fighting-hate/extremist-files/ideology/racist-skinhead"">Racist Skinhead</a>"
Israel United In Christ,black-separatist,Detroit,Michigan,0,0,42.33,-83.04,,"<a href=""https://edit.splcenter.org/fighting-hate/extremist-files/ideology/black-separatist"">Black Separatist</a>"
Stop the Islamization of the World,anti-muslim,Houston,Texas,0,0,29.76,-95.36,,"<a href=""https://edit.splcenter.org/fighting-hate/extremist-files/ideology/anti-muslim"">Anti-Muslim</a>"
Israel United In Christ,black-separatist,Boston,Massachusetts,0,0,42.36,-71.05,,"<a href=""https://edit.splcenter.org/fighting-hate/extremist-files/ideology/black-separatist"">Black Separatist</a>"
Israel United In Christ,black-separatist,St. Louis,Missouri,0,0,38.62,-90.19,,"<a href=""https://edit.splcenter.org/fighting-hate/extremist-files/ideology/black-separatist"">Black Separatist</a>"
"Straight Way and More, The",anti-muslim,Venice,Florida,0,0,27.09,-82.45,,"<a href=""https://edit.splcenter.org/fighting-hate/extremist-files/ideology/anti-muslim"">Anti-Muslim</a>"
Israel United In Christ,black-separatist,Las Vegas,Nevada,0,0,36.16,-115.13,,"<a href=""https://edit.splcenter.org/fighting-hate/extremist-files/ideology/black-separatist"">Black Separatist</a>"
Israel United In Christ,black-separatist,Newark,New Jersey,0,0,40.73,-74.17,,"<a href=""https://edit.splcenter.org/fighting-hate/extremist-files/ideology/black-separatist"">Black Separatist</a>"
Israel United In Christ,black-separatist,Bronx,New York,0,0,40.84,-73.86,,"<a href=""https://edit.splcenter.org/fighting-hate/extremist-files/ideology/black-separatist"">Black Separatist</a>"
Israel United in Christ,black-separatist,Charlotte,North Carolina,0,0,35.27,-80.79,,"<a href=""https://edit.splcenter.org/fighting-hate/extremist-files/ideology/black-separatist"">Black Separatist</a>"
Israel United In Christ,black-separatist,Heath,Ohio,0,0,40.03,-82.43,,"<a href=""https://edit.splcenter.org/fighting-hate/extremist-files/ideology/black-separatist"">Black Separatist</a>"
Israel United in Christ,black-separatist,Warr Acres,Oklahoma,0,0,35.51,-97.61,,"<a href=""https://edit.splcenter.org/fighting-hate/extremist-files/ideology/black-separatist"">Black Separatist</a>"
Israel United In Christ,black-separatist,Pittsburgh,Pennsylvania,0,0,40.44,-79.99,,"<a href=""https://edit.splcenter.org/fighting-hate/extremist-files/ideology/black-separatist"">Black Separatist</a>"
Israel United In Christ,black-separatist,Memphis,Tennessee,0,0,35.11,-90,,"<a href=""https://edit.splcenter.org/fighting-hate/extremist-files/ideology/black-separatist"">Black Separatist</a>"
Israel United In Christ,black-separatist,Dallas,Texas,0,0,32.87,-96.88,,"<a href=""https://edit.splcenter.org/fighting-hate/extremist-files/ideology/black-separatist"">Black Separatist</a>"
Israel United In Christ,black-separatist,Houston,Texas,0,0,29.67,-95.58,,"<a href=""https://edit.splcenter.org/fighting-hate/extremist-files/ideology/black-separatist"">Black Separatist</a>"
Israel United In Christ,black-separatist,Austin,Texas,0,0,30.26,-97.74,,"<a href=""https://edit.splcenter.org/fighting-hate/extremist-files/ideology/black-separatist"">Black Separatist</a>"
Israel United In Christ,black-separatist,Corpus Christi,Texas,0,0,27.8,-97.39,,"<a href=""https://edit.splcenter.org/fighting-hate/extremist-files/ideology/black-separatist"">Black Separatist</a>"
Israel United In Christ,black-separatist,San Antonio,Texas,0,0,29.42,-98.49,,"<a href=""https://edit.splcenter.org/fighting-hate/extremist-files/ideology/black-separatist"">Black Separatist</a>"
Israel United In Christ,black-separatist,Hampton,Virginia,0,0,37.03,-76.35,,"<a href=""https://edit.splcenter.org/fighting-hate/extremist-files/ideology/black-separatist"">Black Separatist</a>"
Israel United In Christ,black-separatist,Washington,District of Columbia,0,0,38.9,-77.03,,"<a href=""https://edit.splcenter.org/fighting-hate/extremist-files/ideology/black-separatist"">Black Separatist</a>"
Israel United In Christ,black-separatist,,Oregon,1,0,43.8,-120.55,,"<a href=""https://edit.splcenter.org/fighting-hate/extremist-files/ideology/black-separatist"">Black Separatist</a>"
Israel United In Christ,black-separatist,Mount Vernon,New York,0,1,40.91,-73.85,,"<a href=""https://edit.splcenter.org/fighting-hate/extremist-files/ideology/black-separatist"">Black Separatist</a>"
Conservative Republicans of Texas,anti-lgbt,Houston,Texas,0,0,29.73,-95.43,,"<a href=""https://edit.splcenter.org/fighting-hate/extremist-files/ideology/anti-lgbt"">Anti-LGBT</a>"
Faith2Action,anti-lgbt,North Royalton,Ohio,0,1,41.31,-81.72,,"<a href=""https://edit.splcenter.org/fighting-hate/extremist-files/ideology/anti-lgbt"">Anti-LGBT</a>"
League of the South,neo-confederate,Harrison,Arkansas,0,0,36.22,-93.1,"<a href=""https://edit.splcenter.org/fighting-hate/extremist-files/group/league-south"">League of the South</a>","<a href=""https://edit.splcenter.org/fighting-hate/extremist-files/ideology/neo-confederate"">Neo-Confederate</a>"
Traditionalist Youth Network,white-nationalist,Benson,North Carolina,0,0,35.75,-79.01,,"<a href=""https://edit.splcenter.org/fighting-hate/extremist-files/ideology/white-nationalist"">White Nationalist</a>"
Citizens for Community Values,anti-lgbt,Cincinnati,Ohio,0,1,39.27,-84.4,,"<a href=""https://edit.splcenter.org/fighting-hate/extremist-files/ideology/anti-lgbt"">Anti-LGBT</a>"
"Campus Ministry USA, The",anti-lgbt,Terre Haute,Indiana,0,1,39.46,-87.41,,"<a href=""https://edit.splcenter.org/fighting-hate/extremist-files/ideology/anti-lgbt"">Anti-LGBT</a>"
Repent Amarillo,other,Amarillo,Texas,0,1,35.22,-101.83,,"<a href=""https://edit.splcenter.org/fighting-hate/extremist-files/ideology/general-hate"">General Hate</a>"
Supreme White Alliance,racist-skinhead,,Ohio,1,1,40.41,-82.9,,"<a href=""https://edit.splcenter.org/fighting-hate/extremist-files/ideology/racist-skinhead"">Racist Skinhead</a>"
Supreme White Alliance,racist-skinhead,,Pennsylvania,1,0,41.2,-77.19,,"<a href=""https://edit.splcenter.org/fighting-hate/extremist-files/ideology/racist-skinhead"">Racist Skinhead</a>"
Active Democracy,other,Washington,District of Columbia,0,1,38.93,-76.99,,"<a href=""https://edit.splcenter.org/fighting-hate/extremist-files/ideology/general-hate"">General Hate</a>"
Traditionalist Worker Party,white-nationalist,Madisonville,Kentucky,0,0,37.32,-87.49,,"<a href=""https://edit.splcenter.org/fighting-hate/extremist-files/ideology/white-nationalist"">White Nationalist</a>"
American Eagle Party,white-nationalist,Gatlinburg,Tennessee,0,1,35.75,-83.35,,"<a href=""https://edit.splcenter.org/fighting-hate/extremist-files/ideology/white-nationalist"">White Nationalist</a>"
Crew 38,racist-skinhead,,Tennessee,1,0,35.51,-86.58,,"<a href=""https://edit.splcenter.org/fighting-hate/extremist-files/ideology/racist-skinhead"">Racist Skinhead</a>"
Crew 38,racist-skinhead,,Idaho,1,0,44.06,-114.74,,"<a href=""https://edit.splcenter.org/fighting-hate/extremist-files/ideology/racist-skinhead"">Racist Skinhead</a>"
Crew 38,racist-skinhead,,Washington,1,0,47.75,-120.74,,"<a href=""https://edit.splcenter.org/fighting-hate/extremist-files/ideology/racist-skinhead"">Racist Skinhead</a>"
Crew 38,racist-skinhead,,Georgia,1,0,32.16,-82.9,,"<a href=""https://edit.splcenter.org/fighting-hate/extremist-files/ideology/racist-skinhead"">Racist Skinhead</a>"
Aryan Nations Sadistic Souls MC,neo-nazi,Grovespring,Missouri,0,0,37.41,-92.59,,"<a href=""https://edit.splcenter.org/fighting-hate/extremist-files/ideology/neo-nazi"">Neo-Nazi</a>"
Traditionalist Worker Party,white-nationalist,Paoli,Indiana,0,1,38.54,-86.45,,"<a href=""https://edit.splcenter.org/fighting-hate/extremist-files/ideology/white-nationalist"">White Nationalist</a>"
National Socialist Movement,neo-nazi,,Colorado,1,0,39.55,-105.78,"<a href=""https://edit.splcenter.org/fighting-hate/extremist-files/group/national-socialist-movement"">National Socialist Movement</a>","<a href=""https://edit.splcenter.org/fighting-hate/extremist-files/ideology/neo-nazi"">Neo-Nazi</a>"
Wolves of Vinland,white-nationalist,Lynchburg,Virginia,0,1,37.41,-79.14,,"<a href=""https://edit.splcenter.org/fighting-hate/extremist-files/ideology/white-nationalist"">White Nationalist</a>"
Crew 38,racist-skinhead,,California,1,0,36.77,-119.41,,"<a href=""https://edit.splcenter.org/fighting-hate/extremist-files/ideology/racist-skinhead"">Racist Skinhead</a>"
Wolves of Vinland,white-nationalist,,Colorado,1,0,39.55,-105.78,,"<a href=""https://edit.splcenter.org/fighting-hate/extremist-files/ideology/white-nationalist"">White Nationalist</a>"
Wolves of Vinland,white-nationalist,,Wyoming,1,0,43.07,-107.29,,"<a href=""https://edit.splcenter.org/fighting-hate/extremist-files/ideology/white-nationalist"">White Nationalist</a>"
Rense Radio Network,other,Ashland,Oregon,0,1,42.19,-122.7,,"<a href=""https://edit.splcenter.org/fighting-hate/extremist-files/ideology/general-hate"">General Hate</a>"
Aryan Nations Worldwide,neo-nazi,Villa Rica,Georgia,0,1,33.73,-84.91,"<a href=""https://edit.splcenter.org/fighting-hate/extremist-files/group/aryan-nations"">Aryan Nations</a>","<a href=""https://edit.splcenter.org/fighting-hate/extremist-files/ideology/neo-nazi"">Neo-Nazi</a>"
Gallows Tree Wotansvolk Alliance,neo-nazi,,Texas,1,0,31.96,-99.9,,"<a href=""https://edit.splcenter.org/fighting-hate/extremist-files/ideology/neo-nazi"">Neo-Nazi</a>"
Gallows Tree Wotansvolk Alliance,neo-nazi,,Florida,1,0,27.66,-81.51,,"<a href=""https://edit.splcenter.org/fighting-hate/extremist-files/ideology/neo-nazi"">Neo-Nazi</a>"
Gallows Tree Wotansvolk Alliance,neo-nazi,,California,1,0,36.77,-119.41,,"<a href=""https://edit.splcenter.org/fighting-hate/extremist-files/ideology/neo-nazi"">Neo-Nazi</a>"
Gallows Tree Wotansvolk Alliance,neo-nazi,,Iowa,1,0,41.87,-93.09,,"<a href=""https://edit.splcenter.org/fighting-hate/extremist-files/ideology/neo-nazi"">Neo-Nazi</a>"
"Shoebat Foundation, The",anti-muslim,Newtown,Pennsylvania,0,1,40.22,-74.93,,"<a href=""https://edit.splcenter.org/fighting-hate/extremist-files/ideology/anti-muslim"">Anti-Muslim</a>"
Bureau on American Islamic Relations,anti-muslim,Irving,Texas,0,1,32.81,-96.94,,"<a href=""https://edit.splcenter.org/fighting-hate/extremist-files/ideology/anti-muslim"">Anti-Muslim</a>"
Loyal White Knights of the Ku Klux Klan,kkk,Fort Worth,Texas,0,0,32.75,-97.33,,"<a href=""https://edit.splcenter.org/fighting-hate/extremist-files/ideology/ku-klux-klan"">Ku Klux Klan</a>"
ACT for America,anti-muslim,Virginia Beach,Virginia,0,1,36.85,-75.97,,"<a href=""https://edit.splcenter.org/fighting-hate/extremist-files/ideology/anti-muslim"">Anti-Muslim</a>"
Center for Security Policy,anti-muslim,Washington,District of Columbia,0,1,38.9,-77.03,,"<a href=""https://edit.splcenter.org/fighting-hate/extremist-files/ideology/anti-muslim"">Anti-Muslim</a>"
David Horowitz Freedom Center,anti-muslim,Los Angeles,California,0,0,34.14,-118.45,,"<a href=""https://edit.splcenter.org/fighting-hate/extremist-files/ideology/anti-muslim"">Anti-Muslim</a>"
Blood and Honour Social Club,racist-skinhead,Greensboro,North Carolina,0,1,36.07,-79.79,"<a href=""https://edit.splcenter.org/fighting-hate/extremist-files/group/blood-honour"">Blood &amp; Honour</a>","<a href=""https://edit.splcenter.org/fighting-hate/extremist-files/ideology/racist-skinhead"">Racist Skinhead</a>"
Blood and Honour Social Club,racist-skinhead,,Georgia,1,0,32.16,-82.9,"<a href=""https://edit.splcenter.org/fighting-hate/extremist-files/group/blood-honour"">Blood &amp; Honour</a>","<a href=""https://edit.splcenter.org/fighting-hate/extremist-files/ideology/racist-skinhead"">Racist Skinhead</a>"
Blood and Honour Social Club,racist-skinhead,,Ohio,1,0,40.41,-82.9,"<a href=""https://edit.splcenter.org/fighting-hate/extremist-files/group/blood-honour"">Blood &amp; Honour</a>","<a href=""https://edit.splcenter.org/fighting-hate/extremist-files/ideology/racist-skinhead"">Racist Skinhead</a>"
Blood and Honour Social Club,racist-skinhead,,Indiana,1,0,40.26,-86.13,"<a href=""https://edit.splcenter.org/fighting-hate/extremist-files/group/blood-honour"">Blood &amp; Honour</a>","<a href=""https://edit.splcenter.org/fighting-hate/extremist-files/ideology/racist-skinhead"">Racist Skinhead</a>"
Blood and Honour Social Club,racist-skinhead,New York,New York,0,0,40.71,-74,"<a href=""https://edit.splcenter.org/fighting-hate/extremist-files/group/blood-honour"">Blood &amp; Honour</a>","<a href=""https://edit.splcenter.org/fighting-hate/extremist-files/ideology/racist-skinhead"">Racist Skinhead</a>"
Blood and Honour Social Club,racist-skinhead,,Pennsylvania,1,0,41.2,-77.19,"<a href=""https://edit.splcenter.org/fighting-hate/extremist-files/group/blood-honour"">Blood &amp; Honour</a>","<a href=""https://edit.splcenter.org/fighting-hate/extremist-files/ideology/racist-skinhead"">Racist Skinhead</a>"
American Freedom Law Center,anti-muslim,Ann Arbor,Michigan,0,1,42.28,-83.74,,"<a href=""https://edit.splcenter.org/fighting-hate/extremist-files/ideology/anti-muslim"">Anti-Muslim</a>"
United White Knights of the Ku Klux Klan,kkk,New Boston,Texas,0,1,33.45,-94.41,,"<a href=""https://edit.splcenter.org/fighting-hate/extremist-files/ideology/ku-klux-klan"">Ku Klux Klan</a>"
Colorado Alliance for Immigration Reform,anti-immigrant,Lakewood,Colorado,0,1,39.7,-105.08,,"<a href=""https://edit.splcenter.org/fighting-hate/extremist-files/ideology/anti-immigrant"">Anti-Immigrant</a>"
Traditionalist Youth Network,white-nationalist,Bloomington,Indiana,0,0,39.16,-86.52,,"<a href=""https://edit.splcenter.org/fighting-hate/extremist-files/ideology/white-nationalist"">White Nationalist</a>"
Wolves of Vinland,white-nationalist,,Oregon,1,0,43.8,-120.55,,"<a href=""https://edit.splcenter.org/fighting-hate/extremist-files/ideology/white-nationalist"">White Nationalist</a>"
Wolves of Vinland,white-nationalist,,Washington,1,0,47.75,-120.74,,"<a href=""https://edit.splcenter.org/fighting-hate/extremist-files/ideology/white-nationalist"">White Nationalist</a>"
National Socialist Movement,neo-nazi,,New Jersey,1,0,40.05,-74.4,"<a href=""https://edit.splcenter.org/fighting-hate/extremist-files/group/national-socialist-movement"">National Socialist Movement</a>","<a href=""https://edit.splcenter.org/fighting-hate/extremist-files/ideology/neo-nazi"">Neo-Nazi</a>"
Confederate White Knights of the Ku Klux Klan,kkk,Toms River,New Jersey,0,0,39.95,-74.19,,"<a href=""https://edit.splcenter.org/fighting-hate/extremist-files/ideology/ku-klux-klan"">Ku Klux Klan</a>"
Illinois Family Institute Tri-County chapter,anti-lgbt,Peoria,Illinois,0,0,40.69,-89.58,,"<a href=""https://edit.splcenter.org/fighting-hate/extremist-files/ideology/anti-lgbt"">Anti-LGBT</a>"
Mass Resistance California,anti-lgbt,Torrance,California,0,0,33.83,-118.34,,"<a href=""https://edit.splcenter.org/fighting-hate/extremist-files/ideology/anti-lgbt"">Anti-LGBT</a>"
Mass Resistance Virginia,anti-lgbt,Yorktown,Virginia,0,0,37.02,-76.34,,"<a href=""https://edit.splcenter.org/fighting-hate/extremist-files/ideology/anti-lgbt"">Anti-LGBT</a>"
United Riot Records,racist-music,New York,New York,0,0,40.71,-74,,"<a href=""https://edit.splcenter.org/fighting-hate/extremist-files/ideology/hate-music"">Hate Music</a>"
Hostile Class Productions,racist-music,Burbank,Illinois,0,0,41.74,-87.76,,"<a href=""https://edit.splcenter.org/fighting-hate/extremist-files/ideology/hate-music"">Hate Music</a>"
Supreme White Alliance,racist-skinhead,,Kentucky,1,0,37.83,-84.27,,"<a href=""https://edit.splcenter.org/fighting-hate/extremist-files/ideology/racist-skinhead"">Racist Skinhead</a>"
Supreme White Alliance,racist-skinhead,,Virginia,1,0,37.43,-78.65,,"<a href=""https://edit.splcenter.org/fighting-hate/extremist-files/ideology/racist-skinhead"">Racist Skinhead</a>"
Gallows Tree Wotansvolk Alliance,neo-nazi,,Massachusetts,1,0,42.4,-71.38,,"<a href=""https://edit.splcenter.org/fighting-hate/extremist-files/ideology/neo-nazi"">Neo-Nazi</a>"
Gallows Tree Wotansvolk Alliance,neo-nazi,,Minnesota,1,0,46.72,-94.68,,"<a href=""https://edit.splcenter.org/fighting-hate/extremist-files/ideology/neo-nazi"">Neo-Nazi</a>"
Aryan Strikeforce,racist-skinhead,,Tennessee,1,0,35.51,-86.58,,"<a href=""https://edit.splcenter.org/fighting-hate/extremist-files/ideology/racist-skinhead"">Racist Skinhead</a>"
Southern Future,neo-confederate,Aiken,South Carolina,0,1,33.43,-81.75,,"<a href=""https://edit.splcenter.org/fighting-hate/extremist-files/ideology/neo-confederate"">Neo-Confederate</a>"
League of the South,neo-confederate,Taylorsville,Kentucky,0,0,38.03,-85.34,"<a href=""https://edit.splcenter.org/fighting-hate/extremist-files/group/league-south"">League of the South</a>","<a href=""https://edit.splcenter.org/fighting-hate/extremist-files/ideology/neo-confederate"">Neo-Confederate</a>"
League of the South,neo-confederate,London,Kentucky,0,0,37.12,-84.08,"<a href=""https://edit.splcenter.org/fighting-hate/extremist-files/group/league-south"">League of the South</a>","<a href=""https://edit.splcenter.org/fighting-hate/extremist-files/ideology/neo-confederate"">Neo-Confederate</a>"
League of the South,neo-confederate,Fort Mitchell,Kentucky,0,0,39.04,-84.55,"<a href=""https://edit.splcenter.org/fighting-hate/extremist-files/group/league-south"">League of the South</a>","<a href=""https://edit.splcenter.org/fighting-hate/extremist-files/ideology/neo-confederate"">Neo-Confederate</a>"
League of the South,neo-confederate,Lake City,Florida,0,0,30.18,-82.63,"<a href=""https://edit.splcenter.org/fighting-hate/extremist-files/group/league-south"">League of the South</a>","<a href=""https://edit.splcenter.org/fighting-hate/extremist-files/ideology/neo-confederate"">Neo-Confederate</a>"
League of the South,neo-confederate,Miami,Florida,0,0,25.76,-80.19,"<a href=""https://edit.splcenter.org/fighting-hate/extremist-files/group/league-south"">League of the South</a>","<a href=""https://edit.splcenter.org/fighting-hate/extremist-files/ideology/neo-confederate"">Neo-Confederate</a>"
Tony Alamo Christian Ministries,other,Santa Clarita,California,0,0,34.5,-118.36,,"<a href=""https://edit.splcenter.org/fighting-hate/extremist-files/ideology/general-hate"">General Hate</a>"
Blood and Honour America Division,racist-skinhead,,Washington,1,1,47.75,-120.74,"<a href=""https://edit.splcenter.org/fighting-hate/extremist-files/group/blood-honour"">Blood &amp; Honour</a>","<a href=""https://edit.splcenter.org/fighting-hate/extremist-files/ideology/racist-skinhead"">Racist Skinhead</a>"
Aryan Renaissance Society,neo-nazi,,Texas,1,0,31.96,-99.9,,"<a href=""https://edit.splcenter.org/fighting-hate/extremist-files/ideology/neo-nazi"">Neo-Nazi</a>"
Aryan Renaissance Society,neo-nazi,New York,New York,0,0,40.71,-74,,"<a href=""https://edit.splcenter.org/fighting-hate/extremist-files/ideology/neo-nazi"">Neo-Nazi</a>"
Aryan Renaissance Society,neo-nazi,,Tennessee,1,0,35.51,-86.58,,"<a href=""https://edit.splcenter.org/fighting-hate/extremist-files/ideology/neo-nazi"">Neo-Nazi</a>"
Confederate White Knights of the Ku Klux Klan,kkk,Sikeston,Missouri,0,0,36.87,-89.58,,"<a href=""https://edit.splcenter.org/fighting-hate/extremist-files/ideology/ku-klux-klan"">Ku Klux Klan</a>"
Confederate White Knights of the Ku Klux Klan,kkk,Morehead,Kentucky,0,0,38.18,-83.43,,"<a href=""https://edit.splcenter.org/fighting-hate/extremist-files/ideology/ku-klux-klan"">Ku Klux Klan</a>"
Confederate White Knights of the Ku Klux Klan,kkk,Vale,North Carolina,0,0,35.54,-81.39,,"<a href=""https://edit.splcenter.org/fighting-hate/extremist-files/ideology/ku-klux-klan"">Ku Klux Klan</a>"
Confederate White Knights of the Ku Klux Klan,kkk,Auburn,Indiana,0,0,41.36,-85.05,,"<a href=""https://edit.splcenter.org/fighting-hate/extremist-files/ideology/ku-klux-klan"">Ku Klux Klan</a>"
Confederate White Knights of the Ku Klux Klan,kkk,Saint Martinville,Louisiana,0,0,30.12,-91.82,,"<a href=""https://edit.splcenter.org/fighting-hate/extremist-files/ideology/ku-klux-klan"">Ku Klux Klan</a>"
Confederate White Knights of the Ku Klux Klan,kkk,Greenwood,Arkansas,0,0,35.21,-94.25,,"<a href=""https://edit.splcenter.org/fighting-hate/extremist-files/ideology/ku-klux-klan"">Ku Klux Klan</a>"
Confederate White Knights of the Ku Klux Klan,kkk,Madison,Indiana,0,0,38.73,-85.37,,"<a href=""https://edit.splcenter.org/fighting-hate/extremist-files/ideology/ku-klux-klan"">Ku Klux Klan</a>"
Mass Resistance Missouri,anti-lgbt,St. Louis,Missouri,0,0,38.62,-90.19,,"<a href=""https://edit.splcenter.org/fighting-hate/extremist-files/ideology/anti-lgbt"">Anti-LGBT</a>"
Fundamentalist Latter Day Saints,other,Pringle,South Dakota,0,0,43.6,-103.59,"<a href=""https://edit.splcenter.org/fighting-hate/extremist-files/group/fundamentalist-church-jesus-christ-latter-day-saints"">Fundamentalist Church of Jesus Christ of Latter-Day Saints</a>","<a href=""https://edit.splcenter.org/fighting-hate/extremist-files/ideology/general-hate"">General Hate</a>"
Aryan Strikeforce,racist-skinhead,,West Virginia,1,0,38.59,-80.45,,"<a href=""https://edit.splcenter.org/fighting-hate/extremist-files/ideology/racist-skinhead"">Racist Skinhead</a>"
Verity Baptist Church,anti-lgbt,Sacramento,California,0,1,38.64,-121.47,,"<a href=""https://edit.splcenter.org/fighting-hate/extremist-files/ideology/anti-lgbt"">Anti-LGBT</a>"
East Coast Knights Of The True Invisible Empire,kkk,Girardville,Pennsylvania,0,0,40.79,-76.28,,"<a href=""https://edit.splcenter.org/fighting-hate/extremist-files/ideology/ku-klux-klan"">Ku Klux Klan</a>"
International Keystone Knights of the Ku Klux Klan,kkk,Vanndale,Arkansas,0,1,35.31,-90.77,,"<a href=""https://edit.splcenter.org/fighting-hate/extremist-files/ideology/ku-klux-klan"">Ku Klux Klan</a>"
The Daily Stormer,neo-nazi,Columbus,Ohio,0,0,39.96,-82.99,,"<a href=""https://edit.splcenter.org/fighting-hate/extremist-files/ideology/neo-nazi"">Neo-Nazi</a>"
The Daily Stormer,neo-nazi,Dallas,Texas,0,0,32.77,-96.79,,"<a href=""https://edit.splcenter.org/fighting-hate/extremist-files/ideology/neo-nazi"">Neo-Nazi</a>"
The Daily Stormer,neo-nazi,Indianapolis,Indiana,0,0,39.76,-86.15,,"<a href=""https://edit.splcenter.org/fighting-hate/extremist-files/ideology/neo-nazi"">Neo-Nazi</a>"
The Daily Stormer,neo-nazi,Las Vegas,Nevada,0,0,36.16,-115.13,,"<a href=""https://edit.splcenter.org/fighting-hate/extremist-files/ideology/neo-nazi"">Neo-Nazi</a>"
The Daily Stormer,neo-nazi,,New York,1,0,40.78,-73.13,,"<a href=""https://edit.splcenter.org/fighting-hate/extremist-files/ideology/neo-nazi"">Neo-Nazi</a>"
The Daily Stormer,neo-nazi,Los Angeles,California,0,0,34.05,-118.24,,"<a href=""https://edit.splcenter.org/fighting-hate/extremist-files/ideology/neo-nazi"">Neo-Nazi</a>"
The Daily Stormer,neo-nazi,Louisville,Kentucky,0,0,38.25,-85.75,,"<a href=""https://edit.splcenter.org/fighting-hate/extremist-files/ideology/neo-nazi"">Neo-Nazi</a>"
The Daily Stormer,neo-nazi,Santa Monica,California,0,0,34.01,-118.49,,"<a href=""https://edit.splcenter.org/fighting-hate/extremist-files/ideology/neo-nazi"">Neo-Nazi</a>"
Traditionalist Youth Network,white-nationalist,,Wisconsin,1,0,43.78,-88.78,,"<a href=""https://edit.splcenter.org/fighting-hate/extremist-files/ideology/white-nationalist"">White Nationalist</a>"
Ku Klos Knights of the Ku Klux Klan,kkk,Wauchula,Florida,0,0,27.54,-81.81,,"<a href=""https://edit.splcenter.org/fighting-hate/extremist-files/ideology/ku-klux-klan"">Ku Klux Klan</a>"
Ku Klos Knights of the Ku Klux Klan,kkk,Gurnee,Illinois,0,0,42.37,-87.9,,"<a href=""https://edit.splcenter.org/fighting-hate/extremist-files/ideology/ku-klux-klan"">Ku Klux Klan</a>"
Ku Klos Knights of the Ku Klux Klan,kkk,,Illinois,1,0,40.63,-89.39,,"<a href=""https://edit.splcenter.org/fighting-hate/extremist-files/ideology/ku-klux-klan"">Ku Klux Klan</a>"
Traditionalist Worker Party,white-nationalist,Louisville,Kentucky,0,0,38.25,-85.75,,"<a href=""https://edit.splcenter.org/fighting-hate/extremist-files/ideology/white-nationalist"">White Nationalist</a>"
Ku Klos Knights of the Ku Klux Klan,kkk,Indianapolis,Indiana,0,0,39.76,-86.15,,"<a href=""https://edit.splcenter.org/fighting-hate/extremist-files/ideology/ku-klux-klan"">Ku Klux Klan</a>"
Ku Klos Knights of the Ku Klux Klan,kkk,,Indiana,1,0,40.26,-86.13,,"<a href=""https://edit.splcenter.org/fighting-hate/extremist-files/ideology/ku-klux-klan"">Ku Klux Klan</a>"
Traditionalist Worker Party,white-nationalist,Richmond,Virginia,0,0,37.54,-77.43,,"<a href=""https://edit.splcenter.org/fighting-hate/extremist-files/ideology/white-nationalist"">White Nationalist</a>"
Ku Klos Knights of the Ku Klux Klan,kkk,Leakesville,Mississippi,0,0,31.15,-88.55,,"<a href=""https://edit.splcenter.org/fighting-hate/extremist-files/ideology/ku-klux-klan"">Ku Klux Klan</a>"
Ku Klos Knights of the Ku Klux Klan,kkk,Hempstead,New York,0,0,40.7,-73.61,,"<a href=""https://edit.splcenter.org/fighting-hate/extremist-files/ideology/ku-klux-klan"">Ku Klux Klan</a>"
Ku Klos Knights of the Ku Klux Klan,kkk,,Ohio,1,0,40.41,-82.9,,"<a href=""https://edit.splcenter.org/fighting-hate/extremist-files/ideology/ku-klux-klan"">Ku Klux Klan</a>"
Ku Klos Knights of the Ku Klux Klan,kkk,Meadville,Pennsylvania,0,0,41.64,-80.15,,"<a href=""https://edit.splcenter.org/fighting-hate/extremist-files/ideology/ku-klux-klan"">Ku Klux Klan</a>"
Ku Klos Knights of the Ku Klux Klan,kkk,,Virginia,1,0,37.43,-78.65,,"<a href=""https://edit.splcenter.org/fighting-hate/extremist-files/ideology/ku-klux-klan"">Ku Klux Klan</a>"
Ku Klos Knights of the Ku Klux Klan,kkk,,Texas,1,0,31.96,-99.9,,"<a href=""https://edit.splcenter.org/fighting-hate/extremist-files/ideology/ku-klux-klan"">Ku Klux Klan</a>"
Ku Klos Knights of the Ku Klux Klan,kkk,Battle Creek,Michigan,0,0,42.32,-85.17,,"<a href=""https://edit.splcenter.org/fighting-hate/extremist-files/ideology/ku-klux-klan"">Ku Klux Klan</a>"
Ku Klos Knights of the Ku Klux Klan,kkk,Sanford,North Carolina,0,0,35.47,-79.18,,"<a href=""https://edit.splcenter.org/fighting-hate/extremist-files/ideology/ku-klux-klan"">Ku Klux Klan</a>"
Ku Klos Knights of the Ku Klux Klan,kkk,Chapel Hill,North Carolina,0,0,35.91,-79.05,,"<a href=""https://edit.splcenter.org/fighting-hate/extremist-files/ideology/ku-klux-klan"">Ku Klux Klan</a>"
Traditionalist Worker Party,white-nationalist,Dallas,Texas,0,0,32.77,-96.79,,"<a href=""https://edit.splcenter.org/fighting-hate/extremist-files/ideology/white-nationalist"">White Nationalist</a>"
United Dixie White Knights of the Ku Klux Klan,kkk,,Indiana,1,0,40.26,-86.13,,"<a href=""https://edit.splcenter.org/fighting-hate/extremist-files/ideology/ku-klux-klan"">Ku Klux Klan</a>"
United Dixie White Knights of the Ku Klux Klan,kkk,,North Carolina,1,0,35.75,-79.01,,"<a href=""https://edit.splcenter.org/fighting-hate/extremist-files/ideology/ku-klux-klan"">Ku Klux Klan</a>"
United Dixie White Knights of the Ku Klux Klan,kkk,,Illinois,1,0,40.63,-89.39,,"<a href=""https://edit.splcenter.org/fighting-hate/extremist-files/ideology/ku-klux-klan"">Ku Klux Klan</a>"
Identity Evropa,white-nationalist,Oakdale,California,0,1,37.76,-120.85,,"<a href=""https://edit.splcenter.org/fighting-hate/extremist-files/ideology/white-nationalist"">White Nationalist</a>"
ACT for America,anti-muslim,Corona,California,0,0,33.87,-117.56,,"<a href=""https://edit.splcenter.org/fighting-hate/extremist-files/ideology/anti-muslim"">Anti-Muslim</a>"
East Coast Knights Of The True Invisible Empire,kkk,Nassau,Delaware,0,0,38.75,-75.18,,"<a href=""https://edit.splcenter.org/fighting-hate/extremist-files/ideology/ku-klux-klan"">Ku Klux Klan</a>"
East Coast Knights Of The True Invisible Empire,kkk,Annapolis,Maryland,0,0,38.97,-76.49,,"<a href=""https://edit.splcenter.org/fighting-hate/extremist-files/ideology/ku-klux-klan"">Ku Klux Klan</a>"
Traditionalist American Knights of the Ku Klux Klan,kkk,,Pennsylvania,1,0,41.2,-77.19,,"<a href=""https://edit.splcenter.org/fighting-hate/extremist-files/ideology/ku-klux-klan"">Ku Klux Klan</a>"
ACT for America,anti-muslim,Mission Viejo,California,0,0,33.6,-117.67,,"<a href=""https://edit.splcenter.org/fighting-hate/extremist-files/ideology/anti-muslim"">Anti-Muslim</a>"
ACT for America,anti-muslim,,Washington,1,0,47.06,-122.12,,"<a href=""https://edit.splcenter.org/fighting-hate/extremist-files/ideology/anti-muslim"">Anti-Muslim</a>"
ACT for America,anti-muslim,Tucson,Arizona,0,0,32.22,-110.92,,"<a href=""https://edit.splcenter.org/fighting-hate/extremist-files/ideology/anti-muslim"">Anti-Muslim</a>"
ACT for America,anti-muslim,,Montana,1,0,47.67,-114.13,,"<a href=""https://edit.splcenter.org/fighting-hate/extremist-files/ideology/anti-muslim"">Anti-Muslim</a>"
ACT for America,anti-muslim,Kalispell,Montana,0,0,48.19,-114.31,,"<a href=""https://edit.splcenter.org/fighting-hate/extremist-files/ideology/anti-muslim"">Anti-Muslim</a>"
ACT for America,anti-muslim,,Montana,1,0,45.7,-109.39,,"<a href=""https://edit.splcenter.org/fighting-hate/extremist-files/ideology/anti-muslim"">Anti-Muslim</a>"
ACT for America,anti-muslim,Dallas,Texas,0,0,32.77,-96.79,,"<a href=""https://edit.splcenter.org/fighting-hate/extremist-files/ideology/anti-muslim"">Anti-Muslim</a>"
ACT for America,anti-muslim,San Antonio,Texas,0,0,29.42,-98.49,,"<a href=""https://edit.splcenter.org/fighting-hate/extremist-files/ideology/anti-muslim"">Anti-Muslim</a>"
ACT for America,anti-muslim,Houston,Texas,0,0,29.76,-95.36,,"<a href=""https://edit.splcenter.org/fighting-hate/extremist-files/ideology/anti-muslim"">Anti-Muslim</a>"
ACT for America,anti-muslim,Memphis,Tennessee,0,0,35.14,-90.04,,"<a href=""https://edit.splcenter.org/fighting-hate/extremist-files/ideology/anti-muslim"">Anti-Muslim</a>"
ACT for America,anti-muslim,Baton Rouge,Louisiana,0,0,30.45,-91.14,,"<a href=""https://edit.splcenter.org/fighting-hate/extremist-files/ideology/anti-muslim"">Anti-Muslim</a>"
ACT for America,anti-muslim,Cleveland,Ohio,0,0,41.49,-81.69,,"<a href=""https://edit.splcenter.org/fighting-hate/extremist-files/ideology/anti-muslim"">Anti-Muslim</a>"
ACT for America,anti-muslim,Fayetteville,North Carolina,0,0,35.05,-78.87,,"<a href=""https://edit.splcenter.org/fighting-hate/extremist-files/ideology/anti-muslim"">Anti-Muslim</a>"
ACT for America,anti-muslim,Columbus,Ohio,0,0,39.96,-82.99,,"<a href=""https://edit.splcenter.org/fighting-hate/extremist-files/ideology/anti-muslim"">Anti-Muslim</a>"
ACT for America,anti-muslim,,Connecticut,1,0,41.6,-73.08,,"<a href=""https://edit.splcenter.org/fighting-hate/extremist-files/ideology/anti-muslim"">Anti-Muslim</a>"
ACT for America,anti-muslim,Cincinnati,Ohio,0,0,39.1,-84.51,,"<a href=""https://edit.splcenter.org/fighting-hate/extremist-files/ideology/anti-muslim"">Anti-Muslim</a>"
Maine Resistance,anti-lgbt,Lewiston,Maine,0,0,44.1,-70.21,,"<a href=""https://edit.splcenter.org/fighting-hate/extremist-files/ideology/anti-lgbt"">Anti-LGBT</a>"
ACT for America,anti-muslim,Heathrow,Florida,0,0,28.77,-81.37,,"<a href=""https://edit.splcenter.org/fighting-hate/extremist-files/ideology/anti-muslim"">Anti-Muslim</a>"
ACT for America,anti-muslim,,Florida,1,0,28.26,-80.72,,"<a href=""https://edit.splcenter.org/fighting-hate/extremist-files/ideology/anti-muslim"">Anti-Muslim</a>"
ACT for America,anti-muslim,Jacksonville,Florida,0,0,30.33,-81.65,,"<a href=""https://edit.splcenter.org/fighting-hate/extremist-files/ideology/anti-muslim"">Anti-Muslim</a>"
ACT for America,anti-muslim,,New York,1,0,40.78,-73.13,,"<a href=""https://edit.splcenter.org/fighting-hate/extremist-files/ideology/anti-muslim"">Anti-Muslim</a>"
ACT for America,anti-muslim,Grand Rapids,Michigan,0,0,42.96,-85.66,,"<a href=""https://edit.splcenter.org/fighting-hate/extremist-files/ideology/anti-muslim"">Anti-Muslim</a>"
ACT for America,anti-muslim,Minneapolis,Minnesota,0,0,44.97,-93.26,,"<a href=""https://edit.splcenter.org/fighting-hate/extremist-files/ideology/anti-muslim"">Anti-Muslim</a>"
ACT for America,anti-muslim,Twin Falls,Idaho,0,0,42.56,-114.46,,"<a href=""https://edit.splcenter.org/fighting-hate/extremist-files/ideology/anti-muslim"">Anti-Muslim</a>"
ACT for America,anti-muslim,Spokane Valley,Washington,0,0,47.67,-117.23,,"<a href=""https://edit.splcenter.org/fighting-hate/extremist-files/ideology/anti-muslim"">Anti-Muslim</a>"
ACT for America,anti-muslim,Leesburg,Virginia,0,1,39.11,-77.56,,"<a href=""https://edit.splcenter.org/fighting-hate/extremist-files/ideology/anti-muslim"">Anti-Muslim</a>"
ACT for America,anti-muslim,Des Plaines,Illinois,0,0,42.03,-87.88,,"<a href=""https://edit.splcenter.org/fighting-hate/extremist-files/ideology/anti-muslim"">Anti-Muslim</a>"
ACT for America,anti-muslim,Meridian,Idaho,0,0,43.61,-116.39,,"<a href=""https://edit.splcenter.org/fighting-hate/extremist-files/ideology/anti-muslim"">Anti-Muslim</a>"
ACT for America,anti-muslim,Whitehall,Montana,0,0,45.86,-112.09,,"<a href=""https://edit.splcenter.org/fighting-hate/extremist-files/ideology/anti-muslim"">Anti-Muslim</a>"
ACT for America,anti-muslim,New York,New York,0,0,40.67,-73.94,,"<a href=""https://edit.splcenter.org/fighting-hate/extremist-files/ideology/anti-muslim"">Anti-Muslim</a>"
ACT for America,anti-muslim,Bear,Delaware,0,0,39.62,-75.65,,"<a href=""https://edit.splcenter.org/fighting-hate/extremist-files/ideology/anti-muslim"">Anti-Muslim</a>"
Aryan Nations Sadistic Souls MC,neo-nazi,,Alabama,1,0,32.31,-86.9,,"<a href=""https://edit.splcenter.org/fighting-hate/extremist-files/ideology/neo-nazi"">Neo-Nazi</a>"
United Klans of America,kkk,,Pennsylvania,1,0,41.2,-77.19,,"<a href=""https://edit.splcenter.org/fighting-hate/extremist-files/ideology/ku-klux-klan"">Ku Klux Klan</a>"
United Klans of America,kkk,,Texas,1,0,31.96,-99.9,,"<a href=""https://edit.splcenter.org/fighting-hate/extremist-files/ideology/ku-klux-klan"">Ku Klux Klan</a>"
United Klans of America,kkk,McMinnville,Tennessee,0,0,35.68,-85.78,,"<a href=""https://edit.splcenter.org/fighting-hate/extremist-files/ideology/ku-klux-klan"">Ku Klux Klan</a>"
Aryan Nations Sadistic Souls MC,neo-nazi,Wood River,Illinois,0,1,38.86,-90.09,,"<a href=""https://edit.splcenter.org/fighting-hate/extremist-files/ideology/neo-nazi"">Neo-Nazi</a>"
Aryan Nations Sadistic Souls MC,neo-nazi,Taylorville,Illinois,0,0,39.54,-89.29,,"<a href=""https://edit.splcenter.org/fighting-hate/extremist-files/ideology/neo-nazi"">Neo-Nazi</a>"
Aryan Nations Sadistic Souls MC,neo-nazi,Canton,Illinois,0,0,40.55,-90.03,,"<a href=""https://edit.splcenter.org/fighting-hate/extremist-files/ideology/neo-nazi"">Neo-Nazi</a>"
Loyal White Knights of the Ku Klux Klan,kkk,Montgomery,Alabama,0,0,32.36,-86.29,,"<a href=""https://edit.splcenter.org/fighting-hate/extremist-files/ideology/ku-klux-klan"">Ku Klux Klan</a>"
Loyal White Knights of the Ku Klux Klan,kkk,Birmingham,Alabama,0,0,33.52,-86.8,,"<a href=""https://edit.splcenter.org/fighting-hate/extremist-files/ideology/ku-klux-klan"">Ku Klux Klan</a>"
Loyal White Knights of the Ku Klux Klan,kkk,Mobile,Alabama,0,0,30.69,-88.03,,"<a href=""https://edit.splcenter.org/fighting-hate/extremist-files/ideology/ku-klux-klan"">Ku Klux Klan</a>"
Aryan Nations Sadistic Souls MC,neo-nazi,,Ohio,1,0,40.41,-82.9,,"<a href=""https://edit.splcenter.org/fighting-hate/extremist-files/ideology/neo-nazi"">Neo-Nazi</a>"
Loyal White Knights of the Ku Klux Klan,kkk,Anaheim,California,0,0,33.83,-117.91,,"<a href=""https://edit.splcenter.org/fighting-hate/extremist-files/ideology/ku-klux-klan"">Ku Klux Klan</a>"
Loyal White Knights of the Ku Klux Klan,kkk,Dallas,Georgia,0,0,33.92,-84.84,,"<a href=""https://edit.splcenter.org/fighting-hate/extremist-files/ideology/ku-klux-klan"">Ku Klux Klan</a>"
Aryan Nations Sadistic Souls MC,neo-nazi,,Oklahoma,1,0,35,-97.09,,"<a href=""https://edit.splcenter.org/fighting-hate/extremist-files/ideology/neo-nazi"">Neo-Nazi</a>"
Loyal White Knights of the Ku Klux Klan,kkk,Covington,Georgia,0,0,33.59,-83.86,,"<a href=""https://edit.splcenter.org/fighting-hate/extremist-files/ideology/ku-klux-klan"">Ku Klux Klan</a>"
Loyal White Knights of the Ku Klux Klan,kkk,Canton,Georgia,0,0,34.23,-84.49,,"<a href=""https://edit.splcenter.org/fighting-hate/extremist-files/ideology/ku-klux-klan"">Ku Klux Klan</a>"
Loyal White Knights of the Ku Klux Klan,kkk,Valdosta,Georgia,0,0,30.83,-83.27,,"<a href=""https://edit.splcenter.org/fighting-hate/extremist-files/ideology/ku-klux-klan"">Ku Klux Klan</a>"
Loyal White Knights of the Ku Klux Klan,kkk,Trenton,Michigan,0,0,42.13,-83.17,,"<a href=""https://edit.splcenter.org/fighting-hate/extremist-files/ideology/ku-klux-klan"">Ku Klux Klan</a>"
Aryan Nations Sadistic Souls MC,neo-nazi,,Tennessee,1,0,35.51,-86.58,,"<a href=""https://edit.splcenter.org/fighting-hate/extremist-files/ideology/neo-nazi"">Neo-Nazi</a>"
Loyal White Knights of the Ku Klux Klan,kkk,Jackson,Mississippi,0,0,32.29,-90.18,,"<a href=""https://edit.splcenter.org/fighting-hate/extremist-files/ideology/ku-klux-klan"">Ku Klux Klan</a>"
Loyal White Knights of the Ku Klux Klan,kkk,Richmond,Virginia,0,0,37.54,-77.43,,"<a href=""https://edit.splcenter.org/fighting-hate/extremist-files/ideology/ku-klux-klan"">Ku Klux Klan</a>"
Loyal White Knights of the Ku Klux Klan,kkk,Danville,Virginia,0,0,36.58,-79.39,,"<a href=""https://edit.splcenter.org/fighting-hate/extremist-files/ideology/ku-klux-klan"">Ku Klux Klan</a>"
Loyal White Knights of the Ku Klux Klan,kkk,San Francisco,California,0,0,37.77,-122.41,,"<a href=""https://edit.splcenter.org/fighting-hate/extremist-files/ideology/ku-klux-klan"">Ku Klux Klan</a>"
Loyal White Knights of the Ku Klux Klan,kkk,Columbus,Ohio,0,0,39.96,-82.99,,"<a href=""https://edit.splcenter.org/fighting-hate/extremist-files/ideology/ku-klux-klan"">Ku Klux Klan</a>"
Rebel Brigade Knights True Invisible Empire,kkk,Martinsville,Virginia,0,1,36.69,-79.87,,"<a href=""https://edit.splcenter.org/fighting-hate/extremist-files/ideology/ku-klux-klan"">Ku Klux Klan</a>"
Patriotic Brigade Knights of the Ku Klux Klan,kkk,Gladewater,Texas,0,1,32.53,-94.94,,"<a href=""https://edit.splcenter.org/fighting-hate/extremist-files/ideology/ku-klux-klan"">Ku Klux Klan</a>"
Nordic Order Knights of the Ku Klux Klan,kkk,Dawson Springs,Kentucky,0,1,37.16,-87.69,,"<a href=""https://edit.splcenter.org/fighting-hate/extremist-files/ideology/ku-klux-klan"">Ku Klux Klan</a>"
Church of the National Knights of the Ku Klux Klan,kkk,Horn Lake,Mississippi,0,0,34.95,-90.03,,"<a href=""https://edit.splcenter.org/fighting-hate/extremist-files/ideology/ku-klux-klan"">Ku Klux Klan</a>"
Church of the National Knights of the Ku Klux Klan,kkk,Panama,New York,0,1,42.07,-79.48,,"<a href=""https://edit.splcenter.org/fighting-hate/extremist-files/ideology/ku-klux-klan"">Ku Klux Klan</a>"
Great Lakes Knights of the Ku Klux Klan,kkk,Alpena,Michigan,0,1,45.06,-83.43,,"<a href=""https://edit.splcenter.org/fighting-hate/extremist-files/ideology/ku-klux-klan"">Ku Klux Klan</a>"
Alliance Defending Freedom,anti-lgbt,Scottsdale,Arizona,0,1,33.62,-111.88,,"<a href=""https://edit.splcenter.org/fighting-hate/extremist-files/ideology/anti-lgbt"">Anti-LGBT</a>"
Pacific Coast Knights of the Ku Klux Klan,kkk,,California,1,1,36.77,-119.41,,"<a href=""https://edit.splcenter.org/fighting-hate/extremist-files/ideology/ku-klux-klan"">Ku Klux Klan</a>"
Pacific Coast Knights of the Ku Klux Klan,kkk,Spokane,Washington,0,0,47.65,-117.42,,"<a href=""https://edit.splcenter.org/fighting-hate/extremist-files/ideology/ku-klux-klan"">Ku Klux Klan</a>"
ACT for America,anti-muslim,Des Moines,Iowa,0,0,41.6,-93.6,,"<a href=""https://edit.splcenter.org/fighting-hate/extremist-files/ideology/anti-muslim"">Anti-Muslim</a>"
ACT for America,anti-muslim,Los Angeles,California,0,0,34.05,-118.24,,"<a href=""https://edit.splcenter.org/fighting-hate/extremist-files/ideology/anti-muslim"">Anti-Muslim</a>"
ACT for America,anti-muslim,Ste. Genevieve,Missouri,0,0,37.97,-90.04,,"<a href=""https://edit.splcenter.org/fighting-hate/extremist-files/ideology/anti-muslim"">Anti-Muslim</a>"
ACT for America,anti-muslim,Nashua,New Hampshire,0,0,42.76,-71.46,,"<a href=""https://edit.splcenter.org/fighting-hate/extremist-files/ideology/anti-muslim"">Anti-Muslim</a>"
Knights of the White Disciples,kkk,,North Carolina,1,0,35.75,-79.01,,"<a href=""https://edit.splcenter.org/fighting-hate/extremist-files/ideology/ku-klux-klan"">Ku Klux Klan</a>"
Knights of the White Disciples,kkk,Hudson,Florida,0,1,28.36,-82.69,,"<a href=""https://edit.splcenter.org/fighting-hate/extremist-files/ideology/ku-klux-klan"">Ku Klux Klan</a>"
ACT for America,anti-muslim,Knoxville,Tennessee,0,0,35.96,-83.92,,"<a href=""https://edit.splcenter.org/fighting-hate/extremist-files/ideology/anti-muslim"">Anti-Muslim</a>"
ACT for America,anti-muslim,Rapid City,South Dakota,0,0,44.08,-103.23,,"<a href=""https://edit.splcenter.org/fighting-hate/extremist-files/ideology/anti-muslim"">Anti-Muslim</a>"
ACT for America,anti-muslim,Jonesboro,Arkansas,0,0,35.84,-90.7,,"<a href=""https://edit.splcenter.org/fighting-hate/extremist-files/ideology/anti-muslim"">Anti-Muslim</a>"
ACT for America,anti-muslim,Cheshire,Connecticut,0,0,41.5,-72.91,,"<a href=""https://edit.splcenter.org/fighting-hate/extremist-files/ideology/anti-muslim"">Anti-Muslim</a>"
ACT for America,anti-muslim,St. Louis,Missouri,0,0,38.62,-90.19,,"<a href=""https://edit.splcenter.org/fighting-hate/extremist-files/ideology/anti-muslim"">Anti-Muslim</a>"
North Mississippi White Knights Of The Ku Klux Klan,kkk,Tupelo,Mississippi,0,1,34.25,-88.7,,"<a href=""https://edit.splcenter.org/fighting-hate/extremist-files/ideology/ku-klux-klan"">Ku Klux Klan</a>"
ACT for America,anti-muslim,Detroit,Michigan,0,0,42.33,-83.04,,"<a href=""https://edit.splcenter.org/fighting-hate/extremist-files/ideology/anti-muslim"">Anti-Muslim</a>"
ACT for America,anti-muslim,Palm Beach,Florida,0,0,26.7,-80.03,,"<a href=""https://edit.splcenter.org/fighting-hate/extremist-files/ideology/anti-muslim"">Anti-Muslim</a>"
White Boy Society,white-nationalist,,Kansas,1,0,39.01,-98.48,,"<a href=""https://edit.splcenter.org/fighting-hate/extremist-files/ideology/white-nationalist"">White Nationalist</a>"
White Boy Society,white-nationalist,,Michigan,1,0,44.31,-85.6,,"<a href=""https://edit.splcenter.org/fighting-hate/extremist-files/ideology/white-nationalist"">White Nationalist</a>"
Committee to End the CSI Refugee Center,anti-muslim,Buhl,Idaho,0,0,42.59,-114.75,,"<a href=""https://edit.splcenter.org/fighting-hate/extremist-files/ideology/anti-muslim"">Anti-Muslim</a>"
Refugee Resettlement Watch,anti-muslim,Fairplay,Maryland,0,1,39.53,-77.74,,"<a href=""https://edit.splcenter.org/fighting-hate/extremist-files/ideology/anti-muslim"">Anti-Muslim</a>"
Clarion Project,anti-muslim,Washington,District of Columbia,0,1,38.89,-77.04,,"<a href=""https://edit.splcenter.org/fighting-hate/extremist-files/ideology/anti-muslim"">Anti-Muslim</a>"
Understanding the Threat,anti-muslim,Vienna,Virginia,0,1,38.9,-77.26,,"<a href=""https://edit.splcenter.org/fighting-hate/extremist-files/ideology/anti-muslim"">Anti-Muslim</a>"
Fortress of Faith,anti-muslim,Bellingham,Washington,0,0,48.74,-122.47,,"<a href=""https://edit.splcenter.org/fighting-hate/extremist-files/ideology/anti-muslim"">Anti-Muslim</a>"
Northwest Hammerskins,racist-skinhead,,Washington,1,0,47.75,-120.74,,"<a href=""https://edit.splcenter.org/fighting-hate/extremist-files/ideology/racist-skinhead"">Racist Skinhead</a>"
Northwest Hammerskins,racist-skinhead,,Oregon,1,0,43.8,-120.55,,"<a href=""https://edit.splcenter.org/fighting-hate/extremist-files/ideology/racist-skinhead"">Racist Skinhead</a>"
Western Hammerskins,racist-skinhead,,California,1,0,36.77,-119.41,,"<a href=""https://edit.splcenter.org/fighting-hate/extremist-files/ideology/racist-skinhead"">Racist Skinhead</a>"
American Freedom Alliance,anti-muslim,Los Angeles,California,0,1,34.16,-118.51,,"<a href=""https://edit.splcenter.org/fighting-hate/extremist-files/ideology/anti-muslim"">Anti-Muslim</a>"
Truth in Love Project,anti-muslim,Chattaroy,Washington,0,1,47.88,-117.35,,"<a href=""https://edit.splcenter.org/fighting-hate/extremist-files/ideology/anti-muslim"">Anti-Muslim</a>"
ACT for America,anti-muslim,Boston,Massachusetts,0,1,42.36,-71.05,,"<a href=""https://edit.splcenter.org/fighting-hate/extremist-files/ideology/anti-muslim"">Anti-Muslim</a>"
Confederate Hammerskins,racist-skinhead,,Virginia,1,0,37.43,-78.65,,"<a href=""https://edit.splcenter.org/fighting-hate/extremist-files/ideology/racist-skinhead"">Racist Skinhead</a>"
Traditionalist American Knights of the Ku Klux Klan,kkk,Hayden,Idaho,0,0,47.76,-116.78,,"<a href=""https://edit.splcenter.org/fighting-hate/extremist-files/ideology/ku-klux-klan"">Ku Klux Klan</a>"
Loyal White Knights of the Ku Klux Klan,kkk,Huntsville,Alabama,0,0,34.73,-86.58,,"<a href=""https://edit.splcenter.org/fighting-hate/extremist-files/ideology/ku-klux-klan"">Ku Klux Klan</a>"
Loyal White Knights of the Ku Klux Klan,kkk,Jacksonville,Florida,0,0,30.33,-81.65,,"<a href=""https://edit.splcenter.org/fighting-hate/extremist-files/ideology/ku-klux-klan"">Ku Klux Klan</a>"
Center for Immigration Studies,anti-immigrant,Washington,District of Columbia,0,1,38.9,-77.03,,"<a href=""https://edit.splcenter.org/fighting-hate/extremist-files/ideology/anti-immigrant"">Anti-Immigrant</a>"
Family Security Matters,anti-muslim,Washington,District of Columbia,0,1,38.9,-77.04,,"<a href=""https://edit.splcenter.org/fighting-hate/extremist-files/ideology/anti-muslim"">Anti-Muslim</a>"
Lincoln County Citizen Action Network,anti-muslim,Fayetteville,Tennessee,0,1,35.15,-86.57,,"<a href=""https://edit.splcenter.org/fighting-hate/extremist-files/ideology/anti-muslim"">Anti-Muslim</a>"
Team America Political Action Committee,anti-muslim,Littleton,Colorado,0,1,39.61,-105.01,,"<a href=""https://edit.splcenter.org/fighting-hate/extremist-files/ideology/anti-muslim"">Anti-Muslim</a>"
Immigration Reform Law Institute,anti-immigrant,Washington,District of Columbia,0,1,38.89,-77.01,,"<a href=""https://edit.splcenter.org/fighting-hate/extremist-files/ideology/anti-immigrant"">Anti-Immigrant</a>"
The Right Stuff,white-nationalist,,Pennsylvania,1,0,40.65,-75.57,,"<a href=""https://edit.splcenter.org/fighting-hate/extremist-files/ideology/white-nationalist"">White Nationalist</a>"
The Right Stuff,white-nationalist,Columbus,Ohio,0,0,39.96,-82.99,,"<a href=""https://edit.splcenter.org/fighting-hate/extremist-files/ideology/white-nationalist"">White Nationalist</a>"
The Right Stuff,white-nationalist,Cincinnati,Ohio,0,0,39.1,-84.51,,"<a href=""https://edit.splcenter.org/fighting-hate/extremist-files/ideology/white-nationalist"">White Nationalist</a>"
Nordic Order Knights of the Ku Klux Klan,kkk,,Alabama,1,0,32.31,-86.9,,"<a href=""https://edit.splcenter.org/fighting-hate/extremist-files/ideology/ku-klux-klan"">Ku Klux Klan</a>"
Southern Ohio Knights of the Ku Klux Klan,kkk,,Ohio,1,1,40.41,-82.9,,"<a href=""https://edit.splcenter.org/fighting-hate/extremist-files/ideology/ku-klux-klan"">Ku Klux Klan</a>"
Old Glory Knights of the Ku Klux Klan,kkk,Vincent,Ohio,0,1,39.37,-81.67,,"<a href=""https://edit.splcenter.org/fighting-hate/extremist-files/ideology/ku-klux-klan"">Ku Klux Klan</a>"
Georgia Knight Riders of the Ku Klux Klan,kkk,Live Oak,Florida,0,1,30.29,-82.98,,"<a href=""https://edit.splcenter.org/fighting-hate/extremist-files/ideology/ku-klux-klan"">Ku Klux Klan</a>"
Divine Truth Ministries,christian-identity,Bainbridge,Ohio,0,1,39.22,-83.27,,"<a href=""https://edit.splcenter.org/fighting-hate/extremist-files/ideology/christian-identity"">Christian Identity</a>"
American Vanguard,white-nationalist,Huntington Beach,California,0,1,33.66,-117.99,,"<a href=""https://edit.splcenter.org/fighting-hate/extremist-files/ideology/white-nationalist"">White Nationalist</a>"
American Vanguard,white-nationalist,Bremerton,Washington,0,0,47.56,-122.63,,"<a href=""https://edit.splcenter.org/fighting-hate/extremist-files/ideology/white-nationalist"">White Nationalist</a>"
The Daily Stormer,neo-nazi,Cullman,Alabama,0,0,34.17,-86.84,,"<a href=""https://edit.splcenter.org/fighting-hate/extremist-files/ideology/neo-nazi"">Neo-Nazi</a>"
Traditionalist Worker Party,white-nationalist,,Kansas,1,0,39.01,-98.48,,"<a href=""https://edit.splcenter.org/fighting-hate/extremist-files/ideology/white-nationalist"">White Nationalist</a>"
Yahushua Dual Seed Christian Identity Ministry,christian-identity,Livingston,Texas,0,1,30.71,-94.93,,"<a href=""https://edit.splcenter.org/fighting-hate/extremist-files/ideology/christian-identity"">Christian Identity</a>"
Traditionalist Worker Party,white-nationalist,Sacramento,California,0,0,38.58,-121.49,,"<a href=""https://edit.splcenter.org/fighting-hate/extremist-files/ideology/white-nationalist"">White Nationalist</a>"
Euro Folk Radio,christian-identity,Chicago,Illinois,0,1,41.87,-87.62,,"<a href=""https://edit.splcenter.org/fighting-hate/extremist-files/ideology/christian-identity"">Christian Identity</a>"
Traditionalist Worker Party,white-nationalist,Murray,Kentucky,0,0,36.61,-88.31,,"<a href=""https://edit.splcenter.org/fighting-hate/extremist-files/ideology/white-nationalist"">White Nationalist</a>"
Traditionalist Worker Party,white-nationalist,Philadelphia,Pennsylvania,0,0,39.95,-75.16,,"<a href=""https://edit.splcenter.org/fighting-hate/extremist-files/ideology/white-nationalist"">White Nationalist</a>"
Traditionalist Worker Party,white-nationalist,Columbus,Indiana,0,0,39.2,-85.92,,"<a href=""https://edit.splcenter.org/fighting-hate/extremist-files/ideology/white-nationalist"">White Nationalist</a>"
National Socialist Movement,neo-nazi,,Georgia,1,0,32.16,-82.9,"<a href=""https://edit.splcenter.org/fighting-hate/extremist-files/group/national-socialist-movement"">National Socialist Movement</a>","<a href=""https://edit.splcenter.org/fighting-hate/extremist-files/ideology/neo-nazi"">Neo-Nazi</a>"
The Daily Stormer,neo-nazi,Wichita Falls,Texas,0,0,33.91,-98.49,,"<a href=""https://edit.splcenter.org/fighting-hate/extremist-files/ideology/neo-nazi"">Neo-Nazi</a>"
The Daily Stormer,neo-nazi,Burlington,Vermont,0,0,44.47,-73.21,,"<a href=""https://edit.splcenter.org/fighting-hate/extremist-files/ideology/neo-nazi"">Neo-Nazi</a>"
The Daily Stormer,neo-nazi,Phoenix,Arizona,0,0,33.44,-112.07,,"<a href=""https://edit.splcenter.org/fighting-hate/extremist-files/ideology/neo-nazi"">Neo-Nazi</a>"
The Daily Stormer,neo-nazi,St. Louis,Missouri,0,0,38.62,-90.19,,"<a href=""https://edit.splcenter.org/fighting-hate/extremist-files/ideology/neo-nazi"">Neo-Nazi</a>"
The Daily Stormer,neo-nazi,Charlotte,North Carolina,0,0,35.22,-80.84,,"<a href=""https://edit.splcenter.org/fighting-hate/extremist-files/ideology/neo-nazi"">Neo-Nazi</a>"
National Socialist Movement,neo-nazi,,Ohio,1,0,40.41,-82.9,"<a href=""https://edit.splcenter.org/fighting-hate/extremist-files/group/national-socialist-movement"">National Socialist Movement</a>","<a href=""https://edit.splcenter.org/fighting-hate/extremist-files/ideology/neo-nazi"">Neo-Nazi</a>"
The Daily Stormer,neo-nazi,Cambridge,Massachusetts,0,0,42.37,-71.1,,"<a href=""https://edit.splcenter.org/fighting-hate/extremist-files/ideology/neo-nazi"">Neo-Nazi</a>"
The Daily Stormer,neo-nazi,Seattle,Washington,0,0,47.6,-122.33,,"<a href=""https://edit.splcenter.org/fighting-hate/extremist-files/ideology/neo-nazi"">Neo-Nazi</a>"
Foundation for the Marketplace of Ideas,white-nationalist,Clinton Township,Michigan,0,1,42.05,-83.95,,"<a href=""https://edit.splcenter.org/fighting-hate/extremist-files/ideology/white-nationalist"">White Nationalist</a>"
The Realist Report,holocaust-denial,Poway,California,0,1,32.96,-117.03,,"<a href=""https://edit.splcenter.org/fighting-hate/extremist-files/ideology/holocaust-denial"">Holocaust Denial</a>"
Black Riders Liberation Party,black-separatist,Portland,Oregon,0,0,45.52,-122.67,,"<a href=""https://edit.splcenter.org/fighting-hate/extremist-files/ideology/black-separatist"">Black Separatist</a>"
ACT for America,anti-muslim,,Colorado,1,0,39.55,-105.78,,"<a href=""https://edit.splcenter.org/fighting-hate/extremist-files/ideology/anti-muslim"">Anti-Muslim</a>"
United Northern and Southern Knights of the Ku Klux Klan,kkk,,California,1,0,36.77,-119.41,,"<a href=""https://edit.splcenter.org/fighting-hate/extremist-files/ideology/ku-klux-klan"">Ku Klux Klan</a>"
Outlaw Knights of the Ku Klux Klan,kkk,,Ohio,1,1,40.41,-82.9,,"<a href=""https://edit.splcenter.org/fighting-hate/extremist-files/ideology/ku-klux-klan"">Ku Klux Klan</a>"
The Daily Stormer,neo-nazi,Santa Cruz,California,0,0,36.97,-122.03,,"<a href=""https://edit.splcenter.org/fighting-hate/extremist-files/ideology/neo-nazi"">Neo-Nazi</a>"
The Daily Stormer,neo-nazi,Orlando,Florida,0,0,28.53,-81.37,,"<a href=""https://edit.splcenter.org/fighting-hate/extremist-files/ideology/neo-nazi"">Neo-Nazi</a>"
The Daily Stormer,neo-nazi,Lowell,Massachusetts,0,0,42.63,-71.31,,"<a href=""https://edit.splcenter.org/fighting-hate/extremist-files/ideology/neo-nazi"">Neo-Nazi</a>"
The Daily Stormer,neo-nazi,Brandon,Florida,0,0,27.93,-82.28,,"<a href=""https://edit.splcenter.org/fighting-hate/extremist-files/ideology/neo-nazi"">Neo-Nazi</a>"
The Daily Stormer,neo-nazi,Amana,Iowa,0,0,41.8,-91.87,,"<a href=""https://edit.splcenter.org/fighting-hate/extremist-files/ideology/neo-nazi"">Neo-Nazi</a>"
The Daily Stormer,neo-nazi,Nashville,Tennessee,0,0,36.16,-86.78,,"<a href=""https://edit.splcenter.org/fighting-hate/extremist-files/ideology/neo-nazi"">Neo-Nazi</a>"
The Daily Stormer,neo-nazi,Mountain View,California,0,0,37.38,-122.08,,"<a href=""https://edit.splcenter.org/fighting-hate/extremist-files/ideology/neo-nazi"">Neo-Nazi</a>"
White New York,white-nationalist,Rochester,New York,0,1,43.16,-77.61,,"<a href=""https://edit.splcenter.org/fighting-hate/extremist-files/ideology/white-nationalist"">White Nationalist</a>"
Crew 38,racist-skinhead,,Maine,1,0,45.25,-69.44,,"<a href=""https://edit.splcenter.org/fighting-hate/extremist-files/ideology/racist-skinhead"">Racist Skinhead</a>"
Crew 38,racist-skinhead,,Kentucky,1,0,37.83,-84.27,,"<a href=""https://edit.splcenter.org/fighting-hate/extremist-files/ideology/racist-skinhead"">Racist Skinhead</a>"
"Israelite Church of God in Jesus Christ, The",black-separatist,Greensboro,North Carolina,0,0,36.07,-79.79,,"<a href=""https://edit.splcenter.org/fighting-hate/extremist-files/ideology/black-separatist"">Black Separatist</a>"
Crew 38,racist-skinhead,,Maryland,1,0,39.04,-76.64,,"<a href=""https://edit.splcenter.org/fighting-hate/extremist-files/ideology/racist-skinhead"">Racist Skinhead</a>"
American Front,racist-skinhead,,Washington,1,0,47.75,-120.74,,"<a href=""https://edit.splcenter.org/fighting-hate/extremist-files/ideology/racist-skinhead"">Racist Skinhead</a>"
American Front,racist-skinhead,,Oregon,1,0,43.8,-120.55,,"<a href=""https://edit.splcenter.org/fighting-hate/extremist-files/ideology/racist-skinhead"">Racist Skinhead</a>"
American Defense Records,racist-music,Lexington,Kentucky,0,0,38.04,-84.5,,"<a href=""https://edit.splcenter.org/fighting-hate/extremist-files/ideology/hate-music"">Hate Music</a>"
Soleilmoon Recordings,racist-music,Portland,Oregon,0,0,45.55,-122.64,,"<a href=""https://edit.splcenter.org/fighting-hate/extremist-files/ideology/hate-music"">Hate Music</a>"
Behold Barbarity Records & Distro,racist-music,Plymouth,Minnesota,0,0,45.01,-93.45,,"<a href=""https://edit.splcenter.org/fighting-hate/extremist-files/ideology/hate-music"">Hate Music</a>"
Wolf Tyr Productions,racist-music,Holbrook,New York,0,0,40.81,-73.07,,"<a href=""https://edit.splcenter.org/fighting-hate/extremist-files/ideology/hate-music"">Hate Music</a>"
The Daily Stormer,neo-nazi,Denver,Colorado,0,0,39.73,-104.99,,"<a href=""https://edit.splcenter.org/fighting-hate/extremist-files/ideology/neo-nazi"">Neo-Nazi</a>"
The Daily Stormer,neo-nazi,Pittsburgh,Pennsylvania,0,0,40.44,-79.99,,"<a href=""https://edit.splcenter.org/fighting-hate/extremist-files/ideology/neo-nazi"">Neo-Nazi</a>"
Militant Knights of the Ku Klux Klan,kkk,Alpena,Michigan,0,0,45.06,-83.43,,"<a href=""https://edit.splcenter.org/fighting-hate/extremist-files/ideology/ku-klux-klan"">Ku Klux Klan</a>"
Militant Knights of the Ku Klux Klan,kkk,Flint,Texas,0,0,32.2,-95.34,,"<a href=""https://edit.splcenter.org/fighting-hate/extremist-files/ideology/ku-klux-klan"">Ku Klux Klan</a>"
The Daily Stormer,neo-nazi,Spokane,Washington,0,0,47.65,-117.42,,"<a href=""https://edit.splcenter.org/fighting-hate/extremist-files/ideology/neo-nazi"">Neo-Nazi</a>"
White Devil Social Club,neo-nazi,,Wisconsin,1,0,43.78,-88.78,,"<a href=""https://edit.splcenter.org/fighting-hate/extremist-files/ideology/neo-nazi"">Neo-Nazi</a>"
Militant Knights of the Ku Klux Klan,kkk,,New York,1,0,43.29,-74.21,,"<a href=""https://edit.splcenter.org/fighting-hate/extremist-files/ideology/ku-klux-klan"">Ku Klux Klan</a>"
Militant Knights of the Ku Klux Klan,kkk,,Missouri,1,0,37.96,-91.83,,"<a href=""https://edit.splcenter.org/fighting-hate/extremist-files/ideology/ku-klux-klan"">Ku Klux Klan</a>"
The Daily Stormer,neo-nazi,Austin,Texas,0,0,30.26,-97.74,,"<a href=""https://edit.splcenter.org/fighting-hate/extremist-files/ideology/neo-nazi"">Neo-Nazi</a>"
Phalanx,white-nationalist,Washington,District of Columbia,0,1,38.9,-77.03,,"<a href=""https://edit.splcenter.org/fighting-hate/extremist-files/ideology/white-nationalist"">White Nationalist</a>"
Atomwaffen Division,neo-nazi,San Antonio,Texas,0,0,29.42,-98.49,,"<a href=""https://edit.splcenter.org/fighting-hate/extremist-files/ideology/neo-nazi"">Neo-Nazi</a>"
Vinland Clothing,racist-skinhead,Oildale,California,0,0,35.41,-119.01,,"<a href=""https://edit.splcenter.org/fighting-hate/extremist-files/ideology/racist-skinhead"">Racist Skinhead</a>"
Christian American Ministries,christian-identity,Greensburg,Louisiana,0,1,30.83,-90.67,,"<a href=""https://edit.splcenter.org/fighting-hate/extremist-files/ideology/christian-identity"">Christian Identity</a>"
Noble Breed Kindred,neo-nazi,,California,1,0,36.77,-119.41,,"<a href=""https://edit.splcenter.org/fighting-hate/extremist-files/ideology/neo-nazi"">Neo-Nazi</a>"
PzG Inc.,neo-nazi,Rapid City,South Dakota,0,0,44.08,-103.23,,"<a href=""https://edit.splcenter.org/fighting-hate/extremist-files/ideology/neo-nazi"">Neo-Nazi</a>"
Werewolf 88,neo-nazi,,Pennsylvania,1,0,41.2,-77.19,,"<a href=""https://edit.splcenter.org/fighting-hate/extremist-files/ideology/neo-nazi"">Neo-Nazi</a>"
Einherjar's Honor Wotansvolk,neo-nazi,,Virginia,1,0,37.43,-78.65,,"<a href=""https://edit.splcenter.org/fighting-hate/extremist-files/ideology/neo-nazi"">Neo-Nazi</a>"
Firm 22,racist-skinhead,,Florida,1,0,27.66,-81.51,,"<a href=""https://edit.splcenter.org/fighting-hate/extremist-files/ideology/racist-skinhead"">Racist Skinhead</a>"
Firm 22,racist-skinhead,New York,New York,0,0,40.71,-74,,"<a href=""https://edit.splcenter.org/fighting-hate/extremist-files/ideology/racist-skinhead"">Racist Skinhead</a>"
Firm 22,racist-skinhead,,Washington,1,0,47.75,-120.74,,"<a href=""https://edit.splcenter.org/fighting-hate/extremist-files/ideology/racist-skinhead"">Racist Skinhead</a>"
Endangered Souls RC/Crew 519,neo-nazi,,Idaho,1,0,44.06,-114.74,,"<a href=""https://edit.splcenter.org/fighting-hate/extremist-files/ideology/neo-nazi"">Neo-Nazi</a>"
Endangered Souls RC/Crew 519,neo-nazi,,Florida,1,0,27.66,-81.51,,"<a href=""https://edit.splcenter.org/fighting-hate/extremist-files/ideology/neo-nazi"">Neo-Nazi</a>"
Be Active Front USA,racist-skinhead,,Maryland,1,0,39.04,-76.64,,"<a href=""https://edit.splcenter.org/fighting-hate/extremist-files/ideology/racist-skinhead"">Racist Skinhead</a>"
Be Active Front USA,racist-skinhead,,Pennsylvania,1,0,41.2,-77.19,,"<a href=""https://edit.splcenter.org/fighting-hate/extremist-files/ideology/racist-skinhead"">Racist Skinhead</a>"
Sons & Daughters of Liberty,white-nationalist,,Florida,1,1,27.66,-81.51,,"<a href=""https://edit.splcenter.org/fighting-hate/extremist-files/ideology/white-nationalist"">White Nationalist</a>"
Sons & Daughters of Liberty,white-nationalist,,Indiana,1,0,40.26,-86.13,,"<a href=""https://edit.splcenter.org/fighting-hate/extremist-files/ideology/white-nationalist"">White Nationalist</a>"
Sons & Daughters of Liberty,white-nationalist,,Illinois,1,0,40.63,-89.39,,"<a href=""https://edit.splcenter.org/fighting-hate/extremist-files/ideology/white-nationalist"">White Nationalist</a>"
Soldiers of Odin,anti-muslim,,Colorado,1,0,39.55,-105.78,,"<a href=""https://edit.splcenter.org/fighting-hate/extremist-files/ideology/anti-muslim"">Anti-Muslim</a>"
Soldiers of Odin,anti-muslim,,California,1,0,36.77,-119.41,,"<a href=""https://edit.splcenter.org/fighting-hate/extremist-files/ideology/anti-muslim"">Anti-Muslim</a>"
Soldiers of Odin,anti-muslim,,Indiana,1,0,40.26,-86.13,,"<a href=""https://edit.splcenter.org/fighting-hate/extremist-files/ideology/anti-muslim"">Anti-Muslim</a>"
Soldiers of Odin,anti-muslim,,Texas,1,0,31.96,-99.9,,"<a href=""https://edit.splcenter.org/fighting-hate/extremist-files/ideology/anti-muslim"">Anti-Muslim</a>"
Israelite School of Universal Practical Knowledge,black-separatist,Rialto,California,0,0,34.1,-117.37,,"<a href=""https://edit.splcenter.org/fighting-hate/extremist-files/ideology/black-separatist"">Black Separatist</a>"
Deir Yassin Remembered,holocaust-denial,Geneva,New York,0,1,42.86,-76.98,,"<a href=""https://edit.splcenter.org/fighting-hate/extremist-files/ideology/holocaust-denial"">Holocaust Denial</a>"
Deir Yassin Remembered,holocaust-denial,Ann Arbor,Michigan,0,0,42.28,-83.74,,"<a href=""https://edit.splcenter.org/fighting-hate/extremist-files/ideology/holocaust-denial"">Holocaust Denial</a>"
Israelite School of Universal Practical Knowledge,black-separatist,,North Carolina,1,0,35.75,-79.01,,"<a href=""https://edit.splcenter.org/fighting-hate/extremist-files/ideology/black-separatist"">Black Separatist</a>"
Israelite School of Universal Practical Knowledge,black-separatist,Minneapolis,Minnesota,0,0,44.97,-93.26,,"<a href=""https://edit.splcenter.org/fighting-hate/extremist-files/ideology/black-separatist"">Black Separatist</a>"
Israelite School of Universal Practical Knowledge,black-separatist,Miami,Florida,0,0,25.76,-80.19,,"<a href=""https://edit.splcenter.org/fighting-hate/extremist-files/ideology/black-separatist"">Black Separatist</a>"
Israelite School of Universal Practical Knowledge,black-separatist,,Texas,1,0,31.96,-99.9,,"<a href=""https://edit.splcenter.org/fighting-hate/extremist-files/ideology/black-separatist"">Black Separatist</a>"
The Daily Stormer,neo-nazi,Raleigh,North Carolina,0,0,35.77,-78.63,,"<a href=""https://edit.splcenter.org/fighting-hate/extremist-files/ideology/neo-nazi"">Neo-Nazi</a>"
Israelite School of Universal Practical Knowledge,black-separatist,St. Louis,Missouri,0,0,38.62,-90.19,,"<a href=""https://edit.splcenter.org/fighting-hate/extremist-files/ideology/black-separatist"">Black Separatist</a>"
White Lives Matter- CT,white-nationalist,,Connecticut,1,0,41.6,-73.08,,"<a href=""https://edit.splcenter.org/fighting-hate/extremist-files/ideology/white-nationalist"">White Nationalist</a>"
White Lives Matter- TX,white-nationalist,,Texas,1,1,31.96,-99.9,,"<a href=""https://edit.splcenter.org/fighting-hate/extremist-files/ideology/white-nationalist"">White Nationalist</a>"
White Lives Matter - TN,white-nationalist,,Tennessee,1,0,35.51,-86.58,,"<a href=""https://edit.splcenter.org/fighting-hate/extremist-files/ideology/white-nationalist"">White Nationalist</a>"
Israelite School of Universal Practical Knowledge,black-separatist,Detroit,Michigan,0,0,42.33,-83.04,,"<a href=""https://edit.splcenter.org/fighting-hate/extremist-files/ideology/black-separatist"">Black Separatist</a>"
Israelite School of Universal Practical Knowledge,black-separatist,,Oklahoma,1,0,35,-97.09,,"<a href=""https://edit.splcenter.org/fighting-hate/extremist-files/ideology/black-separatist"">Black Separatist</a>"
Israelite School of Universal Practical Knowledge,black-separatist,Seattle,Washington,0,0,47.6,-122.33,,"<a href=""https://edit.splcenter.org/fighting-hate/extremist-files/ideology/black-separatist"">Black Separatist</a>"
United Dixie White Knights of the Ku Klux Klan,kkk,,Alabama,1,0,32.31,-86.9,,"<a href=""https://edit.splcenter.org/fighting-hate/extremist-files/ideology/ku-klux-klan"">Ku Klux Klan</a>"
United Dixie White Knights of the Ku Klux Klan,kkk,Plantersville,Mississippi,0,0,34.21,-88.66,,"<a href=""https://edit.splcenter.org/fighting-hate/extremist-files/ideology/ku-klux-klan"">Ku Klux Klan</a>"
Christian American Knights of the Ku Klux Klan,kkk,Cocoa,Florida,0,1,28.38,-80.74,,"<a href=""https://edit.splcenter.org/fighting-hate/extremist-files/ideology/ku-klux-klan"">Ku Klux Klan</a>"
Christian American Knights of the Ku Klux Klan,kkk,Hoxie,Arkansas,0,0,36.05,-90.97,,"<a href=""https://edit.splcenter.org/fighting-hate/extremist-files/ideology/ku-klux-klan"">Ku Klux Klan</a>"
Old Dominion Knights of the Ku Klux Klan,kkk,,Virginia,1,1,37.43,-78.65,,"<a href=""https://edit.splcenter.org/fighting-hate/extremist-files/ideology/ku-klux-klan"">Ku Klux Klan</a>"
White Knights of the Ku Klux Klan of America,kkk,Vancouver,Washington,0,1,45.63,-122.66,,"<a href=""https://edit.splcenter.org/fighting-hate/extremist-files/ideology/ku-klux-klan"">Ku Klux Klan</a>"
Ku Klos Knights of the Ku Klux Klan,kkk,Murfreesboro,Tennessee,0,0,35.84,-86.39,,"<a href=""https://edit.splcenter.org/fighting-hate/extremist-files/ideology/ku-klux-klan"">Ku Klux Klan</a>"
Hate Crime Streetwear Productions,racist-music,Anaheim,California,0,1,33.83,-117.91,,"<a href=""https://edit.splcenter.org/fighting-hate/extremist-files/ideology/hate-music"">Hate Music</a>"
Soldiers of Odin,anti-muslim,,Tennessee,1,0,35.51,-86.58,,"<a href=""https://edit.splcenter.org/fighting-hate/extremist-files/ideology/anti-muslim"">Anti-Muslim</a>"
Soldiers of Odin,anti-muslim,,North Carolina,1,0,35.75,-79.01,,"<a href=""https://edit.splcenter.org/fighting-hate/extremist-files/ideology/anti-muslim"">Anti-Muslim</a>"
Soldiers of Odin,anti-muslim,,Illinois,1,0,40.63,-89.39,,"<a href=""https://edit.splcenter.org/fighting-hate/extremist-files/ideology/anti-muslim"">Anti-Muslim</a>"
Soldiers of Odin,anti-muslim,Cleveland,Ohio,0,0,41.49,-81.69,,"<a href=""https://edit.splcenter.org/fighting-hate/extremist-files/ideology/anti-muslim"">Anti-Muslim</a>"
Soldiers of Odin,anti-muslim,,Ohio,1,0,40.41,-82.9,,"<a href=""https://edit.splcenter.org/fighting-hate/extremist-files/ideology/anti-muslim"">Anti-Muslim</a>"
Soldiers of Odin,anti-muslim,,New Hampshire,1,0,43.19,-71.57,,"<a href=""https://edit.splcenter.org/fighting-hate/extremist-files/ideology/anti-muslim"">Anti-Muslim</a>"
Legal Immigrants for America,anti-immigrant,Winter Springs,Florida,0,1,28.69,-81.26,,"<a href=""https://edit.splcenter.org/fighting-hate/extremist-files/ideology/anti-immigrant"">Anti-Immigrant</a>"
American Security Rally of Montana,anti-muslim,Helena,Montana,0,1,46.58,-112.02,,"<a href=""https://edit.splcenter.org/fighting-hate/extremist-files/ideology/anti-muslim"">Anti-Muslim</a>"
Counter-Currents Publishing,white-nationalist,New York,New York,0,0,40.71,-74,,"<a href=""https://edit.splcenter.org/fighting-hate/extremist-files/ideology/white-nationalist"">White Nationalist</a>"
Counter-Currents Publishing,white-nationalist,Seattle,Washington,0,0,47.6,-122.33,,"<a href=""https://edit.splcenter.org/fighting-hate/extremist-files/ideology/white-nationalist"">White Nationalist</a>"
ACTBAC NC,neo-confederate,Snow Camp,North Carolina,0,1,35.89,-79.43,,"<a href=""https://edit.splcenter.org/fighting-hate/extremist-files/ideology/neo-confederate"">Neo-Confederate</a>"
III% Security Force,anti-muslim,,Georgia,1,1,33.43,-84.14,,"<a href=""https://edit.splcenter.org/fighting-hate/extremist-files/ideology/anti-muslim"">Anti-Muslim</a>"
The Crusaders,anti-muslim,Garden City,Kansas,0,0,37.97,-100.87,,"<a href=""https://edit.splcenter.org/fighting-hate/extremist-files/ideology/anti-muslim"">Anti-Muslim</a>"
Pig Blood Bullets,anti-muslim,Priest River,Idaho,0,0,48.25,-116.87,,"<a href=""https://edit.splcenter.org/fighting-hate/extremist-files/ideology/anti-muslim"">Anti-Muslim</a>"
The Right Stuff,white-nationalist,New York,New York,0,1,40.71,-74,,"<a href=""https://edit.splcenter.org/fighting-hate/extremist-files/ideology/white-nationalist"">White Nationalist</a>"
Committee for Open Debate on the Holocaust,holocaust-denial,York,Pennsylvania,0,0,39.96,-76.72,,"<a href=""https://edit.splcenter.org/fighting-hate/extremist-files/ideology/holocaust-denial"">Holocaust Denial</a>"
New Black Panther Party,black-separatist,Houston,Texas,0,1,29.76,-95.36,"<a href=""https://edit.splcenter.org/fighting-hate/extremist-files/group/new-black-panther-party"">New Black Panther Party</a>","<a href=""https://edit.splcenter.org/fighting-hate/extremist-files/ideology/black-separatist"">Black Separatist</a>"
Divine Truth Ministries,christian-identity,,Arkansas,1,0,35.2,-91.83,,"<a href=""https://edit.splcenter.org/fighting-hate/extremist-files/ideology/christian-identity"">Christian Identity</a>"
National Policy Institute,white-nationalist,Arlington,Virginia,0,0,38.87,-77.1,,"<a href=""https://edit.splcenter.org/fighting-hate/extremist-files/ideology/white-nationalist"">White Nationalist</a>"
Borderkeepers of Alabama,anti-immigrant,Birmingham,Alabama,0,1,33.52,-86.8,,"<a href=""https://edit.splcenter.org/fighting-hate/extremist-files/ideology/anti-immigrant"">Anti-Immigrant</a>"
Virginia Christian Alliance,anti-muslim,Henrico,Virginia,0,0,37.63,-77.5,,"<a href=""https://edit.splcenter.org/fighting-hate/extremist-files/ideology/anti-muslim"">Anti-Muslim</a>"
Occidental Observer,white-nationalist,Laguna Hills,California,0,1,33.59,-117.69,,"<a href=""https://edit.splcenter.org/fighting-hate/extremist-files/ideology/white-nationalist"">White Nationalist</a>"
Forza Nuova,white-nationalist,,New Jersey,1,1,40.05,-74.4,,"<a href=""https://edit.splcenter.org/fighting-hate/extremist-files/ideology/white-nationalist"">White Nationalist</a>"
Forza Nuova,white-nationalist,Phoenix,Arizona,0,0,33.44,-112.07,,"<a href=""https://edit.splcenter.org/fighting-hate/extremist-files/ideology/white-nationalist"">White Nationalist</a>"
Treasure Valley Refugee Watch,anti-muslim,Meridian,Idaho,0,0,43.6,-116.4,,"<a href=""https://edit.splcenter.org/fighting-hate/extremist-files/ideology/anti-muslim"">Anti-Muslim</a>"
Bomb Islam,anti-muslim,Phoenix,Arizona,0,0,33.44,-112.07,,"<a href=""https://edit.splcenter.org/fighting-hate/extremist-files/ideology/anti-muslim"">Anti-Muslim</a>"
American Vanguard,white-nationalist,Orlando,Florida,0,0,28.53,-81.37,,"<a href=""https://edit.splcenter.org/fighting-hate/extremist-files/ideology/white-nationalist"">White Nationalist</a>"
Foundation for Advancing Christian Truth,anti-muslim,,New York,1,0,40.9,-73.85,,"<a href=""https://edit.splcenter.org/fighting-hate/extremist-files/ideology/anti-muslim"">Anti-Muslim</a>"
Keep South Dakota Safe PAC,anti-muslim,Aberdeen,South Dakota,0,0,45.46,-98.48,,"<a href=""https://edit.splcenter.org/fighting-hate/extremist-files/ideology/anti-muslim"">Anti-Muslim</a>"
American Constitution Center,anti-muslim,Nashville,Tennessee,0,0,36.16,-86.78,,"<a href=""https://edit.splcenter.org/fighting-hate/extremist-files/ideology/anti-muslim"">Anti-Muslim</a>"
Secure Michigan,anti-muslim,New Baltimore,Michigan,0,0,42.67,-82.8,,"<a href=""https://edit.splcenter.org/fighting-hate/extremist-files/ideology/anti-muslim"">Anti-Muslim</a>"
Altra Firearms,anti-muslim,Jackson Center,Pennsylvania,0,0,41.23,-80.1,,"<a href=""https://edit.splcenter.org/fighting-hate/extremist-files/ideology/anti-muslim"">Anti-Muslim</a>"
Soldiers of Odin,anti-muslim,Flagstaff,Arizona,0,0,35.19,-111.65,,"<a href=""https://edit.splcenter.org/fighting-hate/extremist-files/ideology/anti-muslim"">Anti-Muslim</a>"
The Daily Stormer,neo-nazi,Asheville,North Carolina,0,0,35.59,-82.55,,"<a href=""https://edit.splcenter.org/fighting-hate/extremist-files/ideology/neo-nazi"">Neo-Nazi</a>"
The Daily Stormer,neo-nazi,Baltimore,Maryland,0,0,39.29,-76.61,,"<a href=""https://edit.splcenter.org/fighting-hate/extremist-files/ideology/neo-nazi"">Neo-Nazi</a>"
The Daily Stormer,neo-nazi,Philadelphia,Pennsylvania,0,0,39.95,-75.16,,"<a href=""https://edit.splcenter.org/fighting-hate/extremist-files/ideology/neo-nazi"">Neo-Nazi</a>"
New Black Panther Party for Self Defense,black-separatist,Stone Mountain,Georgia,0,1,33.77,-84.08,,"<a href=""https://edit.splcenter.org/fighting-hate/extremist-files/ideology/black-separatist"">Black Separatist</a>"
New Black Panther Party for Self Defense,black-separatist,Tampa,Florida,0,0,27.95,-82.45,,"<a href=""https://edit.splcenter.org/fighting-hate/extremist-files/ideology/black-separatist"">Black Separatist</a>"
New Black Panther Party for Self Defense,black-separatist,New Haven,Connecticut,0,0,41.3,-72.92,,"<a href=""https://edit.splcenter.org/fighting-hate/extremist-files/ideology/black-separatist"">Black Separatist</a>"
Sicarii 1715,black-separatist,Lemon Grove,California,0,1,32.73,-117.03,,"<a href=""https://edit.splcenter.org/fighting-hate/extremist-files/ideology/black-separatist"">Black Separatist</a>"
Sicarii 1715,black-separatist,Seattle,Washington,0,0,47.6,-122.33,,"<a href=""https://edit.splcenter.org/fighting-hate/extremist-files/ideology/black-separatist"">Black Separatist</a>"
Sicarii 1715,black-separatist,Inland Empire,California,0,0,34.95,-116.41,,"<a href=""https://edit.splcenter.org/fighting-hate/extremist-files/ideology/black-separatist"">Black Separatist</a>"
Christian American Knights of the Ku Klux Klan,kkk,Bushnell,Florida,0,0,28.66,-82.11,,"<a href=""https://edit.splcenter.org/fighting-hate/extremist-files/ideology/ku-klux-klan"">Ku Klux Klan</a>"
Church of the National Knights of the Ku Klux Klan,kkk,,Kentucky,1,0,37.83,-84.27,,"<a href=""https://edit.splcenter.org/fighting-hate/extremist-files/ideology/ku-klux-klan"">Ku Klux Klan</a>"
Church of the National Knights of the Ku Klux Klan,kkk,,North Carolina,1,0,35.75,-79.01,,"<a href=""https://edit.splcenter.org/fighting-hate/extremist-files/ideology/ku-klux-klan"">Ku Klux Klan</a>"
American Vanguard,white-nationalist,,Arizona,1,0,34.04,-111.09,,"<a href=""https://edit.splcenter.org/fighting-hate/extremist-files/ideology/white-nationalist"">White Nationalist</a>"
American Vanguard,white-nationalist,,California,1,0,36.77,-119.41,,"<a href=""https://edit.splcenter.org/fighting-hate/extremist-files/ideology/white-nationalist"">White Nationalist</a>"
American Vanguard,white-nationalist,,Missouri,1,0,37.96,-91.83,,"<a href=""https://edit.splcenter.org/fighting-hate/extremist-files/ideology/white-nationalist"">White Nationalist</a>"
American Vanguard,white-nationalist,,Nebraska,1,0,41.49,-99.9,,"<a href=""https://edit.splcenter.org/fighting-hate/extremist-files/ideology/white-nationalist"">White Nationalist</a>"
American Vanguard,white-nationalist,,Ohio,1,0,40.41,-82.9,,"<a href=""https://edit.splcenter.org/fighting-hate/extremist-files/ideology/white-nationalist"">White Nationalist</a>"
American Vanguard,white-nationalist,,Pennsylvania,1,0,41.2,-77.19,,"<a href=""https://edit.splcenter.org/fighting-hate/extremist-files/ideology/white-nationalist"">White Nationalist</a>"
American Vanguard,white-nationalist,,Texas,1,0,31.96,-99.9,,"<a href=""https://edit.splcenter.org/fighting-hate/extremist-files/ideology/white-nationalist"">White Nationalist</a>"
American Vanguard,white-nationalist,,Utah,1,0,39.32,-111.09,,"<a href=""https://edit.splcenter.org/fighting-hate/extremist-files/ideology/white-nationalist"">White Nationalist</a>"
American Vanguard,white-nationalist,,Virginia,1,0,37.43,-78.65,,"<a href=""https://edit.splcenter.org/fighting-hate/extremist-files/ideology/white-nationalist"">White Nationalist</a>"
